name,website,type,use,address,area,ownership,Geom,geo_point_2d,latitude,longitude
AHVA Gallery,http://gallery.ahva.ubc.ca/about/,Museum/Gallery,Museum/Gallery,"6398 University Blvd, Vancouver, BC,",UBC,Other,"{""coordinates"": [-123.2549451, 49.2639124], ""type"": ""Point""}","49.2639124, -123.2549451",49.2639124,-123.2549451
Beaty Biodiversity Museum,http://www.beatymuseum.ubc.ca/about,Museum/Gallery,Museum/Gallery,"2212 Main Mall, Vancouver, BC, V6T 1Z4",UBC,Other,"{""coordinates"": [-123.251485, 49.2634318], ""type"": ""Point""}","49.2634318, -123.251485",49.2634318,-123.251485
Douglas Udell Gallery,www.douglasudellgallery.com?,Museum/Gallery,Museum/Gallery,"1558 W 6th Av, Vancouver, BC, V6J 1R2",Fairview,Privately Owned,"{""coordinates"": [-123.1399725, 49.2661804], ""type"": ""Point""}","49.2661804, -123.1399725",49.2661804,-123.1399725
Federation Gallery,http://artists.ca/federation_gallery,Museum/Gallery,Museum/Gallery,"1241 Cartwright St, Vancouver, BC, V6H 4B7",Fairview,Privately Owned,"{""coordinates"": [-123.13225, 49.269582], ""type"": ""Point""}","49.269582, -123.13225",49.269582,-123.13225
Granville Island,,Community Space,Plaza/Park/Band Shell,"Granville Island, Vancouver, BC",Fairview,Government,"{""coordinates"": [-123.134845, 49.269463], ""type"": ""Point""}","49.269463, -123.134845",49.269463,-123.134845
Hastings Mill Store Museum,www.hastings-mill-museum.ca?,Museum/Gallery,Museum/Gallery,"1575 Alma St, Vancouver, BC, V6R 3P3",West Point Grey,City of Vancouver,"{""coordinates"": [-123.185988, 49.272817], ""type"": ""Point""}","49.272817, -123.185988",49.272817,-123.185988
Inuit Gallery of Vancouver,www.inuit.com,Museum/Gallery,Museum/Gallery,"206 Cambie St, Vancouver, BC, V6B 2M9",Downtown,Privately Owned,"{""coordinates"": [-123.1088083, 49.2842455], ""type"": ""Point""}","49.2842455, -123.1088083",49.2842455,-123.1088083
John Hendry Park (Trout Lake),,Community Space,Plaza/Park/Band Shell,"3300 Victoria Dr, Vancouver, BC, V5N 4L9",Kensington-Cedar Cottage,Vancouver Park Board/COV,"{""coordinates"": [-123.06391, 49.25716], ""type"": ""Point""}","49.25716, -123.06391",49.25716,-123.06391
Larwill Park,https://en.wikipedia.org/wiki/Larwill_Park,Community Space,Plaza/Park/Band Shell,"688 Cambie St, Vancouver, BC, V6B 1T9",Downtown,City of Vancouver,"{""coordinates"": [-123.111836, 49.28042], ""type"": ""Point""}","49.28042, -123.111836",49.28042,-123.111836
Remington Gallery and Studio,https://www.facebook.com/Remington.Gallery.and.Studio,Museum/Gallery,Museum/Gallery,"108 E Hastings St, Vancouver, BC, V6A 4J1",Downtown,Privately Owned,"{""coordinates"": [-123.1019396, 49.281336], ""type"": ""Point""}","49.281336, -123.1019396",49.281336,-123.1019396
Vancouver Access Artist Run Centre,www.accessgallery.ca,Museum/Gallery,Museum/Gallery,"222 E Georgia St, Vancouver, BC, V6A 1Z7",Strathcona,Privately Owned,"{""coordinates"": [-123.098757, 49.278453], ""type"": ""Point""}","49.278453, -123.098757",49.278453,-123.098757
Vancouver Holocaust Education Centre,www.vhec.org?,Museum/Gallery,Museum/Gallery,"950 W 41st Av, Vancouver, BC, V5Z 2N7",Oakridge,Privately Owned,"{""coordinates"": [-123.126013, 49.233442], ""type"": ""Point""}","49.233442, -123.126013",49.233442,-123.126013
Vancouver Public Library,www.vpl.ca,Museum/Gallery,Library/Archives,"350 W Georgia St, Vancouver, BC, V6B 6B1",Downtown,City of Vancouver,"{""coordinates"": [-123.1151119, 49.2804357], ""type"": ""Point""}","49.2804357, -123.1151119",49.2804357,-123.1151119
221A Artist Run Centre,www.221a.ca/?,Museum/Gallery,Museum/Gallery,"221 E Georgia St, Vancouver, BC, V6A 1Z6",Strathcona,Privately Owned,"{""coordinates"": [-123.098796, 49.278786], ""type"": ""Point""}","49.278786, -123.098796",49.278786,-123.098796
Bill Reid Gallery,www.billreidgallery.ca,Museum/Gallery,Museum/Gallery,"639 Hornby St, Vancouver, BC, V6C 2G3",Downtown,Privately Owned,"{""coordinates"": [-123.119819, 49.284308], ""type"": ""Point""}","49.284308, -123.119819",49.284308,-123.119819
Creekside Park,,Community Space,Plaza/Park/Band Shell,"1455 Quebec St, Vancouver, BC, V6A 3Z7",Downtown,City of Vancouver,"{""coordinates"": [-123.10319, 49.274159], ""type"": ""Point""}","49.274159, -123.10319",49.274159,-123.10319
Federation Gallery,http://artists.ca/federation_gallery,Museum/Gallery,Museum/Gallery,"1241 Cartwright St, Vancouver, BC, V6H 4B7",Fairview,Privately Owned,"{""coordinates"": [-123.13225, 49.269582], ""type"": ""Point""}","49.269582, -123.13225",49.269582,-123.13225
Gallery of BC Ceramics,http://www.bcpotters.com/Gallery/index.php,Museum/Gallery,Museum/Gallery,"1359 Cartwright St, Vancouver, BC, V6H 3R7",Fairview,Non-Profit,"{""coordinates"": [-123.134283, 49.270046], ""type"": ""Point""}","49.270046, -123.134283",49.270046,-123.134283
GMS Observatory,http://www.spacecentre.ca/gms,Museum/Gallery,Garden/Aquarium/Science Centre,"1100 Chestnut St, Vancouver, BC, V6J 3J9",Kitsilano,City of Vancouver,"{""coordinates"": [-123.144436, 49.276261], ""type"": ""Point""}","49.276261, -123.144436",49.276261,-123.144436
Granville Fine Arts,www.granvillefineart.com?,Museum/Gallery,Museum/Gallery,"2447 Granville St, Vancouver, BC, V6H 3G5",Fairview,Privately Owned,"{""coordinates"": [-123.1386339, 49.2638926], ""type"": ""Point""}","49.2638926, -123.1386339",49.2638926,-123.1386339
Granville Island,,Community Space,Plaza/Park/Band Shell,"Granville Island, Vancouver, BC",Fairview,Government,"{""coordinates"": [-123.134845, 49.269463], ""type"": ""Point""}","49.269463, -123.134845",49.269463,-123.134845
Lattimer Gallery,www.lattimergallery.com?,Museum/Gallery,Museum/Gallery,"1590 W 2nd Av, Vancouver, BC, V6J 1H2",Fairview,Privately Owned,"{""coordinates"": [-123.1406592, 49.2696829], ""type"": ""Point""}","49.2696829, -123.1406592",49.2696829,-123.1406592
Spirit Wrestler Gallery,www.spiritwrestler.com,Museum/Gallery,Museum/Gallery,"47 Water St, Vancouver, BC, V6B 1A1",Downtown,Privately Owned,"{""coordinates"": [-123.105348, 49.2837331], ""type"": ""Point""}","49.2837331, -123.105348",49.2837331,-123.105348
Trench Gallery,www.trenchgallery.com,Museum/Gallery,Museum/Gallery,"148 Alexander St, Vancouver, BC, V6A 1B5",Downtown,Privately Owned,"{""coordinates"": [-123.1010921, 49.2839469], ""type"": ""Point""}","49.2839469, -123.1010921",49.2839469,-123.1010921
Winsor Gallery,www.winsorgallery.com,Museum/Gallery,Museum/Gallery,"258 E 1st Ave, Vancouver, BC, V5T 1A6",Strathcona,Privately Owned,"{""coordinates"": [-123.0984496, 49.2689553], ""type"": ""Point""}","49.2689553, -123.0984496",49.2689553,-123.0984496
Arts Club Theatre - Production Centre,,Studio/Rehearsal,Workshop,"1377 Cartwright St, Vancouver, BC, V6H 3R7",Fairview,Government,"{""coordinates"": [-123.1347122, 49.2700047], ""type"": ""Point""}","49.2700047, -123.1347122",49.2700047,-123.1347122
BAF Studio,http://www.burrardarts.org/about.html,Museum/Gallery,Museum/Gallery,"108 E Broadway Av, Vancouver, BC, V5T 1V9",Mount Pleasant,Privately Owned,"{""coordinates"": [-123.102505, 49.262669], ""type"": ""Point""}","49.262669, -123.102505",49.262669,-123.102505
Circle Craft Co-Operative Shop & Gallery,www.circlecraft.net/,Museum/Gallery,Museum/Gallery,"1666 Johnston St, Vancouver, BC, V6H 3S2",Fairview,Government,"{""coordinates"": [-123.135541, 49.272369], ""type"": ""Point""}","49.272369, -123.135541",49.272369,-123.135541
Contemporary Art Gallery,www.contemporaryartgallery.ca?,Museum/Gallery,Museum/Gallery,"555 Nelson St, Vancouver, BC, V6B 6R5",Downtown,Privately Owned,"{""coordinates"": [-123.121183, 49.278238], ""type"": ""Point""}","49.278238, -123.121183",49.278238,-123.121183
Havana Gallery,www.havanarestaurant.ca,Museum/Gallery,Museum/Gallery,"1212 Commercial Dr, Vancouver, BC, V5L 3X4",Grandview-Woodland,Privately Owned,"{""coordinates"": [-123.069421, 49.273662], ""type"": ""Point""}","49.273662, -123.069421",49.273662,-123.069421
Uno Langmann Limited Fine Arts,www.langmann.com,Museum/Gallery,Museum/Gallery,"2117 Granville St, Vancouver, BC, V6H 3E9",Fairview,Privately Owned,"{""coordinates"": [-123.1388698, 49.2666423], ""type"": ""Point""}","49.2666423, -123.1388698",49.2666423,-123.1388698
Vancouver Art Gallery,www.vanartgallery.bc.ca,Museum/Gallery,Museum/Gallery,"750 Hornby St, Vancouver, BC, V6Z 2H7",Downtown,Government,"{""coordinates"": [-123.120932, 49.283158], ""type"": ""Point""}","49.283158, -123.120932",49.283158,-123.120932
Vancouver Public Library,www.vpl.ca,Museum/Gallery,Library/Archives,"350 W Georgia St, Vancouver, BC, V6B 6B1",Downtown,City of Vancouver,"{""coordinates"": [-123.1151119, 49.2804357], ""type"": ""Point""}","49.2804357, -123.1151119",49.2804357,-123.1151119
Wil Aballe Art Projects,http://www.waapart.com/,Museum/Gallery,Museum/Gallery,"1129 E Hastings St, Vancouver, BC, V6A 1S3",Strathcona,Privately Owned,"{""coordinates"": [-123.0829342, 49.2811746], ""type"": ""Point""}","49.2811746, -123.0829342",49.2811746,-123.0829342
BC Sports Hall of Fame Museum,www.bcsportshalloffame.com,Museum/Gallery,Museum/Gallery,"777 Pacific Blvd S, Vancouver, BC, V6B 4Y8",Downtown,Government,"{""coordinates"": [-123.110438, 49.27619], ""type"": ""Point""}","49.27619, -123.110438",49.27619,-123.110438
Chali-Rosso Gallery,www.chalirosso.com,Museum/Gallery,Museum/Gallery,"2250 Granville St, Vancouver, BC, V6H 4H7",Fairview,Privately Owned,"{""coordinates"": [-123.1384021, 49.2657529], ""type"": ""Point""}","49.2657529, -123.1384021",49.2657529,-123.1384021
Gallery Jones,www.galleryjones.com?,Museum/Gallery,Museum/Gallery,"258 E 1st Av, Vancouver, BC, V5T 1A6",Strathcona,Privately Owned,"{""coordinates"": [-123.098623, 49.269727], ""type"": ""Point""}","49.269727, -123.098623",49.269727,-123.098623
Granville Fine Arts,www.granvillefineart.com?,Museum/Gallery,Museum/Gallery,"2447 Granville St, Vancouver, BC, V6H 3G5",Fairview,Privately Owned,"{""coordinates"": [-123.1386339, 49.2638926], ""type"": ""Point""}","49.2638926, -123.1386339",49.2638926,-123.1386339
Havana Gallery,www.havanarestaurant.ca,Museum/Gallery,Museum/Gallery,"1212 Commercial Dr, Vancouver, BC, V5L 3X4",Grandview-Woodland,Privately Owned,"{""coordinates"": [-123.069421, 49.273662], ""type"": ""Point""}","49.273662, -123.069421",49.273662,-123.069421
Rennie Collection at Wing Sang,http://renniecollection.org/gallery/wingsang.php,Museum/Gallery,Museum/Gallery,"51 E Pender St, Vancouver, BC, V6A 1S9",Downtown,Privately Owned,"{""coordinates"": [-123.1031317, 49.2806995], ""type"": ""Point""}","49.2806995, -123.1031317",49.2806995,-123.1031317
Ayden Gallery,www.aydengallery.com?,Museum/Gallery,Museum/Gallery,"88 W Pender St, Vancouver, BC, V6B 6N9",Downtown,Privately Owned,"{""coordinates"": [-123.1071802, 49.2809655], ""type"": ""Point""}","49.2809655, -123.1071802",49.2809655,-123.1071802
Ian Tan Gallery,www.iantangallery.com?,Museum/Gallery,Museum/Gallery,"2202 Granville St, Vancouver, BC, V6H 4H7",Fairview,Privately Owned,"{""coordinates"": [-123.1383868, 49.2661646], ""type"": ""Point""}","49.2661646, -123.1383868",49.2661646,-123.1383868
John Hendry Park (Trout Lake),,Community Space,Plaza/Park/Band Shell,"3300 Victoria Dr, Vancouver, BC, V5N 4L9",Kensington-Cedar Cottage,Vancouver Park Board/COV,"{""coordinates"": [-123.06391, 49.25716], ""type"": ""Point""}","49.25716, -123.06391",49.25716,-123.06391
Lobby Gallery,http://www.ligi.ubc.ca/LobbyGallery.htm,Museum/Gallery,Museum/Gallery,"6476 NW Marine Dr, Vancouver, BC,",UBC,Other,"{""coordinates"": [-123.259146, 49.267681], ""type"": ""Point""}","49.267681, -123.259146",49.267681,-123.259146
Roedde House,www.roeddehouse.org,Museum/Gallery,Museum/Gallery,"1415 Barclay St, Vancouver, BC, V6G 1J6",West End,City of Vancouver,"{""coordinates"": [-123.132187, 49.286863], ""type"": ""Point""}","49.286863, -123.132187",49.286863,-123.132187
Canadian Music Centre (BC Region),http://www.musiccentre.ca/regions/british-columbia?field_event_region_value_many_to_one=3,Museum/Gallery,Library/Archives,"837 Davie St, Vancouver, BC, V6Z 1B7",Downtown,Privately Owned,"{""coordinates"": [-123.127484, 49.278055], ""type"": ""Point""}","49.278055, -123.127484",49.278055,-123.127484
Colbourne House/ Marpole Museum,http://www.marpolehistorical.ca?,Museum/Gallery,Museum/Gallery,"8743 Sw Marine Dr, Vancouver, BC, V6P 6A5",Marpole,City of Vancouver,"{""coordinates"": [-123.1423354, 49.2064788], ""type"": ""Point""}","49.2064788, -123.1423354",49.2064788,-123.1423354
Science World At Telus World Of Science,www.scienceworld.ca?,Museum/Gallery,Garden/Aquarium/Science Centre,"1455 Quebec St, Vancouver, BC, V6A 3Z7",Downtown,Government,"{""coordinates"": [-123.103652, 49.273743], ""type"": ""Point""}","49.273743, -123.103652",49.273743,-123.103652
Spirit Wrestler Gallery,www.spiritwrestler.com,Museum/Gallery,Museum/Gallery,"47 Water St, Vancouver, BC, V6B 1A1",Downtown,Privately Owned,"{""coordinates"": [-123.105348, 49.2837331], ""type"": ""Point""}","49.2837331, -123.105348",49.2837331,-123.105348
Teck Gallery,https://www.sfu.ca/galleries/teck-gallery.html,Museum/Gallery,Museum/Gallery,"515 W Hastings St, Vancouver, BC, V6B 0B2",Downtown,Privately Owned,"{""coordinates"": [-123.1119735, 49.2841655], ""type"": ""Point""}","49.2841655, -123.1119735",49.2841655,-123.1119735
Writers' Exchange,,Studio/Rehearsal,Workshop,"881 E Hastings St, Vancouver, BC, V6A 1R8",Strathcona,Privately Owned,"{""coordinates"": [-123.0853822, 49.2811097], ""type"": ""Point""}","49.2811097, -123.0853822",49.2811097,-123.0853822
BAF Studio,http://www.burrardarts.org/about.html,Museum/Gallery,Museum/Gallery,"108 E Broadway Av, Vancouver, BC, V5T 1V9",Mount Pleasant,Privately Owned,"{""coordinates"": [-123.102505, 49.262669], ""type"": ""Point""}","49.262669, -123.102505",49.262669,-123.102505
Bill Reid Gallery,www.billreidgallery.ca,Museum/Gallery,Museum/Gallery,"639 Hornby St, Vancouver, BC, V6C 2G3",Downtown,Privately Owned,"{""coordinates"": [-123.119819, 49.284308], ""type"": ""Point""}","49.284308, -123.119819",49.284308,-123.119819
Coastal Peoples Fine Arts Gallery Yaletown,http://www.coastalpeoples.com,Museum/Gallery,Museum/Gallery,"1024 Mainland St, Vancouver, BC, V6B 2T4",Downtown,Privately Owned,"{""coordinates"": [-123.119591, 49.2762084], ""type"": ""Point""}","49.2762084, -123.119591",49.2762084,-123.119591
Colbourne House/ Marpole Museum,http://www.marpolehistorical.ca?,Museum/Gallery,Museum/Gallery,"8743 Sw Marine Dr, Vancouver, BC, V6P 6A5",Marpole,City of Vancouver,"{""coordinates"": [-123.1423354, 49.2064788], ""type"": ""Point""}","49.2064788, -123.1423354",49.2064788,-123.1423354
Emily Carr Institute of Art + Design 1612 Gallery,,Museum/Gallery,Museum/Gallery,"1612 W 3rd Av, Vancouver, BC, V6J 1K2",Fairview,,"{""coordinates"": [-123.1411548, 49.2688004], ""type"": ""Point""}","49.2688004, -123.1411548",49.2688004,-123.1411548
Granville Island,,Community Space,Plaza/Park/Band Shell,", Vancouver, BC,",Fairview,Government,"{""coordinates"": [-123.134845, 49.269463], ""type"": ""Point""}","49.269463, -123.134845",49.269463,-123.134845
Great Northern Way Scene Shop,www.gnwshop.ca?,Studio/Rehearsal,Workshop,"281 Industrial, Vancouver, BC, V5A 2P2",Strathcona,City of Vancouver,"{""coordinates"": [-123.098432, 49.270087], ""type"": ""Point""}","49.270087, -123.098432",49.270087,-123.098432
Harrison Galleries,www.harrisongalleries.com,Museum/Gallery,Museum/Gallery,"901 Homer St, Vancouver, BC, V6B 2W6",Downtown,Privately Owned,"{""coordinates"": [-123.1184779, 49.2784569], ""type"": ""Point""}","49.2784569, -123.1184779",49.2784569,-123.1184779
Hill's Native Art,www.hillsnativeart.com,Museum/Gallery,Museum/Gallery,"165 Water St, Vancouver, BC, V6B 1A7",Downtown,Privately Owned,"{""coordinates"": [-123.1081528, 49.2844721], ""type"": ""Point""}","49.2844721, -123.1081528",49.2844721,-123.1081528
Interurban Gallery,,Museum/Gallery,Museum/Gallery,"1 E Hastings St, Vancouver, BC, V6A 1M9",Downtown,Privately Owned,"{""coordinates"": [-123.1043161, 49.2815282], ""type"": ""Point""}","49.2815282, -123.1043161",49.2815282,-123.1043161
Jennifer Kostuik Gallery,www.kostuikgallery.com?,Museum/Gallery,Museum/Gallery,"1070 Homer St, Vancouver, BC, V6B 2W9",Downtown,Privately Owned,"{""coordinates"": [-123.1211143, 49.2766268], ""type"": ""Point""}","49.2766268, -123.1211143",49.2766268,-123.1211143
Oppenheimer Park,,Community Space,Plaza/Park/Band Shell,", Vancouver, BC,",Strathcona,Park Board/COV,"{""coordinates"": [-123.094341, 49.282643], ""type"": ""Point""}","49.282643, -123.094341",49.282643,-123.094341
PNE Amphitheatre,http://www.49st.com/venue/pne-amphitheatre#info,Community Space,Plaza/Park/Band Shell,"2901 E Hastings St, Vancouver, BC, V5K 5J1",Hastings-Sunrise,City of Vancouver,"{""coordinates"": [-123.037295, 49.28416], ""type"": ""Point""}","49.28416, -123.037295",49.28416,-123.037295
Unit/Pitt Projects,www.helenpittgallery.org,Museum/Gallery,Museum/Gallery,"236 E Pender St, Vancouver, BC, V6A 1T7",Strathcona,Privately Owned,"{""coordinates"": [-123.098813, 49.280103], ""type"": ""Point""}","49.280103, -123.098813",49.280103,-123.098813
221A Artist Run Centre Society,www.221a.ca?,Museum/Gallery,Museum/Gallery,"16-1265 Howe St, Vancouver, BC, V6Z 1R3",Downtown,Privately Owned,"{""coordinates"": [-123.0988265, 49.278806], ""type"": ""Point""}","49.278806, -123.0988265",49.278806,-123.0988265
Art Emporium,http://www.theartemporium.ca,Museum/Gallery,Museum/Gallery,"2928 Granville St, Vancouver, BC, V6H 3J7",Fairview,Privately Owned,"{""coordinates"": [-123.1383072, 49.2593906], ""type"": ""Point""}","49.2593906, -123.1383072",49.2593906,-123.1383072
Bill Reid Gallery,www.billreidgallery.ca,Museum/Gallery,Museum/Gallery,"639 Hornby St, Vancouver, BC, V6C 2G3",Downtown,Privately Owned,"{""coordinates"": [-123.119819, 49.284308], ""type"": ""Point""}","49.284308, -123.119819",49.284308,-123.119819
Djavad Mowafaghian Cinema,http://www.sfu.ca/mecs/facilities/goldcorp-centre-for-the-arts/meeting-rooms/djavadmowafaghian.html,Theatre/Performance,Cinema,"149 W Hastings St, Vancouver, BC, V6B 1H4",Downtown,Other,"{""coordinates"": [-123.108528, 49.282364], ""type"": ""Point""}","49.282364, -123.108528",49.282364,-123.108528
Douglas Udell Gallery,www.douglasudellgallery.com?,Museum/Gallery,Museum/Gallery,"1566 W 6th Av, Vancouver, BC, V6J 1R2",Fairview,Privately Owned,"{""coordinates"": [-123.1422296, 49.2660537], ""type"": ""Point""}","49.2660537, -123.1422296",49.2660537,-123.1422296
Fifth Avenue Cinemas,https://www.cineplex.com/Theatre/fifth-avenue-cinemas/,Theatre/Performance,Cinema,"2110 Burrard St, Vancouver, BC, V6J 3H6",Kitsilano,Privately Owned,"{""coordinates"": [-123.1455584, 49.2670183], ""type"": ""Point""}","49.2670183, -123.1455584",49.2670183,-123.1455584
Granville Fine Arts,www.granvillefineart.com?,Museum/Gallery,Museum/Gallery,"2447 Granville St, Vancouver, BC, V6H 3G5",Fairview,Privately Owned,"{""coordinates"": [-123.1386339, 49.2638926], ""type"": ""Point""}","49.2638926, -123.1386339",49.2638926,-123.1386339
Kitsilano Showboat,http://www.kitsilanoshowboat.com/showboat.html,Community Space,Plaza/Park/Band Shell,"2300 Cornwall Av, Vancouver, BC, V6K 1B7",Kitsilano,City of Vancouver,"{""coordinates"": [-123.1573621, 49.2725956], ""type"": ""Point""}","49.2725956, -123.1573621",49.2725956,-123.1573621
Trench Gallery,www.trenchgallery.com,Museum/Gallery,Museum/Gallery,"102-148 Alexander St, Vancouver, BC, V6A 1B5",Downtown,Privately Owned,"{""coordinates"": [-123.1010921, 49.2839469], ""type"": ""Point""}","49.2839469, -123.1010921",49.2839469,-123.1010921
Artstarts in Schools,www.artstarts.com,Museum/Gallery,Museum/Gallery,"808 Richards St, Vancouver, BC, V6B 3A7",Downtown,Privately Owned,"{""coordinates"": [-123.1179808, 49.2799985], ""type"": ""Point""}","49.2799985, -123.1179808",49.2799985,-123.1179808
Catriona Jeffries Gallery,www.catrionajeffries.com?,Museum/Gallery,Museum/Gallery,"274 E 1st Av, Vancouver, BC, V5T 1A6",Strathcona,Privately Owned,"{""coordinates"": [-123.0980394, 49.2687198], ""type"": ""Point""}","49.2687198, -123.0980394",49.2687198,-123.0980394
Dynamo Arts Association,www.dynamoarts.tumblr.com?,Museum/Gallery,Museum/Gallery,"30 E 6th Ave, Vancouver, BC, V5T 1J4",Mount Pleasant,Privately Owned,"{""coordinates"": [-123.1040486, 49.2653017], ""type"": ""Point""}","49.2653017, -123.1040486",49.2653017,-123.1040486
Equinox Gallery,www.equinoxgallery.com,Museum/Gallery,Museum/Gallery,"525 Great Northern Way, Vancouver, BC, V5T 1E1",Strathcona,Privately Owned,"{""coordinates"": [-123.09226, 49.267609], ""type"": ""Point""}","49.267609, -123.09226",49.267609,-123.09226
Monte Clark Gallery,www.monteclarkgallery.com,Museum/Gallery,Museum/Gallery,"525 Great Northern Way, Vancouver, BC, V5T 1E1",Strathcona,Privately Owned,"{""coordinates"": [-123.0921743, 49.26761], ""type"": ""Point""}","49.26761, -123.0921743",49.26761,-123.0921743
The Lab - Vancouver Art and Leisure,http://www.vanartleisure.com/,Studio/Rehearsal,Workshop,"101 W 6th Av, Vancouver, BC, V5Y 1K3",Mount Pleasant,Privately Owned,"{""coordinates"": [-123.106972, 49.265745], ""type"": ""Point""}","49.265745, -123.106972",49.265745,-123.106972
CBC Outdoor Stage,http://www.cbc.ca,Community Space,Plaza/Park/Band Shell,"700 Hamilton, Vancouver, BC, V6B 2R5",Downtown,Government,"{""coordinates"": [-123.114669, 49.279299], ""type"": ""Point""}","49.279299, -123.114669",49.279299,-123.114669
Cineplex Odeon International Village Cinemas,http://www.cineplex.com/Theatre/Cineplex-Odeon-International-Village-Cinemas,Theatre/Performance,Cinema,"88 W Pender St, Vancouver, BC, V6B 6N9",Downtown,Privately Owned,"{""coordinates"": [-123.106621, 49.280474], ""type"": ""Point""}","49.280474, -123.106621",49.280474,-123.106621
Dynamo Arts Association,www.dynamoarts.tumblr.com?,Museum/Gallery,Museum/Gallery,"30 E 6th Ave, Vancouver, BC, V5T 1J4",Mount Pleasant,Privately Owned,"{""coordinates"": [-123.1040486, 49.2653017], ""type"": ""Point""}","49.2653017, -123.1040486",49.2653017,-123.1040486
Gallery Gachet,www.gachet.org?,Museum/Gallery,Museum/Gallery,"88 E Cordova St, Vancouver, BC, V6A 1K2",Downtown,Privately Owned,"{""coordinates"": [-123.102645, 49.2821], ""type"": ""Point""}","49.2821, -123.102645",49.2821,-123.102645
221A Artist Run Centre,www.221a.ca/?,Museum/Gallery,Museum/Gallery,"221 E Georgia St, Vancouver, BC, V6A 1Z6",Strathcona,Privately Owned,"{""coordinates"": [-123.098796, 49.278786], ""type"": ""Point""}","49.278786, -123.098796",49.278786,-123.098796
Artspeak Gallery,www.artspeak.ca/?,Museum/Gallery,Museum/Gallery,"233 Carrall St, Vancouver, BC, V6B 2J2",Downtown,Non-Profit,"{""coordinates"": [-123.104299, 49.282941], ""type"": ""Point""}","49.282941, -123.104299",49.282941,-123.104299
City of Vancouver Archives,www.vancouver.cayour-government/city-of-vancouver-archives.aspx?,Museum/Gallery,Library/Archives,"1150 Chestnut St, Vancouver, BC, V6J 3J9",Kitsilano,City of Vancouver,"{""coordinates"": [-123.142663, 49.276084], ""type"": ""Point""}","49.276084, -123.142663",49.276084,-123.142663
Basic Inquiry,http://www.lifedrawing.org/index.html,Museum/Gallery,Museum/Gallery,"1011 Main St, Vancouver, BC, V6A 4L4",Downtown,Privately Owned,"{""coordinates"": [-123.1000334, 49.2758184], ""type"": ""Point""}","49.2758184, -123.1000334",49.2758184,-123.1000334
Dynamo Arts Association,www.dynamoarts.tumblr.com?,Museum/Gallery,Museum/Gallery,"30 E 6th Ave, Vancouver, BC, V5T 1J4",Mount Pleasant,Privately Owned,"{""coordinates"": [-123.1040486, 49.2653017], ""type"": ""Point""}","49.2653017, -123.1040486",49.2653017,-123.1040486
Hill's Native Art,www.hillsnativeart.com,Museum/Gallery,Museum/Gallery,"165 Water St, Vancouver, BC, V6B 1A7",Downtown,Privately Owned,"{""coordinates"": [-123.1081528, 49.2844721], ""type"": ""Point""}","49.2844721, -123.1081528",49.2844721,-123.1081528
John Hendry Park (Trout Lake),,Community Space,Plaza/Park/Band Shell,"3300 Victoria Dr, Vancouver, BC, V5N 4L9",Kensington-Cedar Cottage,Vancouver Park Board/COV,"{""coordinates"": [-123.06391, 49.25716], ""type"": ""Point""}","49.25716, -123.06391",49.25716,-123.06391
Kitsilano Showboat,http://www.kitsilanoshowboat.com/showboat.html,Community Space,Plaza/Park/Band Shell,"2300 Cornwall Av, Vancouver, BC, V6K 1B7",Kitsilano,City of Vancouver,"{""coordinates"": [-123.1573621, 49.2725956], ""type"": ""Point""}","49.2725956, -123.1573621",49.2725956,-123.1573621
Or Gallery,www.orgallery.org?,Museum/Gallery,Museum/Gallery,"555 Hamilton St, Vancouver, BC, V6B 2R1",Downtown,Privately Owned,"{""coordinates"": [-123.112094, 49.281406], ""type"": ""Point""}","49.281406, -123.112094",49.281406,-123.112094
Rennie Collection at Wing Sang,,Museum/Gallery,Museum/Gallery,"51 E Pender St, Vancouver, BC, V6A 1S9",Downtown,Privately Owned,"{""coordinates"": [-123.1031317, 49.2806995], ""type"": ""Point""}","49.2806995, -123.1031317",49.2806995,-123.1031317
Rio Theatre,www.riotheatre.ca?,Theatre/Performance,Cinema,"1660 E Broadway, Vancouver, BC, V5N 1W1",Kensington-Cedar Cottage,Privately Owned,"{""coordinates"": [-123.0704852, 49.2620042], ""type"": ""Point""}","49.2620042, -123.0704852",49.2620042,-123.0704852
UBC Museum of Anthropology,http://moa.ubc.ca/,Museum/Gallery,Museum/Gallery,"6393 NW Marine Dr, Vancouver, BC, V6T 1Z2",UBC,Other,"{""coordinates"": [-123.259174, 49.26907], ""type"": ""Point""}","49.26907, -123.259174",49.26907,-123.259174
Vancouver Art Gallery North Plaza,,Community Space,Plaza/Park/Band Shell,"Vancouver, BC",Downtown,City of Vancouver,"{""coordinates"": [-123.119848, 49.283113], ""type"": ""Point""}","49.283113, -123.119848",49.283113,-123.119848
Vancouver Maritime Museum,www.vancouvermaritimemuseum.com,Museum/Gallery,Museum/Gallery,"1905 Ogden Av, Vancouver, BC, V6J 1A3",Kitsilano,City of Vancouver,"{""coordinates"": [-123.147587, 49.277465], ""type"": ""Point""}","49.277465, -123.147587",49.277465,-123.147587
Wall Centre Plaza,,Community Space,Plaza/Park/Band Shell,"1088 Burrard St, Vancouver, BC, V6Z 2R9",Downtown,Privately Owned,"{""coordinates"": [-123.1265368, 49.2801175], ""type"": ""Point""}","49.2801175, -123.1265368",49.2801175,-123.1265368
Alliance For Arts And Culture,http://www.allianceforarts.com,Museum/Gallery,Library/Archives,"938 Howe St, Vancouver, BC, V6Z 1N9",Downtown,Privately Owned,"{""coordinates"": [-123.1228359, 49.2803099], ""type"": ""Point""}","49.2803099, -123.1228359",49.2803099,-123.1228359
Architectural Institute of BC Gallery,www.aibc.ca,Museum/Gallery,Museum/Gallery,"440 Cambie St, Vancouver, BC, V6B 2N5",Downtown,,"{""coordinates"": [-123.1095005, 49.2817199], ""type"": ""Point""}","49.2817199, -123.1095005",49.2817199,-123.1095005
Arts Club Theatre - Production Centre,,Studio/Rehearsal,Workshop,"1377 Cartwright St, Vancouver, BC, V6H 3R7",Fairview,Government,"{""coordinates"": [-123.1347122, 49.2700047], ""type"": ""Point""}","49.2700047, -123.1347122",49.2700047,-123.1347122
Artstarts In Schools,www.artstarts.com,Museum/Gallery,Museum/Gallery,"808 Richards St, Vancouver, BC, V6B 3A7",Downtown,Privately Owned,"{""coordinates"": [-123.1179808, 49.2799985], ""type"": ""Point""}","49.2799985, -123.1179808",49.2799985,-123.1179808
Bau-Xi Gallery,www.bau-xi.com,Museum/Gallery,Museum/Gallery,"3045 Granville St, Vancouver, BC, V6H 3J9",Fairview,Privately Owned,"{""coordinates"": [-123.1391799, 49.258496], ""type"": ""Point""}","49.258496, -123.1391799",49.258496,-123.1391799
Djavad Mowafaghian Cinema,http://www.sfu.ca/mecs/facilities/goldcorp-centre-for-the-arts/meeting-rooms/djavadmowafaghian.html,Theatre/Performance,Cinema,"149 W Hastings St, Vancouver, BC, V6B 1H4",Downtown,Other,"{""coordinates"": [-123.108528, 49.282364], ""type"": ""Point""}","49.282364, -123.108528",49.282364,-123.108528
Dundarave Print Workshop & Gallery,www.dundaraveprintworkshop.com,Museum/Gallery,Museum/Gallery,"1640 Johnston St, Vancouver, BC, V6H 3S2",Fairview,Privately Owned,"{""coordinates"": [-123.1353489, 49.2721848], ""type"": ""Point""}","49.2721848, -123.1353489",49.2721848,-123.1353489
Gam Gallery,http://gamgallery.com/contact/,Museum/Gallery,Museum/Gallery,"110 E Hastings St, Vancouver, BC, V6N 1N4",Downtown,,"{""coordinates"": [-123.101858, 49.2813343], ""type"": ""Point""}","49.2813343, -123.101858",49.2813343,-123.101858
Little Mountain Gallery,www.littlemountaingallery.com,Museum/Gallery,Museum/Gallery,"195 E 26th Av, Vancouver, BC, V5V 2G8",Riley Park,Privately Owned,"{""coordinates"": [-123.1014023, 49.2480158], ""type"": ""Point""}","49.2480158, -123.1014023",49.2480158,-123.1014023
Lumbermen's Arch,,Community Space,Plaza/Park/Band Shell,", Vancouver, BC,",,City of Vancouver,"{""coordinates"": [-123.131707, 49.302981], ""type"": ""Point""}","49.302981, -123.131707",49.302981,-123.131707
New Leaf Editions,www.newleafeditions.com?,Studio/Rehearsal,Workshop,"1370 Cartwright St, Vancouver, BC, V6H 3R7",Fairview,Privately Owned,"{""coordinates"": [-123.134665, 49.269841], ""type"": ""Point""}","49.269841, -123.134665",49.269841,-123.134665
Rennie collection at Wing Sang,,Museum/Gallery,Museum/Gallery,"51 E Pender St, Vancouver, BC, V6A 1S9",Downtown,Privately Owned,"{""coordinates"": [-123.1031317, 49.2806995], ""type"": ""Point""}","49.2806995, -123.1031317",49.2806995,-123.1031317
UBC Museum of Anthropology,http://moa.ubc.ca/,Museum/Gallery,Museum/Gallery,"6393 NW Marine Dr, Vancouver, BC, V6T 1Z2",,Other,"{""coordinates"": [-123.259174, 49.26907], ""type"": ""Point""}","49.26907, -123.259174",49.26907,-123.259174
Vancity Theatre,http://www.viff.org/theatre/facility-info,Theatre/Performance,Cinema,"1181 Seymour St, Vancouver, BC, V6B 3M7",Downtown,Privately Owned,"{""coordinates"": [-123.124732, 49.276974], ""type"": ""Point""}","49.276974, -123.124732",49.276974,-123.124732
BC Sports Hall of Fame Museum,www.bcsportshalloffame.com,Museum/Gallery,Museum/Gallery,"777 Pacific Blvd S, Vancouver, BC, V6B 4Y8",Downtown,Government,"{""coordinates"": [-123.110438, 49.27619], ""type"": ""Point""}","49.27619, -123.110438",49.27619,-123.110438
CBC Outdoor Stage,http://www.cbc.ca,Community Space,Plaza/Park/Band Shell,"700 Hamilton St, Vancouver, BC, V6B 2R5",Downtown,Government,"{""coordinates"": [-123.114669, 49.279299], ""type"": ""Point""}","49.279299, -123.114669",49.279299,-123.114669
Ceperley Meadow,,Community Space,Plaza/Park/Band Shell,"8701 Stanley Park Dr, Vancouver, BC, V6G 3E2",Stanley Park,City of Vancouver,"{""coordinates"": [-123.148518, 49.293772], ""type"": ""Point""}","49.293772, -123.148518",49.293772,-123.148518
Contemporary Art Gallery,www.contemporaryartgallery.ca?,Museum/Gallery,Museum/Gallery,"555 Nelson St, Vancouver, BC, V6B 6R5",Downtown,Privately Owned,"{""coordinates"": [-123.121183, 49.278238], ""type"": ""Point""}","49.278238, -123.121183",49.278238,-123.121183
Dr. Sun Yat-Sen Classical Chinese Garden,www.vancouverchinesegarden.com?,Museum/Gallery,Garden/Aquarium/Science Centre,"578 Carrall St, Vancouver, BC, V6B 5K2",Downtown,City of Vancouver,"{""coordinates"": [-123.104168, 49.279983], ""type"": ""Point""}","49.279983, -123.104168",49.279983,-123.104168
Elan Fine Arts,https://elanfineart.ca/,Museum/Gallery,Museum/Gallery,"4-258 E 1st Av, Vancouver, BC, V5T 1A6",Strathcona,Privately Owned,"{""coordinates"": [-123.098404, 49.268958], ""type"": ""Point""}","49.268958, -123.098404",49.268958,-123.098404
Federation Gallery,http://artists.ca/federation_gallery,Museum/Gallery,Museum/Gallery,"1241 Cartwright St, Vancouver, BC, V6H 4B7",Fairview,Privately Owned,"{""coordinates"": [-123.13225, 49.269582], ""type"": ""Point""}","49.269582, -123.13225",49.269582,-123.13225
H.R. Macmillan Space Centre,http://www.spacecentre.ca/,Museum/Gallery,Garden/Aquarium/Science Centre,"1100 Chestnut St, Vancouver, BC, V6J 3J9",Kitsilano,City of Vancouver,"{""coordinates"": [-123.144299, 49.276361], ""type"": ""Point""}","49.276361, -123.144299",49.276361,-123.144299
Malaspina Printmakers Gallery,www.malaspinaprintmakers.com?,Museum/Gallery,Museum/Gallery,"1555 Duranleau St, Vancouver, BC, V6H 3S3",Fairview,Government,"{""coordinates"": [-123.135784, 49.271369], ""type"": ""Point""}","49.271369, -123.135784",49.271369,-123.135784
Sam's Original Art,https://samsoriginalart.com/,Museum/Gallery,Museum/Gallery,"1736 W 2nd Av, Vancouver, BC, V6J 1H6",Kitsilano,Privately Owned,"{""coordinates"": [-123.144122, 49.269838], ""type"": ""Point""}","49.269838, -123.144122",49.269838,-123.144122
Skwach√†ys Lodge Gallery,http://skwachays.com/,Museum/Gallery,Museum/Gallery,"31 W Pender St, Vancouver, BC, V6B 1R3",Downtown,Non-Profit,"{""coordinates"": [-123.106127, 49.280978], ""type"": ""Point""}","49.280978, -123.106127",49.280978,-123.106127
Stanley Park Nature House,http://stanleyparkecology.ca/education/nature-house/,Museum/Gallery,Museum/Gallery,"712 Lost Lagoon Path, Vancouver, BC, V6G 2S1",Stanley Park,Vancouver Park Board/COV,"{""coordinates"": [-123.137914, 49.294408], ""type"": ""Point""}","49.294408, -123.137914",49.294408,-123.137914
Lobby Gallery,http://www.ligi.ubc.ca/LobbyGallery.htm,Museum/Gallery,Museum/Gallery,"6476 NW Marine Dr, Vancouver, BC, V6T 1Z2",UBC,Other,"{""coordinates"": [-123.259146, 49.267681], ""type"": ""Point""}","49.267681, -123.259146",49.267681,-123.259146
Monte Clark Gallery,www.monteclarkgallery.com,Museum/Gallery,Museum/Gallery,"53 Dunlevy Av, Vancouver, BC, V6A 3A3",Downtown Eastside,Privately Owned,"{""coordinates"": [-123.0976142, 49.2844048], ""type"": ""Point""}","49.2844048, -123.0976142",49.2844048,-123.0976142
Rennie Collection at Wing Sang,http://renniecollection.org/gallery/wingsang.php,Museum/Gallery,Museum/Gallery,"51 E Pender St, Vancouver, BC, V6A 1S9",Downtown,Privately Owned,"{""coordinates"": [-123.1031317, 49.2806995], ""type"": ""Point""}","49.2806995, -123.1031317",49.2806995,-123.1031317
Roedde House,www.roeddehouse.org,Museum/Gallery,Museum/Gallery,"1415 Barclay St, Vancouver, BC, V6G 1J6",West End,City of Vancouver,"{""coordinates"": [-123.132187, 49.286863], ""type"": ""Point""}","49.286863, -123.132187",49.286863,-123.132187
The Lab - Vancouver Art and Leisure,http://www.vanartleisure.com/,Studio/Rehearsal,Workshop,"101 W 6th Av, Vancouver, BC, V5Y 1K3",Mount Pleasant,Privately Owned,"{""coordinates"": [-123.106972, 49.265745], ""type"": ""Point""}","49.265745, -123.106972",49.265745,-123.106972
Vancity Theatre,http://www.viff.org/theatre/facility-info,Theatre/Performance,Cinema,"1181 Seymour St, Vancouver, BC, V6B 3M7",Downtown,Privately Owned,"{""coordinates"": [-123.124732, 49.276974], ""type"": ""Point""}","49.276974, -123.124732",49.276974,-123.124732
Vancouver Community Laboratory,http://vancommunitylab.com/,Studio/Rehearsal,Workshop,"1907 Triumph St, Vancouver, BC, V5L 1K6",Grandview-Woodland,Privately Owned,"{""coordinates"": [-123.0652956, 49.2841727], ""type"": ""Point""}","49.2841727, -123.0652956",49.2841727,-123.0652956
Vancouver Holocaust Education Centre,www.vhec.org?,Museum/Gallery,Museum/Gallery,"50-950 W 41st Av, Vancouver, BC, V5Z 2N7",Oakridge,Privately Owned,"{""coordinates"": [-123.126013, 49.233442], ""type"": ""Point""}","49.233442, -123.126013",49.233442,-123.126013
Dundarave Print Workshop & Gallery,www.dundaraveprintworkshop.com,Museum/Gallery,Museum/Gallery,"1640 Johnston St, Vancouver, BC, V6H 3S2",Fairview,Privately Owned,"{""coordinates"": [-123.1353489, 49.2721848], ""type"": ""Point""}","49.2721848, -123.1353489",49.2721848,-123.1353489
FIELD Contemporary,www.field-contemporary.com,Museum/Gallery,Museum/Gallery,"17 W Broadway, Vancouver, BC, V5Y 1P1",Mount Pleasant,Privately Owned,"{""coordinates"": [-123.1058083, 49.2630895], ""type"": ""Point""}","49.2630895, -123.1058083",49.2630895,-123.1058083
Artspeak Gallery,www.artspeak.ca/?,Museum/Gallery,Museum/Gallery,"233 Carrall St, Vancouver, BC, V6B 2J2",Downtown,Non-Profit,"{""coordinates"": [-123.104299, 49.282941], ""type"": ""Point""}","49.282941, -123.104299",49.282941,-123.104299
Coastal Peoples Fine Arts Gallery Gastown,http://www.coastalpeoples.com,Museum/Gallery,Museum/Gallery,"312 Water St, Vancouver, BC, V6B 1B6",Downtown,Privately Owned,"{""coordinates"": [-123.109198, 49.2843539], ""type"": ""Point""}","49.2843539, -123.109198",49.2843539,-123.109198
Coastal Peoples Fine Arts Gallery Yaletown,http://www.coastalpeoples.com,Museum/Gallery,Museum/Gallery,"1024 Mainland St, Vancouver, BC, V6B 2T4",Downtown,Privately Owned,"{""coordinates"": [-123.119591, 49.2762084], ""type"": ""Point""}","49.2762084, -123.119591",49.2762084,-123.119591
Jack Poole Plaza,http://www.vancouverconventioncentre.com/jack-poole-plaza/,Community Space,Plaza/Park/Band Shell,"Vancouver, BC",Downtown,Government,"{""coordinates"": [-123.118259, 49.289387], ""type"": ""Point""}","49.289387, -123.118259",49.289387,-123.118259
Vancouver Art Gallery,www.vanartgallery.bc.ca,Museum/Gallery,Museum/Gallery,"750 Hornby St, Vancouver, BC, V6Z 2H7",Downtown,Government,"{""coordinates"": [-123.120932, 49.283158], ""type"": ""Point""}","49.283158, -123.120932",49.283158,-123.120932
Bau-Xi Gallery,www.bau-xi.com,Museum/Gallery,Museum/Gallery,"3045 Granville St, Vancouver, BC, V6H 3J9",Fairview,Privately Owned,"{""coordinates"": [-123.1391799, 49.258496], ""type"": ""Point""}","49.258496, -123.1391799",49.258496,-123.1391799
BC Sports Hall of Fame Museum,www.bcsportshalloffame.com,Museum/Gallery,Museum/Gallery,"777 Pacific Blvd S, Vancouver, BC, V6B 4Y8",Downtown,Government,"{""coordinates"": [-123.110438, 49.27619], ""type"": ""Point""}","49.27619, -123.110438",49.27619,-123.110438
Granville Island,,Community Space,Plaza/Park/Band Shell,"Granville Island, Vancouver, BC",Fairview,Government,"{""coordinates"": [-123.134845, 49.269463], ""type"": ""Point""}","49.269463, -123.134845",49.269463,-123.134845
Art Emporium,http://www.theartemporium.ca,Museum/Gallery,Museum/Gallery,"2928 Granville St, Vancouver, BC, V6H 3J7",Fairview,Privately Owned,"{""coordinates"": [-123.1383072, 49.2593906], ""type"": ""Point""}","49.2593906, -123.1383072",49.2593906,-123.1383072
Colbourne House/ Marpole Museum,http://www.marpolehistorical.ca?,Museum/Gallery,Museum/Gallery,"8743 Sw Marine Dr, Vancouver, BC, V6P 6A5",Marpole,City of Vancouver,"{""coordinates"": [-123.1423354, 49.2064788], ""type"": ""Point""}","49.2064788, -123.1423354",49.2064788,-123.1423354
Grunt Gallery,www.grunt.ca?,Museum/Gallery,Museum/Gallery,"350 E 2nd Av, Vancouver, BC, V5T 4R8",Mount Pleasant,Non-Profit,"{""coordinates"": [-123.09715, 49.26676], ""type"": ""Point""}","49.26676, -123.09715",49.26676,-123.09715
Hill's Native Art,www.hillsnativeart.com,Museum/Gallery,Museum/Gallery,"165 Water St, Vancouver, BC, V6B 1A7",Downtown,Privately Owned,"{""coordinates"": [-123.1081528, 49.2844721], ""type"": ""Point""}","49.2844721, -123.1081528",49.2844721,-123.1081528
James Black Gallery,http://www.thejamesblack.gallery/,Museum/Gallery,Museum/Gallery,"144 E 6th Av, Vancouver, BC, V5T1J5",Mount Pleasant,Privately Owned,"{""coordinates"": [-123.1019214, 49.2652632], ""type"": ""Point""}","49.2652632, -123.1019214",49.2652632,-123.1019214
Labyrinth Gallery,http://labyrinthgallery.org/,Museum/Gallery,Museum/Gallery,"112 E Hastings St, Vancouver, BC, V6A 4J1",Downtown,Privately Owned,"{""coordinates"": [-123.1017894, 49.2810651], ""type"": ""Point""}","49.2810651, -123.1017894",49.2810651,-123.1017894
Marion Scott Gallery,www.marionscottgallery.com,Museum/Gallery,Museum/Gallery,"2423 Granville St, Vancouver, BC, V6H 3G5",Fairview,Privately Owned,"{""coordinates"": [-123.1386272, 49.264079], ""type"": ""Point""}","49.264079, -123.1386272",49.264079,-123.1386272
Morris and Helen Belkin Art Gallery,http://www.belkin.ubc.ca/,Museum/Gallery,Museum/Gallery,"1825 Main Mall, Vancouver, BC, V6T 1Z2",UBC,Other,"{""coordinates"": [-123.255944, 49.2683878], ""type"": ""Point""}","49.2683878, -123.255944",49.2683878,-123.255944
Petley Jones Gallery,www.petleyjones.com?,Museum/Gallery,Museum/Gallery,"554 W 6th Av, Vancouver, BC, V6J 1R2",Mount Pleasant,Privately Owned,"{""coordinates"": [-123.0917358, 49.2652275], ""type"": ""Point""}","49.2652275, -123.0917358",49.2652275,-123.0917358
Trillium North Park,https://trilliumnorthpark.com/,Museum/Gallery,Garden/Aquarium/Science Centre,"699 National Av, Vancouver, BC,",Strathcona,Vancouver Park Board/COV,"{""coordinates"": [-123.09379, 49.274169], ""type"": ""Point""}","49.274169, -123.09379",49.274169,-123.09379
Uno Langmann Limited Fine Arts,www.langmann.com,Museum/Gallery,Museum/Gallery,"2117 Granville St, Vancouver, BC, V6H 3E9",Fairview,Privately Owned,"{""coordinates"": [-123.1388698, 49.2666423], ""type"": ""Point""}","49.2666423, -123.1388698",49.2666423,-123.1388698
Vancity Theatre,http://www.viff.org/theatre/facility-info,Theatre/Performance,Cinema,"1181 Seymour St, Vancouver, BC, V6B 3M7",Downtown,Privately Owned,"{""coordinates"": [-123.124732, 49.276974], ""type"": ""Point""}","49.276974, -123.124732",49.276974,-123.124732
Vancouver Biennale,https://www.vancouverbiennale.com/,Museum/Gallery,Museum/Gallery,"290 W 3rd Av, Vancouver, BC, V5Y 1G1",Mount Pleasant,Privately Owned,"{""coordinates"": [-123.110397, 49.268419], ""type"": ""Point""}","49.268419, -123.110397",49.268419,-123.110397
H.R. Macmillan Space Centre,http://www.spacecentre.ca/,Museum/Gallery,Garden/Aquarium/Science Centre,"1100 Chestnut St, Vancouver, BC, V6J 3J9",Kitsilano,City of Vancouver,"{""coordinates"": [-123.144299, 49.276361], ""type"": ""Point""}","49.276361, -123.144299",49.276361,-123.144299
Museum of Vancouver,www.museumofvancouver.ca?,Museum/Gallery,Museum/Gallery,"1100 Chestnut St, Vancouver, BC, V6J 3J9",Kitsilano,City of Vancouver,"{""coordinates"": [-123.144897, 49.276365], ""type"": ""Point""}","49.276365, -123.144897",49.276365,-123.144897
PNE Amphitheatre,http://www.49st.com/venue/pne-amphitheatre#info,Community Space,Plaza/Park/Band Shell,"2901 E Hastings St, Vancouver, BC, V5K 5J1",Hastings-Sunrise,City of Vancouver,"{""coordinates"": [-123.037295, 49.28416], ""type"": ""Point""}","49.28416, -123.037295",49.28416,-123.037295
Vancouver Aquarium,www.vanaqua.org?,Museum/Gallery,Garden/Aquarium/Science Centre,"845 Avison Way, Vancouver, BC, V6G 3E2",Stanley Park,City of Vancouver,"{""coordinates"": [-123.130997, 49.30067], ""type"": ""Point""}","49.30067, -123.130997",49.30067,-123.130997
Vancouver Art Gallery Offsite,http://www.vanartgallery.bc.ca/the_exhibitions/public_art.html,Museum/Gallery,Museum/Gallery,"1100 W Georgia St, Vancouver, BC, V6E 0A8",West End,City of Vancouver,"{""coordinates"": [-123.124298, 49.286205], ""type"": ""Point""}","49.286205, -123.124298",49.286205,-123.124298
Roedde House,www.roeddehouse.org,Museum/Gallery,Museum/Gallery,"1415 Barclay St, Vancouver, BC, V6G 1J6",West End,City of Vancouver,"{""coordinates"": [-123.132187, 49.286863], ""type"": ""Point""}","49.286863, -123.132187",49.286863,-123.132187
The Apartment,http://theapt.ca/filter/Exhibition,Museum/Gallery,Museum/Gallery,"119B E Pender St, Vancouver, BC, V6A 1T6",Downtown,Privately Owned,"{""coordinates"": [-123.1015866, 49.2804859], ""type"": ""Point""}","49.2804859, -123.1015866",49.2804859,-123.1015866
Van Dusen Botanical Garden,http://vandusengarden.org/,Museum/Gallery,Garden/Aquarium/Science Centre,"5251 Oak St, Vancouver, BC, V6M 4H1",Shaughnessy,City of Vancouver,"{""coordinates"": [-123.128627, 49.238472], ""type"": ""Point""}","49.238472, -123.128627",49.238472,-123.128627
Vancouver Police Museum,www.vancouverpolicemuseum.ca?,Museum/Gallery,Museum/Gallery,"240 E Cordova St, Vancouver, BC, V6A 1L3",Strathcona,City of Vancouver,"{""coordinates"": [-123.0987999, 49.282247], ""type"": ""Point""}","49.282247, -123.0987999",49.282247,-123.0987999
AHVA Gallery,http://gallery.ahva.ubc.ca/about/,Museum/Gallery,Museum/Gallery,"6398 University Blvd, Vancouver, BC,",,Other,"{""coordinates"": [-123.2549451, 49.2639124], ""type"": ""Point""}","49.2639124, -123.2549451",49.2639124,-123.2549451
Ayden Gallery,www.aydengallery.com?,Museum/Gallery,Museum/Gallery,"88 W Pender St, Vancouver, BC, V6B 6N9",Downtown,Privately Owned,"{""coordinates"": [-123.1071802, 49.2809655], ""type"": ""Point""}","49.2809655, -123.1071802",49.2809655,-123.1071802
CBC Outdoor Stage,http://www.cbc.ca,Community Space,Plaza/Park/Band Shell,"700 Hamilton, Vancouver, BC, V6B 2R5",Downtown,Government,"{""coordinates"": [-123.114669, 49.279299], ""type"": ""Point""}","49.279299, -123.114669",49.279299,-123.114669
Chali-Rosso Gallery,www.chalirosso.com,Museum/Gallery,Museum/Gallery,"2250 Granville St, Vancouver, BC, V6H 4H7",Fairview,Privately Owned,"{""coordinates"": [-123.1384021, 49.2657529], ""type"": ""Point""}","49.2657529, -123.1384021",49.2657529,-123.1384021
Crafthouse Gallery,www.craftcouncilbc.ca,Museum/Gallery,Museum/Gallery,"1386 Cartwright St, Vancouver, BC, V6H 3R8",Fairview,Government,"{""coordinates"": [-123.13479, 49.269837], ""type"": ""Point""}","49.269837, -123.13479",49.269837,-123.13479
Doctor Vigari Gallery,www.doctorvigarigallery.com,Museum/Gallery,Museum/Gallery,"1816 Commercial Dr, Vancouver, BC, V5N 4A3",Grandview-Woodland,Privately Owned,"{""coordinates"": [-123.0692806, 49.2683622], ""type"": ""Point""}","49.2683622, -123.0692806",49.2683622,-123.0692806
Douglas Udell Gallery,www.douglasudellgallery.com?,Museum/Gallery,Museum/Gallery,"1558 W 6th Av, Vancouver, BC, V6J 1R2",Fairview,Privately Owned,"{""coordinates"": [-123.1399725, 49.2661804], ""type"": ""Point""}","49.2661804, -123.1399725",49.2661804,-123.1399725
FIELD Contemporary,www.field-contemporary.com,Museum/Gallery,Museum/Gallery,"17 W Broadway, Vancouver, BC, V5Y 1P1",Mount Pleasant,Privately Owned,"{""coordinates"": [-123.1058083, 49.2630895], ""type"": ""Point""}","49.2630895, -123.1058083",49.2630895,-123.1058083
Gallery Gachet,www.gachet.org?,Museum/Gallery,Museum/Gallery,"88 E Cordova St, Vancouver, BC, V6A 1K2",Downtown,Privately Owned,"{""coordinates"": [-123.102645, 49.2821], ""type"": ""Point""}","49.2821, -123.102645",49.2821,-123.102645
Gallery Jones,www.galleryjones.com?,Museum/Gallery,Museum/Gallery,"1725 W 3rd Av, Vancouver, BC, V6J 1K7",Fairview,Privately Owned,"{""coordinates"": [-123.1438197, 49.2689012], ""type"": ""Point""}","49.2689012, -123.1438197",49.2689012,-123.1438197
GMS Observatory,http://www.spacecentre.ca/gms,Museum/Gallery,Garden/Aquarium/Science Centre,"1100 Chestnut St, Vancouver, BC, V6J 3J9",Kitsilano,City of Vancouver,"{""coordinates"": [-123.144436, 49.276261], ""type"": ""Point""}","49.276261, -123.144436",49.276261,-123.144436
Ian Tan Gallery,www.iantangallery.com?,Museum/Gallery,Museum/Gallery,"2202 Granville St, Vancouver, BC, V6H 4H7",Fairview,Privately Owned,"{""coordinates"": [-123.1383868, 49.2661646], ""type"": ""Point""}","49.2661646, -123.1383868",49.2661646,-123.1383868
Teck Gallery,https://www.sfu.ca/galleries/teck-gallery.html,Museum/Gallery,Museum/Gallery,"515 W Hastings St, Vancouver, BC, V6B 0B2",Downtown,Privately Owned,"{""coordinates"": [-123.1119735, 49.2841655], ""type"": ""Point""}","49.2841655, -123.1119735",49.2841655,-123.1119735
Trench Gallery,www.trenchgallery.com,Museum/Gallery,Museum/Gallery,"148 Alexander St, Vancouver, BC, V6A 1B5",Downtown,Privately Owned,"{""coordinates"": [-123.1010921, 49.2839469], ""type"": ""Point""}","49.2839469, -123.1010921",49.2839469,-123.1010921
Van Dusen Botanical Gardens,http://vandusengarden.org/,Museum/Gallery,Garden/Aquarium/Science Centre,"5251 Oak St, Vancouver, BC, V6M 4H1",Shaughnessy,Park Board/COV,"{""coordinates"": [-123.128627, 49.238472], ""type"": ""Point""}","49.238472, -123.128627",49.238472,-123.128627
Vancouver Art Gallery,www.vanartgallery.bc.ca,Museum/Gallery,Museum/Gallery,"750 Hornby St, Vancouver, BC, V6Z 2H7",Downtown,Government,"{""coordinates"": [-123.120932, 49.283158], ""type"": ""Point""}","49.283158, -123.120932",49.283158,-123.120932
Vancouver Holocaust Education Centre,www.vhec.org?,Museum/Gallery,Museum/Gallery,"950 W 41st Av, Vancouver, BC, V5Z 2N7",Oakridge,Privately Owned,"{""coordinates"": [-123.126013, 49.233442], ""type"": ""Point""}","49.233442, -123.126013",49.233442,-123.126013
Wall Centre Plaza,,Community Space,Plaza/Park/Band Shell,"1088 Burrard St, Vancouver, BC, V6Z 2R9",Downtown,Privately Owned,"{""coordinates"": [-123.1265368, 49.2801175], ""type"": ""Point""}","49.2801175, -123.1265368",49.2801175,-123.1265368
Architectural Institute of BC Gallery,www.aibc.ca,Museum/Gallery,Museum/Gallery,"440 Cambie St, Vancouver, BC, V6B 2N5",Downtown,Non-Profit,"{""coordinates"": [-123.1095005, 49.2817199], ""type"": ""Point""}","49.2817199, -123.1095005",49.2817199,-123.1095005
City of Vancouver Archives,www.vancouver.cayour-government/city-of-vancouver-archives.aspx?,Museum/Gallery,Library/Archives,"1150 Chestnut St, Vancouver, BC, V6J 3J9",Kitsilano,City of Vancouver,"{""coordinates"": [-123.142663, 49.276084], ""type"": ""Point""}","49.276084, -123.142663",49.276084,-123.142663
Creekside Park,,Community Space,Plaza/Park/Band Shell,"1455 Quebec St, Vancouver, BC, V6A 3Z7",Downtown,City of Vancouver,"{""coordinates"": [-123.10319, 49.274159], ""type"": ""Point""}","49.274159, -123.10319",49.274159,-123.10319
CSA Space,http://csaspace.blogspot.com/,Museum/Gallery,Museum/Gallery,"2414 Main St, Vancouver, BC, V5T 3E2",Mount Pleasant,Privately Owned,"{""coordinates"": [-123.1006, 49.263699], ""type"": ""Point""}","49.263699, -123.1006",49.263699,-123.1006
Equinox Gallery/ Monte Clark Gallery,www.equinoxgallery.com /  www.monteclarkgallery.com,Museum/Gallery,Museum/Gallery,"3642 Commercial St, Vancouver, BC, V5N 4G2",Kensington-Cedar Cottage,Privately Owned,"{""coordinates"": [-123.06775753, 49.25203747], ""type"": ""Point""}","49.25203747, -123.06775753",49.25203747,-123.06775753
Granville Island/ Vancouver International Children's Festival,,Community Space,Plaza/Park/Band Shell,"1398 Cartwright St, Vancouver, BC, V6H 3R9",Fairview,Government,"{""coordinates"": [-123.134845, 49.269463], ""type"": ""Point""}","49.269463, -123.134845",49.269463,-123.134845
Harrison Galleries,www.harrisongalleries.com,Museum/Gallery,Museum/Gallery,"901 Homer St, Vancouver, BC, V6B 2W6",Downtown,Privately Owned,"{""coordinates"": [-123.1184779, 49.2784569], ""type"": ""Point""}","49.2784569, -123.1184779",49.2784569,-123.1184779
Ian Tan Gallery,www.iantangallery.com?,Museum/Gallery,Museum/Gallery,"2342 Granville St, Vancouver, BC, V6H 3G3",Fairview,Privately Owned,"{""coordinates"": [-123.13825, 49.264989], ""type"": ""Point""}","49.264989, -123.13825",49.264989,-123.13825
Means of Production Garden (MOPPARC),http://moparrc.com/,Other,Garden/Aquarium/Science Centre,"1001 E 6th Ave, Vancouver, BC,",Fairview,Vancouver Park Board/COV,"{""coordinates"": [-123.1265306, 49.2660577], ""type"": ""Point""}","49.2660577, -123.1265306",49.2660577,-123.1265306
Pendulum Gallery,www.pendulumgallery.bc.ca?,Museum/Gallery,Museum/Gallery,"885 W Georgia St, Vancouver, BC, V6C 3E8",Downtown,Privately Owned,"{""coordinates"": [-123.119963, 49.283709], ""type"": ""Point""}","49.283709, -123.119963",49.283709,-123.119963
PNE Amphitheatre,http://www.49st.com/venue/pne-amphitheatre#info,Community Space,Plaza/Park/Band Shell,"2901 E Hastings St, Vancouver, BC, V5K 5J1",Hastings-Sunrise,City of Vancouver,"{""coordinates"": [-123.037295, 49.28416], ""type"": ""Point""}","49.28416, -123.037295",49.28416,-123.037295
Vanier Park/ Bard On the Beach Shakespeare Festival,,Community Space,Plaza/Park/Band Shell,"1000 Chestnut St, Vancouver, BC, V6J 3J9",Kitsilano,City of Vancouver,"{""coordinates"": [-123.1461243, 49.2767769], ""type"": ""Point""}","49.2767769, -123.1461243",49.2767769,-123.1461243
Malaspina Printmakers Gallery,www.malaspinaprintmakers.com?,Museum/Gallery,Museum/Gallery,"1555 Duranleau St, Vancouver, BC, V6H 3S3",Fairview,Government,"{""coordinates"": [-123.135784, 49.271369], ""type"": ""Point""}","49.271369, -123.135784",49.271369,-123.135784
Museum of Vancouver,www.museumofvancouver.ca?,Museum/Gallery,Museum/Gallery,"1100 Chestnut St, Vancouver, BC, V6J 3J9",Kitsilano,City of Vancouver,"{""coordinates"": [-123.144897, 49.276365], ""type"": ""Point""}","49.276365, -123.144897",49.276365,-123.144897
Van Dusen Botanical Garden,http://vandusengarden.org/,Museum/Gallery,Garden/Aquarium/Science Centre,"5251 Oak St, Vancouver, BC, V6M 4H1",Shaughnessy,City of Vancouver,"{""coordinates"": [-123.128627, 49.238472], ""type"": ""Point""}","49.238472, -123.128627",49.238472,-123.128627
Vancouver Community Laboratory,http://vancommunitylab.com/,Studio/Rehearsal,Workshop,"1907 Triumph St, Vancouver, BC, V5L 1K6",Grandview-Woodland,Privately Owned,"{""coordinates"": [-123.0652956, 49.2841727], ""type"": ""Point""}","49.2841727, -123.0652956",49.2841727,-123.0652956
Vanier Park,,Community Space,Plaza/Park/Band Shell,"1000 Chestnut St, Vancouver, BC, V6J 3J9",Kitsilano,City of Vancouver,"{""coordinates"": [-123.146124, 49.276777], ""type"": ""Point""}","49.276777, -123.146124",49.276777,-123.146124
AHVA Gallery,http://gallery.ahva.ubc.ca/about/,Museum/Gallery,Museum/Gallery,"6398 University Blvd, Vancouver, BC,",UBC,Other,"{""coordinates"": [-123.2549451, 49.2639124], ""type"": ""Point""}","49.2639124, -123.2549451",49.2639124,-123.2549451
Eagle Spirit Gallery,www.eaglespiritgallery.com,Museum/Gallery,Museum/Gallery,"1803 Maritime Mews, Vancouver, BC, V6H 3W7",Fairview,Privately Owned,"{""coordinates"": [-123.136077, 49.2710507], ""type"": ""Point""}","49.2710507, -123.136077",49.2710507,-123.136077
Elissa Cristall Galleries,http://cristallgallery.com,Museum/Gallery,Museum/Gallery,"2239 Granville St, Vancouver, BC, V6H 3G1",Fairview,Privately Owned,"{""coordinates"": [-123.1385822, 49.2655257], ""type"": ""Point""}","49.2655257, -123.1385822",49.2655257,-123.1385822
Emily Carr Institute of Art + Design 1612 Gallery,,Museum/Gallery,Museum/Gallery,"1612 W 3rd Av, Vancouver, BC, V6J 1K2",Fairview,Government,"{""coordinates"": [-123.1411548, 49.2688004], ""type"": ""Point""}","49.2688004, -123.1411548",49.2688004,-123.1411548
Grunt Gallery,www.grunt.ca?,Museum/Gallery,Museum/Gallery,"350 E 2nd Av, Vancouver, BC, V5T 4R8",Mount Pleasant,Non-Profit,"{""coordinates"": [-123.09715, 49.26676], ""type"": ""Point""}","49.26676, -123.09715",49.26676,-123.09715
Hastings Mill Store Museum,www.hastings-mill-museum.ca?,Museum/Gallery,Museum/Gallery,"1575 Alma St, Vancouver, BC, V6R 3P3",West Point Grey,City of Vancouver,"{""coordinates"": [-123.185988, 49.272817], ""type"": ""Point""}","49.272817, -123.185988",49.272817,-123.185988
Tracey Lawrence Gallery,,Museum/Gallery,Museum/Gallery,"1531 W 4th Av, Vancouver, BC, V6J 1L6",Fairview,Privately Owned,"{""coordinates"": [-123.139461, 49.267975], ""type"": ""Point""}","49.267975, -123.139461",49.267975,-123.139461
Vancouver Police Museum,www.vancouverpolicemuseum.ca?,Museum/Gallery,Museum/Gallery,"240 E Cordova St, Vancouver, BC, V6A 1L3",Strathcona,City of Vancouver,"{""coordinates"": [-123.0987999, 49.282247], ""type"": ""Point""}","49.282247, -123.0987999",49.282247,-123.0987999
Architectural Institute of BC Gallery,www.aibc.ca,Museum/Gallery,Museum/Gallery,"440 Cambie St, Vancouver, BC, V6B 2N5",Downtown,,"{""coordinates"": [-123.1095005, 49.2817199], ""type"": ""Point""}","49.2817199, -123.1095005",49.2817199,-123.1095005
Artstarts in Schools,www.artstarts.com,Museum/Gallery,Museum/Gallery,"808 Richards St, Vancouver, BC, V6B 3A7",Downtown,Privately Owned,"{""coordinates"": [-123.1179808, 49.2799985], ""type"": ""Point""}","49.2799985, -123.1179808",49.2799985,-123.1179808
Audain Gallery,https://www.sfu.ca/galleries/audain-gallery.html,Museum/Gallery,Museum/Gallery,"149 W Hastings St, Vancouver, BC, V6B 1H4",Downtown,Other,"{""coordinates"": [-123.108715, 49.282395], ""type"": ""Point""}","49.282395, -123.108715",49.282395,-123.108715
Back Gallery Project,http://www.backgalleryproject.com/,Museum/Gallery,Museum/Gallery,"602 E Hastings St, Vancouver, BC, V6A 1R1",Strathcona,Privately Owned,"{""coordinates"": [-123.0913998, 49.2811369], ""type"": ""Point""}","49.2811369, -123.0913998",49.2811369,-123.0913998
Bloedel Conservatory,http://vancouver.ca/parks-recreation-culture/bloedel-conservatory.aspx,Museum/Gallery,Garden/Aquarium/Science Centre,"4600 Cambie St, Vancouver, BC, V5Y 2M5",Riley Park,Vancouver Park Board/COV,"{""coordinates"": [-123.113759, 49.242077], ""type"": ""Point""}","49.242077, -123.113759",49.242077,-123.113759
Doctor Vigari Gallery,www.doctorvigarigallery.com,Museum/Gallery,Museum/Gallery,"1816 Commercial Dr, Vancouver, BC, V5N 4A3",Grandview-Woodland,Privately Owned,"{""coordinates"": [-123.0692806, 49.2683622], ""type"": ""Point""}","49.2683622, -123.0692806",49.2683622,-123.0692806
Elissa Cristall Galleries,http://cristallgallery.com,Museum/Gallery,Museum/Gallery,"2239 Granville St, Vancouver, BC, V6H 3G1",Fairview,Privately Owned,"{""coordinates"": [-123.1385822, 49.2655257], ""type"": ""Point""}","49.2655257, -123.1385822",49.2655257,-123.1385822
Emily Carr Institute of Art + Design 1612 Gallery,,Museum/Gallery,Museum/Gallery,"1612 W 3rd Av, Vancouver, BC, V6J 1K2",Fairview,Government,"{""coordinates"": [-123.1411548, 49.2688004], ""type"": ""Point""}","49.2688004, -123.1411548",49.2688004,-123.1411548
Gallery 295,http://gallery295.com/295/,Museum/Gallery,Museum/Gallery,"295 E 2nd Ave, Vancouver, BC, V5T 1B8",Strathcona,Privately Owned,"{""coordinates"": [-123.0981191, 49.2680645], ""type"": ""Point""}","49.2680645, -123.0981191",49.2680645,-123.0981191
Hatch Art Gallery,http://www.ams.ubc.ca/nest/arts-and-attractions/art-gallery/,Museum/Gallery,Museum/Gallery,"6133 University Blvd, Vancouver, BC, V6T 1Z1",UBC,Non-Profit,"{""coordinates"": [-123.249913, 49.266025], ""type"": ""Point""}","49.266025, -123.249913",49.266025,-123.249913
Haywood Bandstand,,Community Space,Plaza/Park/Band Shell,"1755 Beach Av, Vancouver, BC,",West End,Vancouver Park Board/COV,"{""coordinates"": [-123.141944, 49.285278], ""type"": ""Point""}","49.285278, -123.141944",49.285278,-123.141944
Heffel Gallery Ltd,www.heffel.com,Museum/Gallery,Museum/Gallery,"2247 Granville St, Vancouver, BC, V6H 3G1",Fairview,Privately Owned,"{""coordinates"": [-123.1389124, 49.2654685], ""type"": ""Point""}","49.2654685, -123.1389124",49.2654685,-123.1389124
Make Gallery,http://makeisawesome.com/,Museum/Gallery,Museum/Gallery,"257 E 7th Av, Vancouver, BC, V5T 0B4",Mount Pleasant,Privately Owned,"{""coordinates"": [-123.0992862, 49.2646046], ""type"": ""Point""}","49.2646046, -123.0992862",49.2646046,-123.0992862
Morris and Helen Belkin Art Gallery,http://www.belkin.ubc.ca/,Museum/Gallery,Museum/Gallery,"1825 Main Mall, Vancouver, BC, V6T 1Z2",UBC,Other,"{""coordinates"": [-123.255944, 49.2683878], ""type"": ""Point""}","49.2683878, -123.255944",49.2683878,-123.255944
Ceperley Meadow,,Community Space,Plaza/Park/Band Shell,"Stanley Park, Vancouver, BC",Stanley Park,City of Vancouver,"{""coordinates"": [-123.148518, 49.293772], ""type"": ""Point""}","49.293772, -123.148518",49.293772,-123.148518
Charles H. Scott Gallery,www.chscott.ecuad.ca?,Museum/Gallery,Museum/Gallery,"1399 Johnston St, Vancouver, BC, V6H 2R9",Fairview,Government,"{""coordinates"": [-123.132876, 49.270485], ""type"": ""Point""}","49.270485, -123.132876",49.270485,-123.132876
City of Vancouver Archives,www.vancouver.cayour-government/city-of-vancouver-archives.aspx?,Museum/Gallery,Library/Archives,"1150 Chestnut St, Vancouver, BC, V6J 3J9",Kitsilano,City of Vancouver,"{""coordinates"": [-123.142663, 49.276084], ""type"": ""Point""}","49.276084, -123.142663",49.276084,-123.142663
Eagle Spirit Gallery,www.eaglespiritgallery.com,Museum/Gallery,Museum/Gallery,"1803 Maritime Mews, Vancouver, BC, V6H 3W7",Fairview,Privately Owned,"{""coordinates"": [-123.136077, 49.2710507], ""type"": ""Point""}","49.2710507, -123.136077",49.2710507,-123.136077
Haywood Bandstand,,Community Space,Plaza/Park/Band Shell,"1755 Beach Av, Vancouver, BC,",West End,Vancouver Park Board/COV,"{""coordinates"": [-123.141944, 49.285278], ""type"": ""Point""}","49.285278, -123.141944",49.285278,-123.141944
Jennifer Kostuik Gallery,www.kostuikgallery.com?,Museum/Gallery,Museum/Gallery,"1070 Homer St, Vancouver, BC, V6B 2W9",Downtown,Privately Owned,"{""coordinates"": [-123.1211143, 49.2766268], ""type"": ""Point""}","49.2766268, -123.1211143",49.2766268,-123.1211143
New Leaf Editions,www.newleafeditions.com?,Studio/Rehearsal,Workshop,"1370 Cartwright St, Vancouver, BC, V6H 3R7",Fairview,Privately Owned,"{""coordinates"": [-123.134665, 49.269841], ""type"": ""Point""}","49.269841, -123.134665",49.269841,-123.134665
Skwach√†ys Lodge Gallery,http://skwachays.com/,Museum/Gallery,Museum/Gallery,"31 W Pender St, Vancouver, BC, V6B 1R3",Downtown,Non-Profit,"{""coordinates"": [-123.106127, 49.280978], ""type"": ""Point""}","49.280978, -123.106127",49.280978,-123.106127
SUM Gallery,http://queerartsfestival.com/about-sum-gallery/,Museum/Gallery,Museum/Gallery,"268 Keefer St, Vancouver, BC, V6A 1X5",Strathcona,Non-Profit,"{""coordinates"": [-123.098127, 49.279234], ""type"": ""Point""}","49.279234, -123.098127",49.279234,-123.098127
UBC Museum of Anthropology,http://moa.ubc.ca/,Museum/Gallery,Museum/Gallery,"6393 NW Marine Dr, Vancouver, BC, V6T 1Z2",UBC,Other,"{""coordinates"": [-123.259174, 49.26907], ""type"": ""Point""}","49.26907, -123.259174",49.26907,-123.259174
Vancouver Police Museum,www.vancouverpolicemuseum.ca?,Museum/Gallery,Museum/Gallery,"240 E Cordova St, Vancouver, BC, V6A 1L3",Strathcona,City of Vancouver,"{""coordinates"": [-123.0987999, 49.282247], ""type"": ""Point""}","49.282247, -123.0987999",49.282247,-123.0987999
Architectural Institute of BC Gallery,www.aibc.ca,Museum/Gallery,Museum/Gallery,"440 Cambie St, Vancouver, BC, V6B 2N5",Downtown,,"{""coordinates"": [-123.1095005, 49.2817199], ""type"": ""Point""}","49.2817199, -123.1095005",49.2817199,-123.1095005
BC Sports Hall of Fame Museum,www.bcsportshalloffame.com,Museum/Gallery,Museum/Gallery,"777 Pacific Blvd S, Vancouver, BC, V6B 4Y8",Downtown,Government,"{""coordinates"": [-123.110438, 49.27619], ""type"": ""Point""}","49.27619, -123.110438",49.27619,-123.110438
Craft Council of British Columbia Gallery,www.craftcouncilbc.ca,Museum/Gallery,Museum/Gallery,"1386 Cartwright St, Vancouver, BC, V6H 3R8",Fairview,Government,"{""coordinates"": [-123.13479, 49.269837], ""type"": ""Point""}","49.269837, -123.13479",49.269837,-123.13479
Dundarave Print Workshop & Gallery,www.dundaraveprintworkshop.com,Museum/Gallery,Museum/Gallery,"1640 Johnston St, Vancouver, BC, V6H 3S2",Fairview,Privately Owned,"{""coordinates"": [-123.1353489, 49.2721848], ""type"": ""Point""}","49.2721848, -123.1353489",49.2721848,-123.1353489
FIELD Contemporary,www.field-contemporary.com,Museum/Gallery,Museum/Gallery,"17 W Broadway, Vancouver, BC, V5Y 1P1",Mount Pleasant,Privately Owned,"{""coordinates"": [-123.1058083, 49.2630895], ""type"": ""Point""}","49.2630895, -123.1058083",49.2630895,-123.1058083
Havana Gallery,www.havanarestaurant.ca,Museum/Gallery,Museum/Gallery,"1212 Commercial Dr, Vancouver, BC, V5L 3X4",Grandview-Woodland,Privately Owned,"{""coordinates"": [-123.069421, 49.273662], ""type"": ""Point""}","49.273662, -123.069421",49.273662,-123.069421
Hot Art Wet City,http://hotartwetcity.com/,Museum/Gallery,Museum/Gallery,"2206 Main St, Vancouver, BC, V5T 3C7",Mount Pleasant,Privately Owned,"{""coordinates"": [-123.1007282, 49.2653981], ""type"": ""Point""}","49.2653981, -123.1007282",49.2653981,-123.1007282
Interurban Gallery,,Museum/Gallery,Museum/Gallery,"1 E Hastings St, Vancouver, BC, V6A 1M9",Downtown,Privately Owned,"{""coordinates"": [-123.1043161, 49.2815282], ""type"": ""Point""}","49.2815282, -123.1043161",49.2815282,-123.1043161
Inuit Gallery of Vancouver,www.inuit.com,Museum/Gallery,Museum/Gallery,"206 Cambie St, Vancouver, BC, V6B 2M9",Downtown,Privately Owned,"{""coordinates"": [-123.1088083, 49.2842455], ""type"": ""Point""}","49.2842455, -123.1088083",49.2842455,-123.1088083
Malaspina Printmakers Gallery,www.malaspinaprintmakers.com?,Museum/Gallery,Museum/Gallery,"1555 Duranleau St, Vancouver, BC, V6H 3S3",Fairview,Government,"{""coordinates"": [-123.135784, 49.271369], ""type"": ""Point""}","49.271369, -123.135784",49.271369,-123.135784
Wall Centre Plaza,,Community Space,Plaza/Park/Band Shell,"1088 Burrard St, Vancouver, BC, V6Z 2R9",Downtown,Privately Owned,"{""coordinates"": [-123.1265368, 49.2801175], ""type"": ""Point""}","49.2801175, -123.1265368",49.2801175,-123.1265368
Art Beatus,www.artbeatus.com,Museum/Gallery,Museum/Gallery,"808 Nelson St, Vancouver, BC, V6Z 2H2",Downtown,Privately Owned,"{""coordinates"": [-123.1249139, 49.2800409], ""type"": ""Point""}","49.2800409, -123.1249139",49.2800409,-123.1249139
Equinox Gallery,www.equinoxgallery.com,Museum/Gallery,Museum/Gallery,"525 Great Northern Way, Vancouver, BC, V5T 1E1",Strathcona,Privately Owned,"{""coordinates"": [-123.09226, 49.267609], ""type"": ""Point""}","49.267609, -123.09226",49.267609,-123.09226
Granville Street/ Entertainment District,,Community Space,Plaza/Park/Band Shell,"Vancouver, BC",Downtown,City of Vancouver,"{""coordinates"": [-123.11966, 49.281457], ""type"": ""Point""}","49.281457, -123.11966",49.281457,-123.11966
Grunt Gallery,www.grunt.ca?,Museum/Gallery,Museum/Gallery,"350 E 2nd Av, Vancouver, BC, V5T 4R8",Mount Pleasant,Non-Profit,"{""coordinates"": [-123.09715, 49.26676], ""type"": ""Point""}","49.26676, -123.09715",49.26676,-123.09715
Interurban Gallery,,Museum/Gallery,Museum/Gallery,"1 E Hastings St, Vancouver, BC, V6A 1M9",Downtown,Privately Owned,"{""coordinates"": [-123.1043161, 49.2815282], ""type"": ""Point""}","49.2815282, -123.1043161",49.2815282,-123.1043161
Little Mountain Gallery,www.littlemountaingallery.com,Museum/Gallery,Museum/Gallery,"195 E 26th Av, Vancouver, BC, V5V 2G8",Riley Park,Privately Owned,"{""coordinates"": [-123.1014023, 49.2480158], ""type"": ""Point""}","49.2480158, -123.1014023",49.2480158,-123.1014023
Marion Scott Gallery,www.marionscottgallery.com,Museum/Gallery,Museum/Gallery,"2423 Granville St, Vancouver, BC, V6H 3G5",Fairview,Privately Owned,"{""coordinates"": [-123.1386272, 49.264079], ""type"": ""Point""}","49.264079, -123.1386272",49.264079,-123.1386272
On Main Gallery,www.onmaingallery.com?,Museum/Gallery,Museum/Gallery,"200 E 20th Av, Vancouver, BC, V5V 1M1",Riley Park,Privately Owned,"{""coordinates"": [-123.10056, 49.252773], ""type"": ""Point""}","49.252773, -123.10056",49.252773,-123.10056
Vancouver Community Laboratory,http://vancommunitylab.com/,Studio/Rehearsal,Workshop,"1907 Triumph St, Vancouver, BC, V5L 1K6",Grandview-Woodland,,"{""coordinates"": [-123.0652956, 49.2841727], ""type"": ""Point""}","49.2841727, -123.0652956",49.2841727,-123.0652956
Art Beatus,www.artbeatus.com,Museum/Gallery,Museum/Gallery,"808 Nelson St, Vancouver, BC, V6Z 2H2",Downtown,Privately Owned,"{""coordinates"": [-123.1249139, 49.2800409], ""type"": ""Point""}","49.2800409, -123.1249139",49.2800409,-123.1249139
Bloedel Conservatory,http://vancouver.ca/parks-recreation-culture/bloedel-conservatory.aspx,Museum/Gallery,Garden/Aquarium/Science Centre,"4600 Cambie St, Vancouver, BC, V5Y 2M5",Riley Park,Park Board/COV,"{""coordinates"": [-123.113759, 49.242077], ""type"": ""Point""}","49.242077, -123.113759",49.242077,-123.113759
Dynamo Arts Association,www.dynamoarts.tumblr.com?,Museum/Gallery,Museum/Gallery,"30 E 6th Ave, Vancouver, BC, V5T 1J4",Mount Pleasant,Privately Owned,"{""coordinates"": [-123.1040486, 49.2653017], ""type"": ""Point""}","49.2653017, -123.1040486",49.2653017,-123.1040486
James Tan Gallery,http://www.jamestan.com/home.htm,Museum/Gallery,Museum/Gallery,"437 Columbia St, Vancouver, BC, V6A 2R9",Downtown,Privately Owned,"{""coordinates"": [-123.1023067, 49.2810853], ""type"": ""Point""}","49.2810853, -123.1023067",49.2810853,-123.1023067
Marion Scott Gallery,www.marionscottgallery.com,Museum/Gallery,Museum/Gallery,"2423 Granville St, Vancouver, BC, V6H 3G5",Fairview,Privately Owned,"{""coordinates"": [-123.1386272, 49.264079], ""type"": ""Point""}","49.264079, -123.1386272",49.264079,-123.1386272
Pendulum Gallery,www.pendulumgallery.bc.ca?,Museum/Gallery,Museum/Gallery,"885 W Georgia St, Vancouver, BC, V6C 3E8",Downtown,Privately Owned,"{""coordinates"": [-123.119963, 49.283709], ""type"": ""Point""}","49.283709, -123.119963",49.283709,-123.119963
Vancouver Contemporary Art Gallery,www.contemporaryartgallery.ca?,Museum/Gallery,Museum/Gallery,"555 Nelson St, Vancouver, BC, V6B 6R5",Downtown,Privately Owned,"{""coordinates"": [-123.121183, 49.278238], ""type"": ""Point""}","49.278238, -123.121183",49.278238,-123.121183
Vancouver Maritime Museum,www.vancouvermaritimemuseum.com,Museum/Gallery,Museum/Gallery,"1905 Ogden Av, Vancouver, BC, V6J 1A3",Kitsilano,City of Vancouver,"{""coordinates"": [-123.147587, 49.277465], ""type"": ""Point""}","49.277465, -123.147587",49.277465,-123.147587
15th Field Artillery Regiment Museum and Archives,www.memorybc.ca/museum-of-15th-field-artillery-regiment,Museum/Gallery,Museum/Gallery,"2025 W 11th Av, Vancouver, BC, V6J 2C7",Kitsilano,Privately Owned,"{""coordinates"": [-123.151123, 49.261938], ""type"": ""Point""}","49.261938, -123.151123",49.261938,-123.151123
Back Gallery Project,http://www.backgalleryproject.com/,Museum/Gallery,Museum/Gallery,"602 E Hastings St, Vancouver, BC, V6A 1R1",Strathcona,Privately Owned,"{""coordinates"": [-123.0913998, 49.2811369], ""type"": ""Point""}","49.2811369, -123.0913998",49.2811369,-123.0913998
Granville Street/ Entertainment District,,Community Space,Plaza/Park/Band Shell,"700 - 1300  Granville St, Vancouver, BC, V6Z 1M7",Downtown,City of Vancouver,"{""coordinates"": [-123.11966, 49.281457], ""type"": ""Point""}","49.281457, -123.11966",49.281457,-123.11966
Museum of Vancouver,www.museumofvancouver.ca?,Museum/Gallery,Museum/Gallery,"1100 Chestnut St, Vancouver, BC, V6J 3J9",Kitsilano,City of Vancouver,"{""coordinates"": [-123.144897, 49.276365], ""type"": ""Point""}","49.276365, -123.144897",49.276365,-123.144897
Rio Theatre,www.riotheatre.ca?,Theatre/Performance,Cinema,"1660 E Broadway, Vancouver, BC, V5N 1W1",Kensington-Cedar Cottage,Privately Owned,"{""coordinates"": [-123.0704852, 49.2620042], ""type"": ""Point""}","49.2620042, -123.0704852",49.2620042,-123.0704852
Science World at Telus World of Science / Creekside Park,www.scienceworld.ca?,Museum/Gallery,Garden/Aquarium/Science Centre,"1455 Quebec St, Vancouver, BC, V6A 3Z7",Downtown,Privately Owned,"{""coordinates"": [-123.103652, 49.2737425], ""type"": ""Point""}","49.2737425, -123.103652",49.2737425,-123.103652
Vancouver Art Gallery Offsite,http://www.vanartgallery.bc.ca/the_exhibitions/public_art.html,Museum/Gallery,Museum/Gallery,"1100 W Georgia St, Vancouver, BC, V6E 0A8",West End,City of Vancouver,"{""coordinates"": [-123.124298, 49.286205], ""type"": ""Point""}","49.286205, -123.124298",49.286205,-123.124298
Western Front - Gallery,www.front.bc.ca?,Museum/Gallery,Museum/Gallery,"303 E 8th Av, Vancouver, BC, V5T 1S1",Mount Pleasant,Privately Owned,"{""coordinates"": [-123.098654, 49.263916], ""type"": ""Point""}","49.263916, -123.098654",49.263916,-123.098654
Audain Gallery,https://www.sfu.ca/galleries/audain-gallery.html,Museum/Gallery,Museum/Gallery,"149 W Hastings St, Vancouver, BC, V6B 1H4",Downtown,Other,"{""coordinates"": [-123.108715, 49.282395], ""type"": ""Point""}","49.282395, -123.108715",49.282395,-123.108715
CBC Outdoor Stage,http://www.cbc.ca,Community Space,Plaza/Park/Band Shell,"700 Hamilton St, Vancouver, BC, V6B 2R5",Downtown,Government,"{""coordinates"": [-123.114669, 49.279299], ""type"": ""Point""}","49.279299, -123.114669",49.279299,-123.114669
Lobby Gallery,http://www.ligi.ubc.ca/LobbyGallery.htm,Museum/Gallery,Museum/Gallery,"6476 NW Marine Dr, Vancouver, BC,",UBC,Other,"{""coordinates"": [-123.259146, 49.267681], ""type"": ""Point""}","49.267681, -123.259146",49.267681,-123.259146
Lumbermen's Arch,,Community Space,Plaza/Park/Band Shell,"Stanley Park, Vancouver, BC",Stanley Park,City of Vancouver,"{""coordinates"": [-123.131707, 49.302981], ""type"": ""Point""}","49.302981, -123.131707",49.302981,-123.131707
Plaza of Nations,www.plazaofnations.com?,Community Space,Plaza/Park/Band Shell,"750 Pacific Blvd, Vancouver, BC, V6B 5E7",Downtown,Privately Owned,"{""coordinates"": [-123.110068, 49.276031], ""type"": ""Point""}","49.276031, -123.110068",49.276031,-123.110068
Semi-Public (221A),http://221a.ca/,Community Space,Plaza/Park/Band Shell,"271 Union St, Vancouver, BC, V6A 2B2",Strathcona,Privately Owned,"{""coordinates"": [-123.0974061, 49.2778745], ""type"": ""Point""}","49.2778745, -123.0974061",49.2778745,-123.0974061
Alliance for Arts and Culture,http://www.allianceforarts.com,Museum/Gallery,Library/Archives,"938 Howe St, Vancouver, BC, V6Z 1N9",Downtown,Privately Owned,"{""coordinates"": [-123.1228359, 49.2803099], ""type"": ""Point""}","49.2803099, -123.1228359",49.2803099,-123.1228359
Arts Club Theatre - Production Centre,,Studio/Rehearsal,Workshop,"1377 Cartwright St, Vancouver, BC, V6H 3R7",Fairview,Government,"{""coordinates"": [-123.1347122, 49.2700047], ""type"": ""Point""}","49.2700047, -123.1347122",49.2700047,-123.1347122
Catriona Jeffries Gallery,www.catrionajeffries.com?,Museum/Gallery,Museum/Gallery,"274 E 1st Av, Vancouver, BC, V5T 1A6",Strathcona,Privately Owned,"{""coordinates"": [-123.0980394, 49.2687198], ""type"": ""Point""}","49.2687198, -123.0980394",49.2687198,-123.0980394
City of Vancouver Archives,www.vancouver.cayour-government/city-of-vancouver-archives.aspx?,Museum/Gallery,Library/Archives,"1150 Chestnut St, Vancouver, BC, V6J 3J9",Kitsilano,City of Vancouver,"{""coordinates"": [-123.142663, 49.276084], ""type"": ""Point""}","49.276084, -123.142663",49.276084,-123.142663
Monte Clark Gallery,www.monteclarkgallery.com,Museum/Gallery,Museum/Gallery,"525 Great Northern Way, Vancouver, BC, V5T 1E1",Strathcona,Privately Owned,"{""coordinates"": [-123.0921743, 49.26761], ""type"": ""Point""}","49.26761, -123.0921743",49.26761,-123.0921743
Peter Kiss Gallery,www.peterkiss.com,Museum/Gallery,Museum/Gallery,"1327 Railspur Alley, Vancouver, BC, V6H 4G9",Fairview,Privately Owned,"{""coordinates"": [-123.1337947, 49.2701374], ""type"": ""Point""}","49.2701374, -123.1337947",49.2701374,-123.1337947
Centre A - Centre For Contemporary Asian Art,http://centrea.org,Museum/Gallery,Museum/Gallery,"229 E Georgia St, Vancouver, BC, V6A 1Z6",Strathcona,Privately Owned,"{""coordinates"": [-123.098671, 49.278676], ""type"": ""Point""}","49.278676, -123.098671",49.278676,-123.098671
Chinese Cultural Centre Museum and Archives,,Museum/Gallery,Museum/Gallery,"555 Columbia St, Vancouver, BC, V6A 4H5",Downtown,City of Vancouver,"{""coordinates"": [-123.102448, 49.279894], ""type"": ""Point""}","49.279894, -123.102448",49.279894,-123.102448
Jericho Beach,,Community Space,Plaza/Park/Band Shell,"3941 Point Grey Rd., Vancouver, BC, V6R 1B5",West Point Grey,City of Vancouver,"{""coordinates"": [-123.1912389, 49.2711948], ""type"": ""Point""}","49.2711948, -123.1912389",49.2711948,-123.1912389
Lobby Gallery,http://www.ligi.ubc.ca/LobbyGallery.htm,Museum/Gallery,Museum/Gallery,"6476 NW Marine Dr, Vancouver, BC,",UBC,Other,"{""coordinates"": [-123.259146, 49.267681], ""type"": ""Point""}","49.267681, -123.259146",49.267681,-123.259146
PNE Amphitheatre,http://www.49st.com/venue/pne-amphitheatre#info,Community Space,Plaza/Park/Band Shell,"2901 E Hastings St, Vancouver, BC, V5K 5J1",Hastings-Sunrise,City of Vancouver,"{""coordinates"": [-123.037295, 49.28416], ""type"": ""Point""}","49.28416, -123.037295",49.28416,-123.037295
Western Front - Gallery,www.front.bc.ca?,Museum/Gallery,Museum/Gallery,"303 E 8th Av, Vancouver, BC, V5T 1S1",Mount Pleasant,Privately Owned,"{""coordinates"": [-123.098654, 49.263916], ""type"": ""Point""}","49.263916, -123.098654",49.263916,-123.098654
Back Gallery Project,http://www.backgalleryproject.com/,Museum/Gallery,Museum/Gallery,"602 E Hastings St, Vancouver, BC, V6A 1R1",Strathcona,Privately Owned,"{""coordinates"": [-123.0913998, 49.2811369], ""type"": ""Point""}","49.2811369, -123.0913998",49.2811369,-123.0913998
Circle Craft Co-Operative Shop & Gallery,www.circlecraft.net/,Museum/Gallery,Museum/Gallery,"1666 Johnston St, Vancouver, BC, V6H 3S2",Fairview,Government,"{""coordinates"": [-123.135541, 49.272369], ""type"": ""Point""}","49.272369, -123.135541",49.272369,-123.135541
Equinox Gallery,www.equinoxgallery.com,Museum/Gallery,Museum/Gallery,"525 Great Northern Way, Vancouver, BC, V5T 1E1",Strathcona,Privately Owned,"{""coordinates"": [-123.09226, 49.267609], ""type"": ""Point""}","49.267609, -123.09226",49.267609,-123.09226
Haywood Bandstand,,Community Space,Plaza/Park/Band Shell,"1755 Beach Av, Vancouver, BC,",West End,Park Board/COV,"{""coordinates"": [-123.141944, 49.285278], ""type"": ""Point""}","49.285278, -123.141944",49.285278,-123.141944
Uno Langmann Limited Fine Arts,www.langmann.com,Museum/Gallery,Museum/Gallery,"2117 Granville St, Vancouver, BC, V6H 3E9",Fairview,Privately Owned,"{""coordinates"": [-123.1388698, 49.2666423], ""type"": ""Point""}","49.2666423, -123.1388698",49.2666423,-123.1388698
Bau-Xi Gallery,www.bau-xi.com,Museum/Gallery,Museum/Gallery,"3045 Granville St, Vancouver, BC, V6H 3J9",Fairview,Privately Owned,"{""coordinates"": [-123.1391799, 49.258496], ""type"": ""Point""}","49.258496, -123.1391799",49.258496,-123.1391799
Centre A - Centre For Contemporary Asian Art,http://centrea.org,Museum/Gallery,Museum/Gallery,"205-268 Keefer St, Vancouver, BC, V6A 1X6",Strathcona,Privately Owned,"{""coordinates"": [-123.098181, 49.280067], ""type"": ""Point""}","49.280067, -123.098181",49.280067,-123.098181
FIELD Contemporary,www.field-contemporary.com,Museum/Gallery,Museum/Gallery,"17 W Broadway, Vancouver, BC, V5Y 1P1",Mount Pleasant,Privately Owned,"{""coordinates"": [-123.1058083, 49.2630895], ""type"": ""Point""}","49.2630895, -123.1058083",49.2630895,-123.1058083
Gallery Gachet,www.gachet.org?,Museum/Gallery,Museum/Gallery,"9 W Hastings St, Vancouver, BC, V6B 1G4",Downtown Eastside,Privately Owned,"{""coordinates"": [-123.104947, 49.281719], ""type"": ""Point""}","49.281719, -123.104947",49.281719,-123.104947
Great Northern Way Scene Shop,www.gnwshop.ca?,Studio/Rehearsal,Workshop,"101-281 Industrial Av, Vancouver, BC, V5A 2P2",Strathcona,City of Vancouver,"{""coordinates"": [-123.098432, 49.270087], ""type"": ""Point""}","49.270087, -123.098432",49.270087,-123.098432
James Black Gallery,http://www.thejamesblack.gallery/,Museum/Gallery,Museum/Gallery,"144 E 6th Av, Vancouver, BC, V5T1J5",Mount Pleasant,Privately Owned,"{""coordinates"": [-123.1019214, 49.2652632], ""type"": ""Point""}","49.2652632, -123.1019214",49.2652632,-123.1019214
Marion Scott Gallery,www.marionscottgallery.com,Museum/Gallery,Museum/Gallery,"2423 Granville St, Vancouver, BC, V6H 3G5",Fairview,Privately Owned,"{""coordinates"": [-123.1386272, 49.264079], ""type"": ""Point""}","49.264079, -123.1386272",49.264079,-123.1386272
On Main Gallery,www.onmaingallery.com?,Museum/Gallery,Museum/Gallery,"427-268 Keefer St, Vancouver, BC, V6A 1X5",Riley Park,Privately Owned,"{""coordinates"": [-123.10056, 49.252773], ""type"": ""Point""}","49.252773, -123.10056",49.252773,-123.10056
Oppenheimer Park/ Powell Street Festival,,Community Space,Plaza/Park/Band Shell,"400 Powell St, Vancouver, BC, V6A 1G6",Strathcona,Vancouver Park Board/COV,"{""coordinates"": [-123.094341, 49.282643], ""type"": ""Point""}","49.282643, -123.094341",49.282643,-123.094341
Pacific Cinematheque,https://thecinematheque.ca/,Theatre/Performance,Cinema,"1131 Howe St, Vancouver, BC, V6Z 2L7",Downtown,City of Vancouver,"{""coordinates"": [-123.12627, 49.278552], ""type"": ""Point""}","49.278552, -123.12627",49.278552,-123.12627
Sunset Terrace,http://sunset-terrace.com/,Museum/Gallery,Museum/Gallery,"2028 Clark Dr, Vancouver, BC, V5N 3G7",Grandview-Woodland,Privately Owned,"{""coordinates"": [-123.077268, 49.266746], ""type"": ""Point""}","49.266746, -123.077268",49.266746,-123.077268
Bau-Xi Gallery,www.bau-xi.com,Museum/Gallery,Museum/Gallery,"3045 Granville St, Vancouver, BC, V6H 3J9",Fairview,Privately Owned,"{""coordinates"": [-123.1391799, 49.258496], ""type"": ""Point""}","49.258496, -123.1391799",49.258496,-123.1391799
Doctor Vigari Gallery,www.doctorvigarigallery.com,Museum/Gallery,Museum/Gallery,"1816 Commercial Dr, Vancouver, BC, V5N 4A3",Grandview-Woodland,Privately Owned,"{""coordinates"": [-123.0692806, 49.2683622], ""type"": ""Point""}","49.2683622, -123.0692806",49.2683622,-123.0692806
GMS Observatory,http://www.spacecentre.ca/gms,Museum/Gallery,Garden/Aquarium/Science Centre,"1100 Chestnut St, Vancouver, BC, V6J 3J9",Kitsilano,City of Vancouver,"{""coordinates"": [-123.144436, 49.276261], ""type"": ""Point""}","49.276261, -123.144436",49.276261,-123.144436
Granville Street/ Entertainment District,,Community Space,Plaza/Park/Band Shell,"700 - 1300  Granville St, Vancouver, BC, V6Z 1M7",Downtown,City of Vancouver,"{""coordinates"": [-123.11966, 49.281457], ""type"": ""Point""}","49.281457, -123.11966",49.281457,-123.11966
Ian Tan Gallery,www.iantangallery.com?,Museum/Gallery,Museum/Gallery,"2342 Granville St, Vancouver, BC, V6H 3G3",Fairview,Privately Owned,"{""coordinates"": [-123.13825, 49.264989], ""type"": ""Point""}","49.264989, -123.13825",49.264989,-123.13825
Interurban Gallery,,Museum/Gallery,Museum/Gallery,"1 E Hastings St, Vancouver, BC, V6A 1M9",Downtown,Privately Owned,"{""coordinates"": [-123.1043161, 49.2815282], ""type"": ""Point""}","49.2815282, -123.1043161",49.2815282,-123.1043161
Pacific Cinematheque,http://www.thecinematheque.caabout,Theatre/Performance,Cinema,"1131 Howe St, Vancouver, BC, V6Z 2L7",Downtown,City of Vancouver,"{""coordinates"": [-123.12627, 49.278552], ""type"": ""Point""}","49.278552, -123.12627",49.278552,-123.12627
Peter Kiss Gallery,www.peterkiss.com,Museum/Gallery,Museum/Gallery,"1327 Railspur Alley, Vancouver, BC, V6H 4G9",Fairview,Privately Owned,"{""coordinates"": [-123.1337947, 49.2701374], ""type"": ""Point""}","49.2701374, -123.1337947",49.2701374,-123.1337947
Vancouver Art Gallery,www.vanartgallery.bc.ca,Museum/Gallery,Museum/Gallery,"750 Hornby St, Vancouver, BC, V6Z 2H7",Downtown,Government,"{""coordinates"": [-123.120932, 49.283158], ""type"": ""Point""}","49.283158, -123.120932",49.283158,-123.120932
Writers' Exchange,,Studio/Rehearsal,Workshop,"881 E Hastings St, Vancouver, BC, V6A 1R8",Strathcona,Privately Owned,"{""coordinates"": [-123.0853822, 49.2811097], ""type"": ""Point""}","49.2811097, -123.0853822",49.2811097,-123.0853822
Art Works Gallery,http://artworksbc.com/,Museum/Gallery,Museum/Gallery,"225 Smithe St, Vancouver, BC, V6B 4X7",Downtown,Privately Owned,"{""coordinates"": [-123.1165781, 49.2775077], ""type"": ""Point""}","49.2775077, -123.1165781",49.2775077,-123.1165781
Canadian Music Centre (BC Region),http://www.musiccentre.ca/regions/british-columbia?field_event_region_value_many_to_one=3,Museum/Gallery,Library/Archives,"837 Davie St, Vancouver, BC, V6Z 1B7",Downtown,Privately Owned,"{""coordinates"": [-123.127484, 49.278055], ""type"": ""Point""}","49.278055, -123.127484",49.278055,-123.127484
Djavad Mowafaghian Cinema,http://www.sfu.ca/mecs/facilities/goldcorp-centre-for-the-arts/meeting-rooms/djavadmowafaghian.html,Theatre/Performance,Cinema,"149 W Hastings St, Vancouver, BC, V6B 1H4",Downtown,Other,"{""coordinates"": [-123.108528, 49.282364], ""type"": ""Point""}","49.282364, -123.108528",49.282364,-123.108528
Gam Gallery,http://gamgallery.com/contact/,Museum/Gallery,Museum/Gallery,"110 E Hastings St, Vancouver, BC, V6N 1N4",Downtown,Privately Owned,"{""coordinates"": [-123.101858, 49.2813343], ""type"": ""Point""}","49.2813343, -123.101858",49.2813343,-123.101858
Secret Lantern Society,,Studio/Rehearsal,Workshop,"328 -B Industrial Av, Vancouver, BC,",Strathcona,Privately Owned,"{""coordinates"": [-123.0965625, 49.2695868], ""type"": ""Point""}","49.2695868, -123.0965625",49.2695868,-123.0965625
Stanley Park Nature House,http://stanleyparkecology.ca/education/nature-house/,Museum/Gallery,Museum/Gallery,"Stanley Park, Vancouver, BC",Stanley Park,Vancouver Park Board/COV,"{""coordinates"": [-123.137914, 49.294408], ""type"": ""Point""}","49.294408, -123.137914",49.294408,-123.137914
Beaty Biodiversity Museum,http://www.beatymuseum.ubc.ca/about,Museum/Gallery,Museum/Gallery,"2212 Main Mall, Vancouver, BC, V6T 1Z4",UBC,Other,"{""coordinates"": [-123.251485, 49.2634318], ""type"": ""Point""}","49.2634318, -123.251485",49.2634318,-123.251485
Gallery Gachet,www.gachet.org?,Museum/Gallery,Museum/Gallery,"88 E Cordova St, Vancouver, BC, V6A 1K2",Downtown,Privately Owned,"{""coordinates"": [-123.102645, 49.2821], ""type"": ""Point""}","49.2821, -123.102645",49.2821,-123.102645
Gallery of BC Ceramics,http://www.bcpotters.com/Gallery/index.php,Museum/Gallery,Museum/Gallery,"1359 Cartwright St, Vancouver, BC, V6H 3R7",Fairview,Non-Profit,"{""coordinates"": [-123.134283, 49.270046], ""type"": ""Point""}","49.270046, -123.134283",49.270046,-123.134283
Granville Island Gallery,www.granvilleislandgallery.com?,Museum/Gallery,Museum/Gallery,"1494 Old Bridge St, Vancouver, BC, V6H 3S6",Fairview,Government,"{""coordinates"": [-123.134769, 49.270213], ""type"": ""Point""}","49.270213, -123.134769",49.270213,-123.134769
Monte Clark Gallery,www.monteclarkgallery.com,Museum/Gallery,Museum/Gallery,"525 Great Northern Way, Vancouver, BC, V5T 1E1",Strathcona,Privately Owned,"{""coordinates"": [-123.0921743, 49.26761], ""type"": ""Point""}","49.26761, -123.0921743",49.26761,-123.0921743
Pacific Cin√©math√®que,http://www.thecinematheque.caabout,Theatre/Performance,Cinema,"1131 Howe St, Vancouver, BC, V6Z 2L7",Downtown,City of Vancouver,"{""coordinates"": [-123.12627, 49.278552], ""type"": ""Point""}","49.278552, -123.12627",49.278552,-123.12627
Remington Gallery and Studio,https://www.facebook.com/Remington.Gallery.and.Studio,Museum/Gallery,Museum/Gallery,"108 E Hastings St, Vancouver, BC, V6A 4J1",Downtown,Privately Owned,"{""coordinates"": [-123.1019396, 49.281336], ""type"": ""Point""}","49.281336, -123.1019396",49.281336,-123.1019396
Secret Lantern Society,,Studio/Rehearsal,Workshop,"328 -B Industrial Av, Vancouver, BC,",Strathcona,Privately Owned,"{""coordinates"": [-123.0965625, 49.2695868], ""type"": ""Point""}","49.2695868, -123.0965625",49.2695868,-123.0965625
Trench Gallery,www.trenchgallery.com,Museum/Gallery,Museum/Gallery,"148 Alexander St, Vancouver, BC, V6A 1B5",Downtown,Privately Owned,"{""coordinates"": [-123.1010921, 49.2839469], ""type"": ""Point""}","49.2839469, -123.1010921",49.2839469,-123.1010921
Vanier Park,,Community Space,Plaza/Park/Band Shell,"1000 Chestnut St, Vancouver, BC, V6J 3J9",Kitsilano,City of Vancouver,"{""coordinates"": [-123.146124, 49.276777], ""type"": ""Point""}","49.276777, -123.146124",49.276777,-123.146124
15th Field Artillery Regiment Museum and Archives,www.memorybc.ca/museum-of-15th-field-artillery-regiment,Museum/Gallery,Museum/Gallery,"2025 W 11th Av, Vancouver, BC, V6J 2C7",Kitsilano,Privately Owned,"{""coordinates"": [-123.151123, 49.261938], ""type"": ""Point""}","49.261938, -123.151123",49.261938,-123.151123
221A Artist Run Centre,www.221a.ca/?,Museum/Gallery,Museum/Gallery,"221 E Georgia St, Vancouver, BC, V6A 1Z6",Strathcona,Privately Owned,"{""coordinates"": [-123.098796, 49.278786], ""type"": ""Point""}","49.278786, -123.098796",49.278786,-123.098796
Artspeak Gallery,www.artspeak.ca/?,Museum/Gallery,Museum/Gallery,"233 Carrall St, Vancouver, BC, V6B 2J2",Downtown,Non-Profit,"{""coordinates"": [-123.104299, 49.282941], ""type"": ""Point""}","49.282941, -123.104299",49.282941,-123.104299
Basic Inquiry,http://www.lifedrawing.org/index.html,Museum/Gallery,Museum/Gallery,"1011 Main St, Vancouver, BC, V6A 4L4",Downtown,Privately Owned,"{""coordinates"": [-123.1000334, 49.2758184], ""type"": ""Point""}","49.2758184, -123.1000334",49.2758184,-123.1000334
Creekside Park,,Community Space,Plaza/Park/Band Shell,"1455 Quebec St, Vancouver, BC, V6A 3Z7",Downtown,City of Vancouver,"{""coordinates"": [-123.10319, 49.274159], ""type"": ""Point""}","49.274159, -123.10319",49.274159,-123.10319
David Lam Park,,Community Space,Plaza/Park/Band Shell,"1300 Pacific Blvd, Vancouver, BC, V6Z 2V1",Downtown,City of Vancouver,"{""coordinates"": [-123.1241736, 49.2724252], ""type"": ""Point""}","49.2724252, -123.1241736",49.2724252,-123.1241736
Malaspina Printmakers Gallery,www.malaspinaprintmakers.com?,Museum/Gallery,Museum/Gallery,"1555 Duranleau St, Vancouver, BC, V6H 3S3",Fairview,Government,"{""coordinates"": [-123.135784, 49.271369], ""type"": ""Point""}","49.271369, -123.135784",49.271369,-123.135784
Vancouver Art Gallery Offsite,http://www.vanartgallery.bc.ca/the_exhibitions/public_art.html,Museum/Gallery,Museum/Gallery,"1100 W Georgia St, Vancouver, BC, V6E 0A8",West End,City of Vancouver,"{""coordinates"": [-123.124298, 49.286205], ""type"": ""Point""}","49.286205, -123.124298",49.286205,-123.124298
Winsor Gallery,www.winsorgallery.com,Museum/Gallery,Museum/Gallery,"258 E 1st Ave, Vancouver, BC, V5T 1A6",Strathcona,Privately Owned,"{""coordinates"": [-123.0984496, 49.2689553], ""type"": ""Point""}","49.2689553, -123.0984496",49.2689553,-123.0984496
Artspeak Gallery,www.artspeak.ca/?,Museum/Gallery,Museum/Gallery,"233 Carrall St, Vancouver, BC, V6B 2J2",Downtown,Non-Profit,"{""coordinates"": [-123.104299, 49.282941], ""type"": ""Point""}","49.282941, -123.104299",49.282941,-123.104299
BAF Gallery,http://www.burrardarts.org/about.html,Museum/Gallery,Museum/Gallery,"258 E 1st Av, Vancouver, BC, V5T 1A6",Strathcona,Privately Owned,"{""coordinates"": [-123.098527, 49.268909], ""type"": ""Point""}","49.268909, -123.098527",49.268909,-123.098527
Elissa Cristall Galleries,http://cristallgallery.com,Museum/Gallery,Museum/Gallery,"2239 Granville St, Vancouver, BC, V6H 3G1",Fairview,Privately Owned,"{""coordinates"": [-123.1385822, 49.2655257], ""type"": ""Point""}","49.2655257, -123.1385822",49.2655257,-123.1385822
Jennifer Kostuik Gallery,www.kostuikgallery.com?,Museum/Gallery,Museum/Gallery,"1070 Homer St, Vancouver, BC, V6B 2W9",Downtown,Privately Owned,"{""coordinates"": [-123.1211143, 49.2766268], ""type"": ""Point""}","49.2766268, -123.1211143",49.2766268,-123.1211143
Morris and Helen Belkin Art Gallery,http://www.belkin.ubc.ca/,Museum/Gallery,Museum/Gallery,"1825 Main Mall, Vancouver, BC, V6T 1Z2",UBC,Other,"{""coordinates"": [-123.255944, 49.2683878], ""type"": ""Point""}","49.2683878, -123.255944",49.2683878,-123.255944
Trillium North Park,https://trilliumnorthpark.com/,Other,Garden/Aquarium/Science Centre,"699 National Av, Vancouver, BC, V6A 3X2",Strathcona,Vancouver Park Board/COV,"{""coordinates"": [-123.09379, 49.274169], ""type"": ""Point""}","49.274169, -123.09379",49.274169,-123.09379
Art Beatus,www.artbeatus.com,Museum/Gallery,Museum/Gallery,"808 Nelson St, Vancouver, BC, V6Z 2H2",Downtown,Privately Owned,"{""coordinates"": [-123.1249139, 49.2800409], ""type"": ""Point""}","49.2800409, -123.1249139",49.2800409,-123.1249139
Douglas Reynolds Gallery,www.douglasreynoldsgallery.com,Museum/Gallery,Museum/Gallery,"2335 Granville St, Vancouver, BC, V6H 3G4",Fairview,Privately Owned,"{""coordinates"": [-123.1385998, 49.2648423], ""type"": ""Point""}","49.2648423, -123.1385998",49.2648423,-123.1385998
Gallery 295,http://gallery295.com/295/,Museum/Gallery,Museum/Gallery,"295 E 2nd Av, Vancouver, BC, V5T 1B8",Strathcona,Privately Owned,"{""coordinates"": [-123.0981191, 49.2680645], ""type"": ""Point""}","49.2680645, -123.0981191",49.2680645,-123.0981191
Hatch Art Gallery,http://www.ams.ubc.ca/nest/arts-and-attractions/art-gallery/,Museum/Gallery,Museum/Gallery,"6133 University Blvd, Vancouver, BC, V6T 1Z1",UBC,Non-Profit,"{""coordinates"": [-123.249913, 49.266025], ""type"": ""Point""}","49.266025, -123.249913",49.266025,-123.249913
James Tan Gallery,http://www.jamestan.com/home.htm,Museum/Gallery,Museum/Gallery,"437 Columbia St, Vancouver, BC, V6A 2R9",Downtown,Privately Owned,"{""coordinates"": [-123.1023067, 49.2810853], ""type"": ""Point""}","49.2810853, -123.1023067",49.2810853,-123.1023067
Lattimer Gallery,www.lattimergallery.com?,Museum/Gallery,Museum/Gallery,"1590 W 2nd Av, Vancouver, BC, V6J 1H2",Fairview,Privately Owned,"{""coordinates"": [-123.1406592, 49.2696829], ""type"": ""Point""}","49.2696829, -123.1406592",49.2696829,-123.1406592
Make Gallery,http://makeisawesome.com/,Museum/Gallery,Museum/Gallery,"257 E 7th Av, Vancouver, BC, V5T 0B4",Mount Pleasant,Privately Owned,"{""coordinates"": [-123.0992862, 49.2646046], ""type"": ""Point""}","49.2646046, -123.0992862",49.2646046,-123.0992862
MakerLabs,www.makerlabs.ca,Studio/Rehearsal,Workshop,"780 E Cordova St, Vancouver, BC, V6A1M3",Strathcona,Privately Owned,"{""coordinates"": [-123.087695, 49.2818014], ""type"": ""Point""}","49.2818014, -123.087695",49.2818014,-123.087695
Rio Theatre,www.riotheatre.ca?,Theatre/Performance,Cinema,"1660 E Broadway, Vancouver, BC, V5N 1W1",Kensington-Cedar Cottage,Privately Owned,"{""coordinates"": [-123.0704852, 49.2620042], ""type"": ""Point""}","49.2620042, -123.0704852",49.2620042,-123.0704852
Roedde House,www.roeddehouse.org,Museum/Gallery,Museum/Gallery,"1415 Barclay St, Vancouver, BC, V6G 1J6",West End,City of Vancouver,"{""coordinates"": [-123.132187, 49.286863], ""type"": ""Point""}","49.286863, -123.132187",49.286863,-123.132187
Teck Gallery,https://www.sfu.ca/galleries/teck-gallery.html,Museum/Gallery,Museum/Gallery,"515 W Hastings St, Vancouver, BC, V6B 0B2",Downtown,Privately Owned,"{""coordinates"": [-123.1119735, 49.2841655], ""type"": ""Point""}","49.2841655, -123.1119735",49.2841655,-123.1119735
Vancouver Art Gallery North Plaza,,Community Space,Plaza/Park/Band Shell,"850 W Georgia St, Vancouver, BC, V6Z 2H7",Downtown,City of Vancouver,"{""coordinates"": [-123.119848, 49.283113], ""type"": ""Point""}","49.283113, -123.119848",49.283113,-123.119848
Artstarts in Schools,www.artstarts.com,Museum/Gallery,Museum/Gallery,"808 Richards St, Vancouver, BC, V6B 3A7",Downtown,Privately Owned,"{""coordinates"": [-123.1179808, 49.2799985], ""type"": ""Point""}","49.2799985, -123.1179808",49.2799985,-123.1179808
BAF Studio,http://www.burrardarts.org/about.html,Museum/Gallery,Museum/Gallery,"108 E Broadway Av, Vancouver, BC, V5T 1V9",Mount Pleasant,Privately Owned,"{""coordinates"": [-123.102505, 49.262669], ""type"": ""Point""}","49.262669, -123.102505",49.262669,-123.102505
Basic Inquiry,http://www.lifedrawing.org/index.html,Museum/Gallery,Museum/Gallery,"1011 Main St, Vancouver, BC, V6A 4L4",Downtown,Privately Owned,"{""coordinates"": [-123.1000334, 49.2758184], ""type"": ""Point""}","49.2758184, -123.1000334",49.2758184,-123.1000334
Bau-Xi Gallery,www.bau-xi.com,Museum/Gallery,Museum/Gallery,"3045 Granville St, Vancouver, BC, V6H 3J9",Fairview,Privately Owned,"{""coordinates"": [-123.1391799, 49.258496], ""type"": ""Point""}","49.258496, -123.1391799",49.258496,-123.1391799
David Lam Park,,Community Space,Plaza/Park/Band Shell,"1300 Pacific Blvd, Vancouver, BC, V6Z 2V1",Downtown,City of Vancouver,"{""coordinates"": [-123.1241736, 49.2724252], ""type"": ""Point""}","49.2724252, -123.1241736",49.2724252,-123.1241736
Douglas Udell Gallery,www.douglasudellgallery.com?,Museum/Gallery,Museum/Gallery,"1558 W 6th Av, Vancouver, BC, V6J 1R2",Fairview,Privately Owned,"{""coordinates"": [-123.1399725, 49.2661804], ""type"": ""Point""}","49.2661804, -123.1399725",49.2661804,-123.1399725
Dr. Sun Yat-Sen Classical Chinese Garden,www.vancouverchinesegarden.com?,Museum/Gallery,Garden/Aquarium/Science Centre,"578 Carrall St, Vancouver, BC, V6B 5K2",Downtown,City of Vancouver,"{""coordinates"": [-123.104168, 49.279983], ""type"": ""Point""}","49.279983, -123.104168",49.279983,-123.104168
Equinox Gallery,www.equinoxgallery.com,Museum/Gallery,Museum/Gallery,"525 Great Northern Way, Vancouver, BC, V5T 1E1",Strathcona,Privately Owned,"{""coordinates"": [-123.09226, 49.267609], ""type"": ""Point""}","49.267609, -123.09226",49.267609,-123.09226
Gallery 295,http://gallery295.com/295/,Museum/Gallery,Museum/Gallery,"295 E 2nd Ave, Vancouver, BC, V5T 1B8",Strathcona,Privately Owned,"{""coordinates"": [-123.0981191, 49.2680645], ""type"": ""Point""}","49.2680645, -123.0981191",49.2680645,-123.0981191
Granville Street/ Entertainment District,,Community Space,Plaza/Park/Band Shell,"Vancouver, BC",Downtown,City of Vancouver,"{""coordinates"": [-123.11966, 49.281457], ""type"": ""Point""}","49.281457, -123.11966",49.281457,-123.11966
Harrison Galleries,www.harrisongalleries.com,Museum/Gallery,Museum/Gallery,"901 Homer St, Vancouver, BC, V6B 2W6",Downtown,Privately Owned,"{""coordinates"": [-123.1184779, 49.2784569], ""type"": ""Point""}","49.2784569, -123.1184779",49.2784569,-123.1184779
Jericho Beach,,Community Space,Plaza/Park/Band Shell,"3941 Point Grey Rd., Vancouver, BC, V6R 1B5",West Point Grey,City of Vancouver,"{""coordinates"": [-123.1912389, 49.2711948], ""type"": ""Point""}","49.2711948, -123.1912389",49.2711948,-123.1912389
Labyrinth Gallery,http://labyrinthgallery.org/,Museum/Gallery,Museum/Gallery,"112 E Hastings St, Vancouver, BC, V6A 4J1",Downtown,Privately Owned,"{""coordinates"": [-123.1017894, 49.2810651], ""type"": ""Point""}","49.2810651, -123.1017894",49.2810651,-123.1017894
Little Mountain Gallery,www.littlemountaingallery.com,Museum/Gallery,Museum/Gallery,"195 E 26th Av, Vancouver, BC, V5V 2G8",Riley Park,Privately Owned,"{""coordinates"": [-123.1014023, 49.2480158], ""type"": ""Point""}","49.2480158, -123.1014023",49.2480158,-123.1014023
Make Gallery,http://makeisawesome.com/,Museum/Gallery,Museum/Gallery,"257 E 7th Av, Vancouver, BC, V5T 0B4",Mount Pleasant,Privately Owned,"{""coordinates"": [-123.0992862, 49.2646046], ""type"": ""Point""}","49.2646046, -123.0992862",49.2646046,-123.0992862
Marion Scott Gallery,www.marionscottgallery.com,Museum/Gallery,Museum/Gallery,"2423 Granville St, Vancouver, BC, V6H 3G5",Fairview,Privately Owned,"{""coordinates"": [-123.1386272, 49.264079], ""type"": ""Point""}","49.264079, -123.1386272",49.264079,-123.1386272
Or Gallery,www.orgallery.org?,Museum/Gallery,Museum/Gallery,"555 Hamilton St, Vancouver, BC, V6B 2R1",Downtown,Privately Owned,"{""coordinates"": [-123.112094, 49.281406], ""type"": ""Point""}","49.281406, -123.112094",49.281406,-123.112094
Pendulum Gallery,www.pendulumgallery.bc.ca?,Museum/Gallery,Museum/Gallery,"885 W Georgia St, Vancouver, BC, V6C 3E8",Downtown,Privately Owned,"{""coordinates"": [-123.119963, 49.283709], ""type"": ""Point""}","49.283709, -123.119963",49.283709,-123.119963
Queen Elizabeth Theatre Plaza,,Community Space,Plaza/Park/Band Shell,"650 Hamilton St, Vancouver, BC, V6B 5N6",Downtown,City of Vancouver,"{""coordinates"": [-123.113393, 49.27994], ""type"": ""Point""}","49.27994, -123.113393",49.27994,-123.113393
Science World At Telus World Of Science,www.scienceworld.ca?,Museum/Gallery,Garden/Aquarium/Science Centre,"1455 Quebec St, Vancouver, BC, V6A 3Z7",Downtown,Government,"{""coordinates"": [-123.103652, 49.273743], ""type"": ""Point""}","49.273743, -123.103652",49.273743,-123.103652
Semi-Public (221A),http://221a.ca/,Community Space,Plaza/Park/Band Shell,"271 Union St, Vancouver, BC, V6A 2B2",Strathcona,Privately Owned,"{""coordinates"": [-123.0974061, 49.2778745], ""type"": ""Point""}","49.2778745, -123.0974061",49.2778745,-123.0974061
Teck Gallery,https://www.sfu.ca/galleries/teck-gallery.html,Museum/Gallery,Museum/Gallery,"515 W Hastings St, Vancouver, BC, V6B 0B2",Downtown,Privately Owned,"{""coordinates"": [-123.1119735, 49.2841655], ""type"": ""Point""}","49.2841655, -123.1119735",49.2841655,-123.1119735
Van Dusen Botanical Garden,http://vandusengarden.org/,Museum/Gallery,Garden/Aquarium/Science Centre,"5251 Oak St, Vancouver, BC, V6M 4H1",Shaughnessy,City of Vancouver,"{""coordinates"": [-123.128627, 49.238472], ""type"": ""Point""}","49.238472, -123.128627",49.238472,-123.128627
Vancity Theatre,http://www.viff.org/theatre/facility-info,Theatre/Performance,Cinema,"1181 Seymour St, Vancouver, BC, V6B 3M7",Downtown,Privately Owned,"{""coordinates"": [-123.124732, 49.276974], ""type"": ""Point""}","49.276974, -123.124732",49.276974,-123.124732
Vancouver Community Laboratory,http://vancommunitylab.com/,Studio/Rehearsal,Workshop,"1907 Triumph St, Vancouver, BC, V5L 1K6",Grandview-Woodland,,"{""coordinates"": [-123.0652956, 49.2841727], ""type"": ""Point""}","49.2841727, -123.0652956",49.2841727,-123.0652956
Writers' Exchange,,Studio/Rehearsal,Workshop,"881 E Hastings St, Vancouver, BC, V6A 1R8",Strathcona,Privately Owned,"{""coordinates"": [-123.0853822, 49.2811097], ""type"": ""Point""}","49.2811097, -123.0853822",49.2811097,-123.0853822
Creekside Park,,Community Space,Plaza/Park/Band Shell,"1455 Quebec St, Vancouver, BC, V6A 3Z7",Downtown,City of Vancouver,"{""coordinates"": [-123.10319, 49.274159], ""type"": ""Point""}","49.274159, -123.10319",49.274159,-123.10319
Douglas Reynolds Gallery,www.douglasreynoldsgallery.com,Museum/Gallery,Museum/Gallery,"2335 Granville St, Vancouver, BC, V6H 3G4",Fairview,Privately Owned,"{""coordinates"": [-123.1385998, 49.2648423], ""type"": ""Point""}","49.2648423, -123.1385998",49.2648423,-123.1385998
Gallery Jones,www.galleryjones.com?,Museum/Gallery,Museum/Gallery,"1725 W 3rd Av, Vancouver, BC, V6J 1K7",Fairview,Privately Owned,"{""coordinates"": [-123.1438197, 49.2689012], ""type"": ""Point""}","49.2689012, -123.1438197",49.2689012,-123.1438197
Hastings Mill Store Museum,www.hastings-mill-museum.ca?,Museum/Gallery,Museum/Gallery,"1575 Alma St, Vancouver, BC, V6R 3P3",West Point Grey,City of Vancouver,"{""coordinates"": [-123.185988, 49.272817], ""type"": ""Point""}","49.272817, -123.185988",49.272817,-123.185988
Vancouver Police Museum,www.vancouverpolicemuseum.ca?,Museum/Gallery,Museum/Gallery,"240 E Cordova St, Vancouver, BC, V6A 1L3",Strathcona,City of Vancouver,"{""coordinates"": [-123.0987999, 49.282247], ""type"": ""Point""}","49.282247, -123.0987999",49.282247,-123.0987999
Vancouver Public Library,www.vpl.ca,Museum/Gallery,Library/Archives,"350 W Georgia St, Vancouver, BC, V6B 6B1",Downtown,City of Vancouver,"{""coordinates"": [-123.1151119, 49.2804357], ""type"": ""Point""}","49.2804357, -123.1151119",49.2804357,-123.1151119
David Lam Park,,Community Space,Plaza/Park/Band Shell,"1300 Pacific Blvd, Vancouver, BC, V6Z 2V1",Downtown,City of Vancouver,"{""coordinates"": [-123.1241736, 49.2724252], ""type"": ""Point""}","49.2724252, -123.1241736",49.2724252,-123.1241736
Douglas Reynolds Gallery,www.douglasreynoldsgallery.com,Museum/Gallery,Museum/Gallery,"2335 Granville St, Vancouver, BC, V6H 3G4",Fairview,Privately Owned,"{""coordinates"": [-123.1385998, 49.2648423], ""type"": ""Point""}","49.2648423, -123.1385998",49.2648423,-123.1385998
Dynamo Arts Association,www.dynamoarts.tumblr.com?,Museum/Gallery,Museum/Gallery,"30 E 6th Ave, Vancouver, BC, V5T 1J4",Mount Pleasant,Privately Owned,"{""coordinates"": [-123.1040486, 49.2653017], ""type"": ""Point""}","49.2653017, -123.1040486",49.2653017,-123.1040486
Grunt Gallery,www.grunt.ca?,Museum/Gallery,Museum/Gallery,"350 E 2nd Av, Vancouver, BC, V5T 4R8",Mount Pleasant,Non-Profit,"{""coordinates"": [-123.09715, 49.26676], ""type"": ""Point""}","49.26676, -123.09715",49.26676,-123.09715
Il Museo,https://italianculturalcentre.ca/events/museum-art-gallery/,Museum/Gallery,Museum/Gallery,"3075 Slocan St, Vancouver, BC, V5M 3E4",Renfrew-Collingwood,Non-Profit,"{""coordinates"": [-123.049576, 49.256761], ""type"": ""Point""}","49.256761, -123.049576",49.256761,-123.049576
James Tan Gallery,http://www.jamestan.com/home.htm,Museum/Gallery,Museum/Gallery,"437 Columbia St, Vancouver, BC, V6A 2R9",Downtown,Privately Owned,"{""coordinates"": [-123.1023067, 49.2810853], ""type"": ""Point""}","49.2810853, -123.1023067",49.2810853,-123.1023067
Jericho Beach/ Vancouver Folk Music Festival,,Community Space,Plaza/Park/Band Shell,"3941 Point Grey Rd., Vancouver, BC, V6R 1B5",West Point Grey,City of Vancouver,"{""coordinates"": [-123.1912389, 49.2711948], ""type"": ""Point""}","49.2711948, -123.1912389",49.2711948,-123.1912389
Kurbatoff Art Gallery Ltd,http://www.kurbatoffgallery.com/,Museum/Gallery,Museum/Gallery,"2435 Granville St, Vancouver, BC, V6H 3G5",Fairview,Privately Owned,"{""coordinates"": [-123.138751, 49.26421], ""type"": ""Point""}","49.26421, -123.138751",49.26421,-123.138751
Lattimer Gallery,www.lattimergallery.com?,Museum/Gallery,Museum/Gallery,"1590 W 2nd Av, Vancouver, BC, V6J 1H2",Fairview,Privately Owned,"{""coordinates"": [-123.1406592, 49.2696829], ""type"": ""Point""}","49.2696829, -123.1406592",49.2696829,-123.1406592
MakerLabs,www.makerlabs.ca,Studio/Rehearsal,Workshop,"780 E Cordova St, Vancouver, BC, V6A1M3",Strathcona,Privately Owned,"{""coordinates"": [-123.087695, 49.2818014], ""type"": ""Point""}","49.2818014, -123.087695",49.2818014,-123.087695
Petley Jones Gallery,www.petleyjones.com?,Museum/Gallery,Museum/Gallery,"2245 Granville St, Vancouver, BC, V6H 3G1",Downtown,Privately Owned,"{""coordinates"": [-123.1408505, 49.2656002], ""type"": ""Point""}","49.2656002, -123.1408505",49.2656002,-123.1408505
≈°x????n?q Xwtl‚Äôe7√©n? Square,,Community Space,Plaza/Park/Band Shell,"850 W Georgia St, Vancouver, BC, V6Z 2H7",Downtown,City of Vancouver,"{""coordinates"": [-123.119848, 49.283113], ""type"": ""Point""}","49.283113, -123.119848",49.283113,-123.119848
Wall Centre Plaza,,Community Space,Plaza/Park/Band Shell,"1088 Burrard St, Vancouver, BC, V6Z 2R9",Downtown,Privately Owned,"{""coordinates"": [-123.1265368, 49.2801175], ""type"": ""Point""}","49.2801175, -123.1265368",49.2801175,-123.1265368
Writers' Exchange,,Studio/Rehearsal,Workshop,"877 E Hastings St, Vancouver, BC, V6A 3Y1",Strathcona,Privately Owned,"{""coordinates"": [-123.0876377, 49.2812949], ""type"": ""Point""}","49.2812949, -123.0876377",49.2812949,-123.0876377
Ian Tan Gallery,www.iantangallery.com?,Museum/Gallery,Museum/Gallery,"2202 Granville St, Vancouver, BC, V6H 4H7",Fairview,Privately Owned,"{""coordinates"": [-123.1383868, 49.2661646], ""type"": ""Point""}","49.2661646, -123.1383868",49.2661646,-123.1383868
Inuit Gallery of Vancouver,www.inuit.com,Museum/Gallery,Museum/Gallery,"206 Cambie St, Vancouver, BC, V6B 2M9",Downtown,Privately Owned,"{""coordinates"": [-123.1088083, 49.2842455], ""type"": ""Point""}","49.2842455, -123.1088083",49.2842455,-123.1088083
James Black Gallery,http://www.thejamesblack.gallery/,Museum/Gallery,Museum/Gallery,"144 E 6th Av, Vancouver, BC, V5T1J5",Mount Pleasant,Privately Owned,"{""coordinates"": [-123.1019214, 49.2652632], ""type"": ""Point""}","49.2652632, -123.1019214",49.2652632,-123.1019214
Museum of Vancouver,www.museumofvancouver.ca?,Museum/Gallery,Museum/Gallery,"1100 Chestnut St, Vancouver, BC, V6J 3J9",Kitsilano,City of Vancouver,"{""coordinates"": [-123.144897, 49.276365], ""type"": ""Point""}","49.276365, -123.144897",49.276365,-123.144897
New Leaf Editions,www.newleafeditions.com?,Studio/Rehearsal,Workshop,"1370 Cartwright St, Vancouver, BC, V6H 3R7",Fairview,Privately Owned,"{""coordinates"": [-123.134665, 49.269841], ""type"": ""Point""}","49.269841, -123.134665",49.269841,-123.134665
Petley Jones Gallery,www.petleyjones.com?,Museum/Gallery,Museum/Gallery,"554 W 6th Av, Vancouver, BC, V6J 1R2",Mount Pleasant,Privately Owned,"{""coordinates"": [-123.0917358, 49.2652275], ""type"": ""Point""}","49.2652275, -123.0917358",49.2652275,-123.0917358
Tracey Lawrence Gallery,,Museum/Gallery,Museum/Gallery,"1531 W 4th Av, Vancouver, BC, V6J 1L6",Fairview,Privately Owned,"{""coordinates"": [-123.139461, 49.267975], ""type"": ""Point""}","49.267975, -123.139461",49.267975,-123.139461
Unit/Pitt Projects,www.helenpittgallery.org,Museum/Gallery,Museum/Gallery,"236 E Pender St, Vancouver, BC, V6A 1T7",Strathcona,Privately Owned,"{""coordinates"": [-123.098813, 49.280103], ""type"": ""Point""}","49.280103, -123.098813",49.280103,-123.098813
Uno Langmann Limited Fine Arts,www.langmann.com,Museum/Gallery,Museum/Gallery,"2117 Granville St, Vancouver, BC, V6H 3E9",Fairview,Privately Owned,"{""coordinates"": [-123.1388698, 49.2666423], ""type"": ""Point""}","49.2666423, -123.1388698",49.2666423,-123.1388698
Vancouver Art Gallery Offsite,http://www.vanartgallery.bc.ca/the_exhibitions/public_art.html,Museum/Gallery,Museum/Gallery,"1100 W Georgia St, Vancouver, BC, V6E 0A8",West End,City of Vancouver,"{""coordinates"": [-123.124298, 49.286205], ""type"": ""Point""}","49.286205, -123.124298",49.286205,-123.124298
Beaty Biodiversity Museum,http://www.beatymuseum.ubc.ca/about,Museum/Gallery,Museum/Gallery,"2212 Main Mall, Vancouver, BC, V6T 1Z4",,Other,"{""coordinates"": [-123.251485, 49.2634318], ""type"": ""Point""}","49.2634318, -123.251485",49.2634318,-123.251485
Catriona Jeffries Gallery,www.catrionajeffries.com?,Museum/Gallery,Museum/Gallery,"274 E 1st Av, Vancouver, BC, V5T 1A6",Strathcona,Privately Owned,"{""coordinates"": [-123.0980394, 49.2687198], ""type"": ""Point""}","49.2687198, -123.0980394",49.2687198,-123.0980394
Coastal Peoples Fine Arts Gallery Gastown,http://www.coastalpeoples.com,Museum/Gallery,Museum/Gallery,"312 Water St, Vancouver, BC, V6B 1B6",Downtown,Privately Owned,"{""coordinates"": [-123.109198, 49.2843539], ""type"": ""Point""}","49.2843539, -123.109198",49.2843539,-123.109198
Eagle Spirit Gallery,www.eaglespiritgallery.com,Museum/Gallery,Museum/Gallery,"1803 Maritime Mews, Vancouver, BC, V6H 3W7",Fairview,Privately Owned,"{""coordinates"": [-123.136077, 49.2710507], ""type"": ""Point""}","49.2710507, -123.136077",49.2710507,-123.136077
Gallery of BC Ceramics,http://www.bcpotters.com/Gallery/index.php,Museum/Gallery,Museum/Gallery,"1359 Cartwright St, Vancouver, BC, V6H 3R7",Fairview,Non-Profit,"{""coordinates"": [-123.134283, 49.270046], ""type"": ""Point""}","49.270046, -123.134283",49.270046,-123.134283
Hastings Mill Store Museum,www.hastings-mill-museum.ca?,Museum/Gallery,Museum/Gallery,"1575 Alma St, Vancouver, BC, V6R 3P3",West Point Grey,City of Vancouver,"{""coordinates"": [-123.185988, 49.272817], ""type"": ""Point""}","49.272817, -123.185988",49.272817,-123.185988
Havana Gallery,www.havanarestaurant.ca,Museum/Gallery,Museum/Gallery,"1212 Commercial Dr, Vancouver, BC, V5L 3X4",Grandview-Woodland,Privately Owned,"{""coordinates"": [-123.069421, 49.273662], ""type"": ""Point""}","49.273662, -123.069421",49.273662,-123.069421
Jericho Beach,,Community Space,Plaza/Park/Band Shell,"3941 Point Grey Rd., Vancouver, BC, V6R 1B5",West Point Grey,City of Vancouver,"{""coordinates"": [-123.1912389, 49.2711948], ""type"": ""Point""}","49.2711948, -123.1912389",49.2711948,-123.1912389
Monte Clark Gallery,www.monteclarkgallery.com,Museum/Gallery,Museum/Gallery,"525 Great Northern Way, Vancouver, BC, V5T 1E1",Strathcona,Privately Owned,"{""coordinates"": [-123.0921743, 49.26761], ""type"": ""Point""}","49.26761, -123.0921743",49.26761,-123.0921743
Museum of Vancouver,www.museumofvancouver.ca?,Museum/Gallery,Museum/Gallery,"1100 Chestnut St, Vancouver, BC, V6J 3J9",Kitsilano,City of Vancouver,"{""coordinates"": [-123.144897, 49.276365], ""type"": ""Point""}","49.276365, -123.144897",49.276365,-123.144897
On Main,www.onmaingallery.com?,Museum/Gallery,Museum/Gallery,"200 E 20th Av, Vancouver, BC, V5V 1M1",Riley Park,Privately Owned,"{""coordinates"": [-123.10056, 49.252773], ""type"": ""Point""}","49.252773, -123.10056",49.252773,-123.10056
Petley Jones Gallery,www.petleyjones.com?,Museum/Gallery,Museum/Gallery,"554 W 6th Av, Vancouver, BC, V6J 1R2",Mount Pleasant,Privately Owned,"{""coordinates"": [-123.0917358, 49.2652275], ""type"": ""Point""}","49.2652275, -123.0917358",49.2652275,-123.0917358
Secret Lantern Society,,Studio/Rehearsal,Workshop,"328 -B Industrial Av, Vancouver, BC,",Strathcona,Privately Owned,"{""coordinates"": [-123.0965625, 49.2695868], ""type"": ""Point""}","49.2695868, -123.0965625",49.2695868,-123.0965625
Spirit Wrestler Gallery,www.spiritwrestler.com,Museum/Gallery,Museum/Gallery,"47 Water St, Vancouver, BC, V6B 1A1",Downtown,Privately Owned,"{""coordinates"": [-123.105348, 49.2837331], ""type"": ""Point""}","49.2837331, -123.105348",49.2837331,-123.105348
Writers' Exchange,,Studio/Rehearsal,Workshop,"881 E Hastings St, Vancouver, BC, V6A 1R8",Strathcona,Privately Owned,"{""coordinates"": [-123.0853822, 49.2811097], ""type"": ""Point""}","49.2811097, -123.0853822",49.2811097,-123.0853822
Art Beatus,www.artbeatus.com,Museum/Gallery,Museum/Gallery,"808 Nelson St, Vancouver, BC, V6Z 2H2",Downtown,Privately Owned,"{""coordinates"": [-123.1249139, 49.2800409], ""type"": ""Point""}","49.2800409, -123.1249139",49.2800409,-123.1249139
Science World At Telus World Of Science,www.scienceworld.ca?,Museum/Gallery,Garden/Aquarium/Science Centre,"1455 Quebec St, Vancouver, BC, V6A 3Z7",Downtown,Government,"{""coordinates"": [-123.103652, 49.273743], ""type"": ""Point""}","49.273743, -123.103652",49.273743,-123.103652
Art Works Gallery,http://artworksbc.com/,Museum/Gallery,Museum/Gallery,"1536 Venables St, Vancouver, BC, V5L 2G9",Strathcona,Privately Owned,"{""coordinates"": [-123.0729141, 49.2765155], ""type"": ""Point""}","49.2765155, -123.0729141",49.2765155,-123.0729141
Audain Gallery,https://www.sfu.ca/galleries/audain-gallery.html,Museum/Gallery,Museum/Gallery,"149 W Hastings St, Vancouver, BC, V6B 1H4",Downtown,Other,"{""coordinates"": [-123.108715, 49.282395], ""type"": ""Point""}","49.282395, -123.108715",49.282395,-123.108715
Bloedel Conservatory,http://vancouver.ca/parks-recreation-culture/bloedel-conservatory.aspx,Museum/Gallery,Garden/Aquarium/Science Centre,"4600 Cambie St, Vancouver, BC, V5Y 2M5",Riley Park,Vancouver Park Board/COV,"{""coordinates"": [-123.113759, 49.242077], ""type"": ""Point""}","49.242077, -123.113759",49.242077,-123.113759
Canadian Music Centre (BC Region)/ Vancouver New Music Society,https://musiccentrebc.ca/,Museum/Gallery,Library/Archives,"837 Davie St, Vancouver, BC, V6Z 1B7",Downtown,Privately Owned,"{""coordinates"": [-123.1275105, 49.2780437], ""type"": ""Point""}","49.2780437, -123.1275105",49.2780437,-123.1275105
Circle Craft Co-Operative Shop & Gallery,www.circlecraft.net/,Museum/Gallery,Museum/Gallery,"1-1666 Johnston St, Vancouver, BC, V6H 3S2",Fairview,Government,"{""coordinates"": [-123.135541, 49.272369], ""type"": ""Point""}","49.272369, -123.135541",49.272369,-123.135541
Craft Council of British Columbia Gallery,www.craftcouncilbc.ca,Museum/Gallery,Museum/Gallery,"1386 Cartwright St, Vancouver, BC, V6H 3R8",Fairview,Government,"{""coordinates"": [-123.13479, 49.269837], ""type"": ""Point""}","49.269837, -123.13479",49.269837,-123.13479
Eagle Spirit Gallery,www.eaglespiritgallery.com,Museum/Gallery,Museum/Gallery,"1803 Maritime Mews, Vancouver, BC, V6H 3W7",Fairview,Privately Owned,"{""coordinates"": [-123.136077, 49.2710507], ""type"": ""Point""}","49.2710507, -123.136077",49.2710507,-123.136077
Emily Carr Institute of Art + Design 1612 Gallery,,Museum/Gallery,Museum/Gallery,"1612 W 3rd Av, Vancouver, BC, V6J 1K2",Fairview,Government,"{""coordinates"": [-123.1411548, 49.2688004], ""type"": ""Point""}","49.2688004, -123.1411548",49.2688004,-123.1411548
Jericho Beach,,Community Space,Plaza/Park/Band Shell,"3941 Point Grey Rd., Vancouver, BC, V6R 1B5",West Point Grey,City of Vancouver,"{""coordinates"": [-123.1912389, 49.2711948], ""type"": ""Point""}","49.2711948, -123.1912389",49.2711948,-123.1912389
South Main Gallery,https://www.facebook.com/southmaingallery/,Museum/Gallery,Museum/Gallery,"279 E 6th Av, Vancouver, BC, V5T 1J7",Mount Pleasant,Privately Owned,"{""coordinates"": [-123.1113877, 49.2666989], ""type"": ""Point""}","49.2666989, -123.1113877",49.2666989,-123.1113877
≈°x???ex?n Xwtl‚Äôa7shn at Queen Elizabeth Theatre,,Community Space,Plaza/Park/Band Shell,"650 Hamilton St, Vancouver, BC, V6B 5N6",Downtown,City of Vancouver,"{""coordinates"": [-123.113393, 49.27994], ""type"": ""Point""}","49.27994, -123.113393",49.27994,-123.113393
Douglas Reynolds Gallery,www.douglasreynoldsgallery.com,Museum/Gallery,Museum/Gallery,"2335 Granville St, Vancouver, BC, V6H 3G4",Fairview,Privately Owned,"{""coordinates"": [-123.1385998, 49.2648423], ""type"": ""Point""}","49.2648423, -123.1385998",49.2648423,-123.1385998
Gallery Jones,www.galleryjones.com?,Museum/Gallery,Museum/Gallery,"1725 W 3rd Av, Vancouver, BC, V6J 1K7",Fairview,Privately Owned,"{""coordinates"": [-123.1438197, 49.2689012], ""type"": ""Point""}","49.2689012, -123.1438197",49.2689012,-123.1438197
UBC Museum of Anthropology,http://moa.ubc.ca/,Museum/Gallery,Museum/Gallery,"6393 NW Marine Dr, Vancouver, BC, V6T 1Z2",UBC,Other,"{""coordinates"": [-123.259174, 49.26907], ""type"": ""Point""}","49.26907, -123.259174",49.26907,-123.259174
15th Field Artillery Regiment Museum and Archives,www.memorybc.ca/museum-of-15th-field-artillery-regiment,Museum/Gallery,Museum/Gallery,"2025 W 11th Av, Vancouver, BC, V6J 2C7",Kitsilano,Privately Owned,"{""coordinates"": [-123.151123, 49.261938], ""type"": ""Point""}","49.261938, -123.151123",49.261938,-123.151123
Alliance for Arts and Culture,http://www.allianceforarts.com,Museum/Gallery,Library/Archives,"938 Howe St, Vancouver, BC, V6Z 1N9",Downtown,Privately Owned,"{""coordinates"": [-123.1228359, 49.2803099], ""type"": ""Point""}","49.2803099, -123.1228359",49.2803099,-123.1228359
Art Emporium,http://www.theartemporium.ca,Museum/Gallery,Museum/Gallery,"2928 Granville St, Vancouver, BC, V6H 3J7",Fairview,Privately Owned,"{""coordinates"": [-123.1383072, 49.2593906], ""type"": ""Point""}","49.2593906, -123.1383072",49.2593906,-123.1383072
Ayden Gallery,www.aydengallery.com?,Museum/Gallery,Museum/Gallery,"88 W Pender St, Vancouver, BC, V6B 6N9",Downtown,Privately Owned,"{""coordinates"": [-123.1071802, 49.2809655], ""type"": ""Point""}","49.2809655, -123.1071802",49.2809655,-123.1071802
Chali-Rosso Gallery,www.chalirosso.com,Museum/Gallery,Museum/Gallery,"2250 Granville St, Vancouver, BC, V6H 4H7",Fairview,Privately Owned,"{""coordinates"": [-123.1384021, 49.2657529], ""type"": ""Point""}","49.2657529, -123.1384021",49.2657529,-123.1384021
Hot Art Wet City,http://hotartwetcity.com/,Museum/Gallery,Museum/Gallery,"2206 Main St, Vancouver, BC, V5T 3C7",Mount Pleasant,Privately Owned,"{""coordinates"": [-123.1007282, 49.2653981], ""type"": ""Point""}","49.2653981, -123.1007282",49.2653981,-123.1007282
BMO Theatre Centre - Workshop,,Studio/Rehearsal,Workshop,"162 W 1st Av, Vancouver, BC, V5Y 1A4",Mount Pleasant,City of Vancouver,"{""coordinates"": [-123.108535, 49.2702275], ""type"": ""Point""}","49.2702275, -123.108535",49.2702275,-123.108535
Chinese Cultural Centre Museum and Archives,,Museum/Gallery,Museum/Gallery,"555 Columbia St, Vancouver, BC, V6A 4H5",Downtown,City of Vancouver,"{""coordinates"": [-123.102448, 49.279894], ""type"": ""Point""}","49.279894, -123.102448",49.279894,-123.102448
Stanley Park Nature House,http://stanleyparkecology.ca/education/nature-house/,Museum/Gallery,Museum/Gallery,"Stanley Park, Vancouver, BC",Stanley Park,Vancouver Park Board/COV,"{""coordinates"": [-123.137914, 49.294408], ""type"": ""Point""}","49.294408, -123.137914",49.294408,-123.137914
Trench Gallery,www.trenchgallery.com,Museum/Gallery,Museum/Gallery,"148 Alexander St, Vancouver, BC, V6A 1B5",Downtown,Privately Owned,"{""coordinates"": [-123.1010921, 49.2839469], ""type"": ""Point""}","49.2839469, -123.1010921",49.2839469,-123.1010921
Wil Aballe Art Projects,http://www.waapart.com/,Museum/Gallery,Museum/Gallery,"688 E Hastings St, Vancouver, BC, V6A 1R1",Strathcona,Privately Owned,"{""coordinates"": [-123.0757838, 49.2794145], ""type"": ""Point""}","49.2794145, -123.0757838",49.2794145,-123.0757838
Audain Gallery,https://www.sfu.ca/galleries/audain-gallery.html,Museum/Gallery,Museum/Gallery,"149 W Hastings St, Vancouver, BC, V6B 1H4",Downtown,Other,"{""coordinates"": [-123.108715, 49.282395], ""type"": ""Point""}","49.282395, -123.108715",49.282395,-123.108715
Contemporary Art Gallery,www.contemporaryartgallery.ca?,Museum/Gallery,Museum/Gallery,"555 Nelson St, Vancouver, BC, V6B 6R5",Downtown,Privately Owned,"{""coordinates"": [-123.121183, 49.278238], ""type"": ""Point""}","49.278238, -123.121183",49.278238,-123.121183
Doctor Vigari Gallery,www.doctorvigarigallery.com,Museum/Gallery,Museum/Gallery,"1816 Commercial Dr, Vancouver, BC, V5N 4A3",Grandview-Woodland,Privately Owned,"{""coordinates"": [-123.0692806, 49.2683622], ""type"": ""Point""}","49.2683622, -123.0692806",49.2683622,-123.0692806
Hatch Art Gallery,http://www.ams.ubc.ca/nest/arts-and-attractions/art-gallery/,Museum/Gallery,Museum/Gallery,"6133 University Blvd, Vancouver, BC, V6T 1Z1",UBC,Non-Profit,"{""coordinates"": [-123.249913, 49.266025], ""type"": ""Point""}","49.266025, -123.249913",49.266025,-123.249913
Jennifer Kostuik Gallery,www.kostuikgallery.com?,Museum/Gallery,Museum/Gallery,"1070 Homer St, Vancouver, BC, V6B 2W9",Downtown,Privately Owned,"{""coordinates"": [-123.1211143, 49.2766268], ""type"": ""Point""}","49.2766268, -123.1211143",49.2766268,-123.1211143
Rennie Collection at Wing Sang,,Museum/Gallery,Museum/Gallery,"51 E Pender St, Vancouver, BC, V6A 1S9",Downtown,Privately Owned,"{""coordinates"": [-123.1031317, 49.2806995], ""type"": ""Point""}","49.2806995, -123.1031317",49.2806995,-123.1031317
Satellite Gallery,www.satellitegallery.ca,Museum/Gallery,Museum/Gallery,"560 Seymour St, Vancouver, BC, V6B 3J5",Downtown,Privately Owned,"{""coordinates"": [-123.114585, 49.283183], ""type"": ""Point""}","49.283183, -123.114585",49.283183,-123.114585
Unit/Pitt Projects,www.helenpittgallery.org,Museum/Gallery,Museum/Gallery,"236 E Pender St, Vancouver, BC, V6A 1T7",Strathcona,Privately Owned,"{""coordinates"": [-123.098813, 49.280103], ""type"": ""Point""}","49.280103, -123.098813",49.280103,-123.098813
Western Front - Gallery,www.front.bc.ca?,Museum/Gallery,Museum/Gallery,"303 E 8th Av, Vancouver, BC, V5T 1S1",Mount Pleasant,Privately Owned,"{""coordinates"": [-123.098654, 49.263916], ""type"": ""Point""}","49.263916, -123.098654",49.263916,-123.098654
Ceperley Meadow,,Community Space,Plaza/Park/Band Shell,"Stanley Park, Vancouver, BC",Stanley Park,City of Vancouver,"{""coordinates"": [-123.148518, 49.293772], ""type"": ""Point""}","49.293772, -123.148518",49.293772,-123.148518
Coastal Peoples Fine Arts Gallery Gastown,http://www.coastalpeoples.com,Museum/Gallery,Museum/Gallery,"312 Water St, Vancouver, BC, V6B 1B6",Downtown,Privately Owned,"{""coordinates"": [-123.109198, 49.2843539], ""type"": ""Point""}","49.2843539, -123.109198",49.2843539,-123.109198
Djavad Mowafaghian Cinema,http://www.sfu.ca/mecs/facilities/goldcorp-centre-for-the-arts/meeting-rooms/djavadmowafaghian.html,Theatre/Performance,Cinema,"149 W Hastings St, Vancouver, BC, V6B 1H4",Downtown,Other,"{""coordinates"": [-123.108528, 49.282364], ""type"": ""Point""}","49.282364, -123.108528",49.282364,-123.108528
FIELD Contemporary,www.field-contemporary.com,Museum/Gallery,Museum/Gallery,"17 W Broadway, Vancouver, BC, V5Y 1P1",Mount Pleasant,Privately Owned,"{""coordinates"": [-123.1058083, 49.2630895], ""type"": ""Point""}","49.2630895, -123.1058083",49.2630895,-123.1058083
Gam Gallery,http://gamgallery.com/contact/,Museum/Gallery,Museum/Gallery,"110 E Hastings St, Vancouver, BC, V6N 1N4",Downtown,Privately Owned,"{""coordinates"": [-123.101858, 49.2813343], ""type"": ""Point""}","49.2813343, -123.101858",49.2813343,-123.101858
Harrison Galleries,www.harrisongalleries.com,Museum/Gallery,Museum/Gallery,"901 Homer St, Vancouver, BC, V6B 2W6",Downtown,Privately Owned,"{""coordinates"": [-123.1184779, 49.2784569], ""type"": ""Point""}","49.2784569, -123.1184779",49.2784569,-123.1184779
James Tan Gallery,http://www.jamestan.com/home.htm,Museum/Gallery,Museum/Gallery,"437 Columbia St, Vancouver, BC, V6A 2R9",Downtown,Privately Owned,"{""coordinates"": [-123.1023067, 49.2810853], ""type"": ""Point""}","49.2810853, -123.1023067",49.2810853,-123.1023067
Labyrinth Gallery,http://labyrinthgallery.org/,Museum/Gallery,Museum/Gallery,"112 E Hastings St, Vancouver, BC, V6A 4J1",Downtown,Privately Owned,"{""coordinates"": [-123.1017894, 49.2810651], ""type"": ""Point""}","49.2810651, -123.1017894",49.2810651,-123.1017894
Lattimer Gallery,www.lattimergallery.com?,Museum/Gallery,Museum/Gallery,"1590 W 2nd Av, Vancouver, BC, V6J 1H2",Fairview,Privately Owned,"{""coordinates"": [-123.1406592, 49.2696829], ""type"": ""Point""}","49.2696829, -123.1406592",49.2696829,-123.1406592
Lumbermen's Arch,,Community Space,Plaza/Park/Band Shell,"Stanley Park, Vancouver, BC",Stanley Park,City of Vancouver,"{""coordinates"": [-123.131707, 49.302981], ""type"": ""Point""}","49.302981, -123.131707",49.302981,-123.131707
Oppenheimer Park,,Community Space,Plaza/Park/Band Shell,"Vancouver, BC",Strathcona,Vancouver Park Board/COV,"{""coordinates"": [-123.094341, 49.282643], ""type"": ""Point""}","49.282643, -123.094341",49.282643,-123.094341
Stanley Park Nature House,http://stanleyparkecology.ca/education/nature-house/,Museum/Gallery,Museum/Gallery,"Stanley Park, Vancouver, BC",Stanley Park,Vancouver Park Board/COV,"{""coordinates"": [-123.137914, 49.294408], ""type"": ""Point""}","49.294408, -123.137914",49.294408,-123.137914
Vancouver Public Library,www.vpl.ca,Museum/Gallery,Library/Archives,"350 W Georgia St, Vancouver, BC, V6B 6B1",Downtown,City of Vancouver,"{""coordinates"": [-123.1151119, 49.2804357], ""type"": ""Point""}","49.2804357, -123.1151119",49.2804357,-123.1151119
Wil Aballe Art Projects,http://www.waapart.com/,Museum/Gallery,Museum/Gallery,"1356 Frances St, Vancouver, BC, V5L 1Y9",Grandview-Woodland,Privately Owned,"{""coordinates"": [-123.0757838, 49.2794145], ""type"": ""Point""}","49.2794145, -123.0757838",49.2794145,-123.0757838
Art Club/Bard On Beach Production Centre Theatre,,Studio/Rehearsal,Workshop,"162 W 1st Av, Vancouver, BC, V5Y 1A4",Mount Pleasant,City of Vancouver,"{""coordinates"": [-123.108535, 49.2702275], ""type"": ""Point""}","49.2702275, -123.108535",49.2702275,-123.108535
"Centre A, Centre For Contemporary Asian Art",http://centrea.org,Museum/Gallery,Museum/Gallery,"229 E Georgia St, Vancouver, BC, V6A 1Z6",Strathcona,Privately Owned,"{""coordinates"": [-123.098671, 49.278676], ""type"": ""Point""}","49.278676, -123.098671",49.278676,-123.098671
Ceperley Meadow,,Community Space,Plaza/Park/Band Shell,", Vancouver, BC,",,City of Vancouver,"{""coordinates"": [-123.148518, 49.293772], ""type"": ""Point""}","49.293772, -123.148518",49.293772,-123.148518
Charles H. Scott Gallery,www.chscott.ecuad.ca?,Museum/Gallery,Museum/Gallery,"1399 Johnston St, Vancouver, BC, V6H 2R9",Fairview,Government,"{""coordinates"": [-123.132876, 49.270485], ""type"": ""Point""}","49.270485, -123.132876",49.270485,-123.132876
Inuit Gallery of Vancouver,www.inuit.com,Museum/Gallery,Museum/Gallery,"206 Cambie St, Vancouver, BC, V6B 2M9",Downtown,Privately Owned,"{""coordinates"": [-123.1088083, 49.2842455], ""type"": ""Point""}","49.2842455, -123.1088083",49.2842455,-123.1088083
Peter Kiss Gallery,www.peterkiss.com,Museum/Gallery,Museum/Gallery,"1327 Railspur Alley, Vancouver, BC, V6H 4G9",Fairview,Privately Owned,"{""coordinates"": [-123.1337947, 49.2701374], ""type"": ""Point""}","49.2701374, -123.1337947",49.2701374,-123.1337947
Vanier Park,,Community Space,Plaza/Park/Band Shell,"1000 Chestnut St, Vancouver, BC, V6J 3J9",Kitsilano,City of Vancouver,"{""coordinates"": [-123.146124, 49.276777], ""type"": ""Point""}","49.276777, -123.146124",49.276777,-123.146124
Granville Island,,Community Space,Plaza/Park/Band Shell,"1661 Duranleau St, Vancouver, BC, V6H 3S3",Fairview,Government,"{""coordinates"": [-123.134845, 49.269463], ""type"": ""Point""}","49.269463, -123.134845",49.269463,-123.134845
H.R. Macmillan Space Centre and Observatory/Museum of Vancouver,"www.museumofvancouver.ca?,www.spacecentre.cagms",Museum/Gallery,Museum/Gallery,"1100 Chestnut St, Vancouver, BC, V6J 3J9",Kitsilano,City of Vancouver,"{""coordinates"": [-123.144436, 49.276261], ""type"": ""Point""}","49.276261, -123.144436",49.276261,-123.144436
Hastings Mill Store Museum,www.hastings-mill-museum.ca?,Museum/Gallery,Museum/Gallery,"1575 Alma St, Vancouver, BC, V6R 3P3",West Point Grey,City of Vancouver,"{""coordinates"": [-123.185988, 49.272817], ""type"": ""Point""}","49.272817, -123.185988",49.272817,-123.185988
Peter Kiss Gallery,www.peterkiss.com,Museum/Gallery,Museum/Gallery,"1327 Railspur Alley, Vancouver, BC, V6H 4G9",Fairview,Privately Owned,"{""coordinates"": [-123.1337947, 49.2701374], ""type"": ""Point""}","49.2701374, -123.1337947",49.2701374,-123.1337947
Z Gallery Arts,https://zgalleryarts.com/,Museum/Gallery,Museum/Gallery,"102-1688 W 1st Av, Vancouver, BC, V6J 1G1",Kitsilano,Privately Owned,"{""coordinates"": [-123.142708, 49.270579], ""type"": ""Point""}","49.270579, -123.142708",49.270579,-123.142708
15th Field Artillery Regiment Museum and Archives,www.memorybc.ca/museum-of-15th-field-artillery-regiment,Museum/Gallery,Museum/Gallery,"2025 W 11th Av, Vancouver, BC, V6J 2C7",Kitsilano,Privately Owned,"{""coordinates"": [-123.151123, 49.261938], ""type"": ""Point""}","49.261938, -123.151123",49.261938,-123.151123
Architectural Institute of BC Gallery,www.aibc.ca,Museum/Gallery,Museum/Gallery,"440 Cambie St, Vancouver, BC, V6B 2N5",Downtown,Non-Profit,"{""coordinates"": [-123.1095005, 49.2817199], ""type"": ""Point""}","49.2817199, -123.1095005",49.2817199,-123.1095005
Art Works Gallery,http://artworksbc.com/,Museum/Gallery,Museum/Gallery,"225 Smithe St, Vancouver, BC, V6B 4X7",Downtown,Privately Owned,"{""coordinates"": [-123.1165781, 49.2775077], ""type"": ""Point""}","49.2775077, -123.1165781",49.2775077,-123.1165781
Canadian Music Centre (BC Region),http://www.musiccentre.ca/regions/british-columbia?field_event_region_value_many_to_one=3,Museum/Gallery,Library/Archives,"837 Davie St, Vancouver, BC, V6Z 1B7",Downtown,Privately Owned,"{""coordinates"": [-123.127484, 49.278055], ""type"": ""Point""}","49.278055, -123.127484",49.278055,-123.127484
Elissa Cristall Galleries,http://cristallgallery.com,Museum/Gallery,Museum/Gallery,"2239 Granville St, Vancouver, BC, V6H 3G1",Fairview,Privately Owned,"{""coordinates"": [-123.1385822, 49.2655257], ""type"": ""Point""}","49.2655257, -123.1385822",49.2655257,-123.1385822
Gallery of BC Ceramics,http://www.bcpotters.com/Gallery/index.php,Museum/Gallery,Museum/Gallery,"1359 Cartwright St, Vancouver, BC, V6H 3R7",Fairview,Non-Profit,"{""coordinates"": [-123.134283, 49.270046], ""type"": ""Point""}","49.270046, -123.134283",49.270046,-123.134283
H.R. Macmillan Space Centre,http://www.spacecentre.ca/,Museum/Gallery,Garden/Aquarium/Science Centre,"1100 Chestnut St, Vancouver, BC, V6J 3J9",Kitsilano,City of Vancouver,"{""coordinates"": [-123.144299, 49.276361], ""type"": ""Point""}","49.276361, -123.144299",49.276361,-123.144299
Harrison Galleries,www.harrisongalleries.com,Museum/Gallery,Museum/Gallery,"901 Homer St, Vancouver, BC, V6B 2W6",Downtown,Privately Owned,"{""coordinates"": [-123.1184779, 49.2784569], ""type"": ""Point""}","49.2784569, -123.1184779",49.2784569,-123.1184779
Heffel Gallery Ltd,www.heffel.com,Museum/Gallery,Museum/Gallery,"2247 Granville St, Vancouver, BC, V6H 3G1",Fairview,Privately Owned,"{""coordinates"": [-123.1389124, 49.2654685], ""type"": ""Point""}","49.2654685, -123.1389124",49.2654685,-123.1389124
Oppenheimer Park,,Community Space,Plaza/Park/Band Shell,"400 Powell St, Vancouver, BC, V6A 1G6",Strathcona,Vancouver Park Board/COV,"{""coordinates"": [-123.094341, 49.282643], ""type"": ""Point""}","49.282643, -123.094341",49.282643,-123.094341
Or Gallery,www.orgallery.org?,Museum/Gallery,Museum/Gallery,"555 Hamilton St, Vancouver, BC, V6B 2R1",Downtown,Privately Owned,"{""coordinates"": [-123.112094, 49.281406], ""type"": ""Point""}","49.281406, -123.112094",49.281406,-123.112094
Pendulum Gallery,www.pendulumgallery.bc.ca?,Museum/Gallery,Museum/Gallery,"885 W Georgia St, Vancouver, BC, V6C 3E8",Downtown,Privately Owned,"{""coordinates"": [-123.119963, 49.283709], ""type"": ""Point""}","49.283709, -123.119963",49.283709,-123.119963
Vancouver Art Gallery Offsite,http://www.vanartgallery.bc.ca/the_exhibitions/public_art.html,Museum/Gallery,Museum/Gallery,"1100 W Georgia St, Vancouver, BC, V6E 0A8",West End,City of Vancouver,"{""coordinates"": [-123.124298, 49.286205], ""type"": ""Point""}","49.286205, -123.124298",49.286205,-123.124298
Vancouver Maritime Museum,www.vancouvermaritimemuseum.com,Museum/Gallery,Museum/Gallery,"1905 Ogden Av, Vancouver, BC, V6J 1A3",Kitsilano,City of Vancouver,"{""coordinates"": [-123.147587, 49.277465], ""type"": ""Point""}","49.277465, -123.147587",49.277465,-123.147587
Winsor Gallery,www.winsorgallery.com,Museum/Gallery,Museum/Gallery,"258 E 1st Ave, Vancouver, BC, V5T 1A6",Strathcona,Privately Owned,"{""coordinates"": [-123.0984496, 49.2689553], ""type"": ""Point""}","49.2689553, -123.0984496",49.2689553,-123.0984496
Back Gallery Project,http://www.backgalleryproject.com/,Museum/Gallery,Museum/Gallery,"602 E Hastings St, Vancouver, BC, V6A 1R1",Strathcona,Privately Owned,"{""coordinates"": [-123.0913998, 49.2811369], ""type"": ""Point""}","49.2811369, -123.0913998",49.2811369,-123.0913998
Bloedel Conservatory,http://vancouver.ca/parks-recreation-culture/bloedel-conservatory.aspx,Museum/Gallery,Garden/Aquarium/Science Centre,"4600 Cambie St, Vancouver, BC, V5Y 2M5",Riley Park,Vancouver Park Board/COV,"{""coordinates"": [-123.113759, 49.242077], ""type"": ""Point""}","49.242077, -123.113759",49.242077,-123.113759
Charles H. Scott Gallery,www.chscott.ecuad.ca?,Museum/Gallery,Museum/Gallery,"1399 Johnston St, Vancouver, BC, V6H 2R9",Fairview,Government,"{""coordinates"": [-123.132876, 49.270485], ""type"": ""Point""}","49.270485, -123.132876",49.270485,-123.132876
Granville Island Gallery,www.granvilleislandgallery.com?,Museum/Gallery,Museum/Gallery,"1494 Old Bridge St, Vancouver, BC, V6H 3S6",Fairview,Government,"{""coordinates"": [-123.134769, 49.270213], ""type"": ""Point""}","49.270213, -123.134769",49.270213,-123.134769
Haywood Bandstand,,Community Space,Plaza/Park/Band Shell,"1755 Beach Av, Vancouver, BC,",West End,Vancouver Park Board/COV,"{""coordinates"": [-123.141944, 49.285278], ""type"": ""Point""}","49.285278, -123.141944",49.285278,-123.141944
Heffel Gallery Ltd,www.heffel.com,Museum/Gallery,Museum/Gallery,"2247 Granville St, Vancouver, BC, V6H 3G1",Fairview,Privately Owned,"{""coordinates"": [-123.1389124, 49.2654685], ""type"": ""Point""}","49.2654685, -123.1389124",49.2654685,-123.1389124
New Leaf Editions,www.newleafeditions.com?,Studio/Rehearsal,Workshop,"1370 Cartwright St, Vancouver, BC, V6H 3R7",Fairview,Privately Owned,"{""coordinates"": [-123.134665, 49.269841], ""type"": ""Point""}","49.269841, -123.134665",49.269841,-123.134665
On Main Gallery,www.onmaingallery.com?,Museum/Gallery,Museum/Gallery,"200 E 20th Av, Vancouver, BC, V5V 1M1",Riley Park,Privately Owned,"{""coordinates"": [-123.10056, 49.252773], ""type"": ""Point""}","49.252773, -123.10056",49.252773,-123.10056
Pacific Cinematheque,http://www.thecinematheque.caabout,Theatre/Performance,Cinema,"1131 Howe St, Vancouver, BC, V6Z 2L7",Downtown,City of Vancouver,"{""coordinates"": [-123.12627, 49.278552], ""type"": ""Point""}","49.278552, -123.12627",49.278552,-123.12627
Plaza of Nations,www.plazaofnations.com?,Community Space,Plaza/Park/Band Shell,"750 Pacific Blvd, Vancouver, BC, V6B 5E7",Downtown,Privately Owned,"{""coordinates"": [-123.110068, 49.276031], ""type"": ""Point""}","49.276031, -123.110068",49.276031,-123.110068
Vancouver Maritime Museum,www.vancouvermaritimemuseum.com,Museum/Gallery,Museum/Gallery,"1905 Ogden Av, Vancouver, BC, V6J 1A3",Kitsilano,City of Vancouver,"{""coordinates"": [-123.147587, 49.277465], ""type"": ""Point""}","49.277465, -123.147587",49.277465,-123.147587
Vancouver Public Library,www.vpl.ca,Museum/Gallery,Library/Archives,"350 W Georgia St, Vancouver, BC, V6B 6B1",Downtown,City of Vancouver,"{""coordinates"": [-123.1151119, 49.2804357], ""type"": ""Point""}","49.2804357, -123.1151119",49.2804357,-123.1151119
Vanier Park,,Community Space,Plaza/Park/Band Shell,"1000 Chestnut St, Vancouver, BC, V6J 3J9",Kitsilano,City of Vancouver,"{""coordinates"": [-123.146124, 49.276777], ""type"": ""Point""}","49.276777, -123.146124",49.276777,-123.146124
AHVA Gallery,http://gallery.ahva.ubc.ca/about/,Museum/Gallery,Museum/Gallery,"6398 University Blvd, Vancouver, BC,",UBC,Other,"{""coordinates"": [-123.2549451, 49.2639124], ""type"": ""Point""}","49.2639124, -123.2549451",49.2639124,-123.2549451
Bill Reid Gallery,www.billreidgallery.ca,Museum/Gallery,Museum/Gallery,"639 Hornby St, Vancouver, BC, V6C 2G3",Downtown,Privately Owned,"{""coordinates"": [-123.119819, 49.284308], ""type"": ""Point""}","49.284308, -123.119819",49.284308,-123.119819
BMO Theatre Centre - Workshop,,Studio/Rehearsal,Workshop,"162 W 1st Av, Vancouver, BC, V5Y 1A4",Mount Pleasant,City of Vancouver,"{""coordinates"": [-123.108535, 49.2702275], ""type"": ""Point""}","49.2702275, -123.108535",49.2702275,-123.108535
Crafthouse Gallery,www.craftcouncilbc.ca,Museum/Gallery,Museum/Gallery,"1386 Cartwright St, Vancouver, BC, V6H 3R8",Fairview,Government,"{""coordinates"": [-123.13479, 49.269837], ""type"": ""Point""}","49.269837, -123.13479",49.269837,-123.13479
David Lam Park,,Community Space,Plaza/Park/Band Shell,"1300 Pacific Blvd, Vancouver, BC, V6Z 2V1",Downtown,City of Vancouver,"{""coordinates"": [-123.1241736, 49.2724252], ""type"": ""Point""}","49.2724252, -123.1241736",49.2724252,-123.1241736
Douglas Udell Gallery,www.douglasudellgallery.com?,Museum/Gallery,Museum/Gallery,"1558 W 6th Av, Vancouver, BC, V6J 1R2",Fairview,Privately Owned,"{""coordinates"": [-123.1399725, 49.2661804], ""type"": ""Point""}","49.2661804, -123.1399725",49.2661804,-123.1399725
Dundarave Print Workshop & Gallery,www.dundaraveprintworkshop.com,Museum/Gallery,Museum/Gallery,"1640 Johnston St, Vancouver, BC, V6H 3S2",Fairview,Privately Owned,"{""coordinates"": [-123.1353489, 49.2721848], ""type"": ""Point""}","49.2721848, -123.1353489",49.2721848,-123.1353489
Eagle Spirit Gallery,www.eaglespiritgallery.com,Museum/Gallery,Museum/Gallery,"1803 Maritime Mews, Vancouver, BC, V6H 3W7",Fairview,Privately Owned,"{""coordinates"": [-123.136077, 49.2710507], ""type"": ""Point""}","49.2710507, -123.136077",49.2710507,-123.136077
GMS Observatory,http://www.spacecentre.ca/gms,Museum/Gallery,Garden/Aquarium/Science Centre,"1100 Chestnut St, Vancouver, BC, V6J 3J9",Kitsilano,City of Vancouver,"{""coordinates"": [-123.144436, 49.276261], ""type"": ""Point""}","49.276261, -123.144436",49.276261,-123.144436
Great Northern Way Scene Shop,www.gnwshop.ca?,Studio/Rehearsal,Workshop,"281 Industrial, Vancouver, BC, V5A 2P2",Strathcona,City of Vancouver,"{""coordinates"": [-123.098432, 49.270087], ""type"": ""Point""}","49.270087, -123.098432",49.270087,-123.098432
Jennifer Kostuik Gallery,www.kostuikgallery.com?,Museum/Gallery,Museum/Gallery,"1070 Homer St, Vancouver, BC, V6B 2W9",Downtown,Privately Owned,"{""coordinates"": [-123.1211143, 49.2766268], ""type"": ""Point""}","49.2766268, -123.1211143",49.2766268,-123.1211143
MakerLabs,www.makerlabs.ca,Studio/Rehearsal,Workshop,"780 E Cordova St, Vancouver, BC, V6A1M3",Strathcona,Privately Owned,"{""coordinates"": [-123.087695, 49.2818014], ""type"": ""Point""}","49.2818014, -123.087695",49.2818014,-123.087695
Queen Elizabeth Theatre Plaza,,Community Space,Plaza/Park/Band Shell,"650 Hamilton St, Vancouver, BC, V6B 5N6",Downtown,City of Vancouver,"{""coordinates"": [-123.113393, 49.27994], ""type"": ""Point""}","49.27994, -123.113393",49.27994,-123.113393
Vancouver Access Artist Run Centre,www.accessgallery.ca,Museum/Gallery,Museum/Gallery,"222 E Georgia St, Vancouver, BC, V6A 1Z7",Strathcona,Privately Owned,"{""coordinates"": [-123.098757, 49.278453], ""type"": ""Point""}","49.278453, -123.098757",49.278453,-123.098757
Vancouver Holocaust Education Centre,www.vhec.org?,Museum/Gallery,Museum/Gallery,"950 W 41st Av, Vancouver, BC, V5Z 2N7",Oakridge,Privately Owned,"{""coordinates"": [-123.126013, 49.233442], ""type"": ""Point""}","49.233442, -123.126013",49.233442,-123.126013
Winsor Gallery,www.winsorgallery.com,Museum/Gallery,Museum/Gallery,"258 E 1st Ave, Vancouver, BC, V5T 1A6",Strathcona,Privately Owned,"{""coordinates"": [-123.0984496, 49.2689553], ""type"": ""Point""}","49.2689553, -123.0984496",49.2689553,-123.0984496
BC Sports Hall of Fame Museum,www.bcsportshalloffame.com,Museum/Gallery,Museum/Gallery,"777 Pacific Blvd S, Vancouver, BC, V6B 4Y8",Downtown,Government,"{""coordinates"": [-123.110438, 49.27619], ""type"": ""Point""}","49.27619, -123.110438",49.27619,-123.110438
Canadian Music Centre (Bc Region),http://www.musiccentre.ca/regions/british-columbia?field_event_region_value_many_to_one=3,Museum/Gallery,Library/Archives,"837 Davie St, Vancouver, BC, V6Z 1B7",Downtown,Privately Owned,"{""coordinates"": [-123.127484, 49.278055], ""type"": ""Point""}","49.278055, -123.127484",49.278055,-123.127484
Federation Gallery,http://artists.ca/federation_gallery,Museum/Gallery,Museum/Gallery,"1241 Cartwright St, Vancouver, BC, V6H 4B7",Fairview,Privately Owned,"{""coordinates"": [-123.13225, 49.269582], ""type"": ""Point""}","49.269582, -123.13225",49.269582,-123.13225
Granville Island Gallery,www.granvilleislandgallery.com?,Museum/Gallery,Museum/Gallery,"1494 Old Bridge St, Vancouver, BC, V6H 3S6",Fairview,Government,"{""coordinates"": [-123.134769, 49.270213], ""type"": ""Point""}","49.270213, -123.134769",49.270213,-123.134769
H.R. Macmillan Space Centre,http://www.spacecentre.ca/,Museum/Gallery,Garden/Aquarium/Science Centre,"1100 Chestnut St, Vancouver, BC, V6J 3J9",Kitsilano,City of Vancouver,"{""coordinates"": [-123.144299, 49.276361], ""type"": ""Point""}","49.276361, -123.144299",49.276361,-123.144299
Heffel Gallery Ltd,www.heffel.com,Museum/Gallery,Museum/Gallery,"2247 Granville St, Vancouver, BC, V6H 3G1",Fairview,Privately Owned,"{""coordinates"": [-123.1389124, 49.2654685], ""type"": ""Point""}","49.2654685, -123.1389124",49.2654685,-123.1389124
John Hendry Park (Trout Lake),,Community Space,Plaza/Park/Band Shell,"3300 Victoria Dr, Vancouver, BC, V5N 4L9",Kensington-Cedar Cottage,Park Board/COV,"{""coordinates"": [-123.06391, 49.25716], ""type"": ""Point""}","49.25716, -123.06391",49.25716,-123.06391
Lattimer Gallery,www.lattimergallery.com?,Museum/Gallery,Museum/Gallery,"1590 W 2nd Av, Vancouver, BC, V6J 1H2",Fairview,Privately Owned,"{""coordinates"": [-123.1406592, 49.2696829], ""type"": ""Point""}","49.2696829, -123.1406592",49.2696829,-123.1406592
MakerLabs,www.makerlabs.ca,Studio/Rehearsal,Workshop,"221 E 10th Av, Vancouver, BC,",Mount Pleasant,Privately Owned,"{""coordinates"": [-123.0997391, 49.2623075], ""type"": ""Point""}","49.2623075, -123.0997391",49.2623075,-123.0997391
Or Gallery,www.orgallery.org?,Museum/Gallery,Museum/Gallery,"555 Hamilton St, Vancouver, BC, V6B 2R1",Downtown,Privately Owned,"{""coordinates"": [-123.112094, 49.281406], ""type"": ""Point""}","49.281406, -123.112094",49.281406,-123.112094
Pacific Cinematheque,http://www.thecinematheque.caabout,Theatre/Performance,Cinema,"1131 Howe St, Vancouver, BC, V6Z 2L7",Downtown,City of Vancouver,"{""coordinates"": [-123.12627, 49.278552], ""type"": ""Point""}","49.278552, -123.12627",49.278552,-123.12627
Queen Elizabeth Theatre Plaza,,Community Space,Plaza/Park/Band Shell,"650 Hamilton St, Vancouver, BC, V6B 5N6",Downtown,City of Vancouver,"{""coordinates"": [-123.113393, 49.27994], ""type"": ""Point""}","49.27994, -123.113393",49.27994,-123.113393
Roedde House,www.roeddehouse.orgen/home?,Museum/Gallery,Museum/Gallery,"1415 Barclay St, Vancouver, BC, V6G 1J6",West End,City of Vancouver,"{""coordinates"": [-123.132187, 49.286863], ""type"": ""Point""}","49.286863, -123.132187",49.286863,-123.132187
Vag Plaza North,,Community Space,Plaza/Park/Band Shell,", Vancouver, BC,",Downtown,City of Vancouver,"{""coordinates"": [-123.119848, 49.283113], ""type"": ""Point""}","49.283113, -123.119848",49.283113,-123.119848
Vancouver Access Artist Run Centre,www.accessgallery.ca,Museum/Gallery,Museum/Gallery,"222 E Georgia St, Vancouver, BC, V6A 1Z7",Strathcona,Privately Owned,"{""coordinates"": [-123.098757, 49.278453], ""type"": ""Point""}","49.278453, -123.098757",49.278453,-123.098757
Western Front Gallery,www.front.bc.ca?,Museum/Gallery,Museum/Gallery,"303 E 8th Av, Vancouver, BC, V5T 1S1",Mount Pleasant,Privately Owned,"{""coordinates"": [-123.098654, 49.263916], ""type"": ""Point""}","49.263916, -123.098654",49.263916,-123.098654
Beaty Biodiversity Museum,http://www.beatymuseum.ubc.ca/about,Museum/Gallery,Museum/Gallery,"2212 Main Mall, Vancouver, BC, V6T 1Z4",UBC,Other,"{""coordinates"": [-123.251485, 49.2634318], ""type"": ""Point""}","49.2634318, -123.251485",49.2634318,-123.251485
BMO Theatre Centre - Workshop,,Studio/Rehearsal,Workshop,"201-162 W 1st Av, Vancouver, BC, V5Y 1A4",Mount Pleasant,City of Vancouver,"{""coordinates"": [-123.108535, 49.2702275], ""type"": ""Point""}","49.2702275, -123.108535",49.2702275,-123.108535
Canton-Sardine,https://canton-sardine.com/,Museum/Gallery,Museum/Gallery,"71-268 Keefer St, Vancouver, BC, V6A 1X5",Downtown Eastside,Privately Owned,"{""coordinates"": [-123.0979982, 49.2791925], ""type"": ""Point""}","49.2791925, -123.0979982",49.2791925,-123.0979982
Catriona Jeffries Gallery,www.catrionajeffries.com?,Museum/Gallery,Museum/Gallery,"950 E Cordova St, Vancouver, BC, V6A 1M6",Downtown Eastside,Privately Owned,"{""coordinates"": [-123.0980394, 49.2687198], ""type"": ""Point""}","49.2687198, -123.0980394",49.2687198,-123.0980394
Gallery Jones,http://www.galleryjones.com/,Museum/Gallery,Museum/Gallery,"1-258 E 1st Av, Vancouver, BC, V5T 1A6",Strathcona,Privately Owned,"{""coordinates"": [-123.1007254, 49.2689045], ""type"": ""Point""}","49.2689045, -123.1007254",49.2689045,-123.1007254
GMS Observatory,http://www.spacecentre.ca/gms,Museum/Gallery,Garden/Aquarium/Science Centre,"1100 Chestnut St, Vancouver, BC, V6J 3J9",Kitsilano,City of Vancouver,"{""coordinates"": [-123.144436, 49.276261], ""type"": ""Point""}","49.276261, -123.144436",49.276261,-123.144436
Ice Box Gallery,http://www.iceboxgallery.com,Museum/Gallery,Museum/Gallery,"312 Railway St, Vancouver, BC, V6A 1A4",Strathcona,Privately Owned,"{""coordinates"": [-123.097645, 49.2846363], ""type"": ""Point""}","49.2846363, -123.097645",49.2846363,-123.097645
Interurban Gallery,https://www.phs.ca/our-services/interurban-gallery/,Museum/Gallery,Museum/Gallery,"1 E Hastings St, Vancouver, BC, V6A 1M9",Downtown,Privately Owned,"{""coordinates"": [-123.1043161, 49.2815282], ""type"": ""Point""}","49.2815282, -123.1043161",49.2815282,-123.1043161
Larwill Park,https://en.wikipedia.org/wiki/Larwill_Park,Community Space,Plaza/Park/Band Shell,"688 Cambie St, Vancouver, BC, V6B 1T9",Downtown,City of Vancouver,"{""coordinates"": [-123.111836, 49.28042], ""type"": ""Point""}","49.28042, -123.111836",49.28042,-123.111836
Oppenheimer Park,,Community Space,Plaza/Park/Band Shell,"400 Powell St, Vancouver, BC, V6A 1G6",Strathcona,Vancouver Park Board/COV,"{""coordinates"": [-123.094341, 49.282643], ""type"": ""Point""}","49.282643, -123.094341",49.282643,-123.094341
Plaza of Nations,www.plazaofnations.com?,Community Space,Plaza/Park/Band Shell,"750 Pacific Blvd, Vancouver, BC, V6B 5E7",Downtown,Privately Owned,"{""coordinates"": [-123.110068, 49.276031], ""type"": ""Point""}","49.276031, -123.110068",49.276031,-123.110068
Remington Gallery and Studio,https://www.facebook.com/Remington.Gallery.and.Studio,Museum/Gallery,Museum/Gallery,"108 E Hastings St, Vancouver, BC, V6A 4J1",Downtown,Privately Owned,"{""coordinates"": [-123.1019396, 49.281336], ""type"": ""Point""}","49.281336, -123.1019396",49.281336,-123.1019396
UBC Museum of Anthropology,http://moa.ubc.ca/,Museum/Gallery,Museum/Gallery,"6393 NW Marine Dr, Vancouver, BC, V6T 1Z2",UBC,Other,"{""coordinates"": [-123.259174, 49.26907], ""type"": ""Point""}","49.26907, -123.259174",49.26907,-123.259174
UNIT/PITT Projects,www.helenpittgallery.org,Museum/Gallery,Museum/Gallery,"8 E Pender St, Vancouver, BC, V6A 1T7",Strathcona,Privately Owned,"{""coordinates"": [-123.1035844, 49.2804427], ""type"": ""Point""}","49.2804427, -123.1035844",49.2804427,-123.1035844
221A Artist Run Centre,www.221a.ca/?,Museum/Gallery,Museum/Gallery,"221 E Georgia St, Vancouver, BC, V6A 1Z6",Strathcona,Privately Owned,"{""coordinates"": [-123.098796, 49.278786], ""type"": ""Point""}","49.278786, -123.098796",49.278786,-123.098796
Alliance for Arts and Culture,http://www.allianceforarts.com,Museum/Gallery,Library/Archives,"938 Howe St, Vancouver, BC, V6Z 1N9",Downtown,Privately Owned,"{""coordinates"": [-123.1228359, 49.2803099], ""type"": ""Point""}","49.2803099, -123.1228359",49.2803099,-123.1228359
Basic Inquiry,http://www.lifedrawing.org/index.html,Museum/Gallery,Museum/Gallery,"1011 Main St, Vancouver, BC, V6A 4L4",Downtown,Privately Owned,"{""coordinates"": [-123.1000334, 49.2758184], ""type"": ""Point""}","49.2758184, -123.1000334",49.2758184,-123.1000334
Bill Reid Gallery,www.billreidgallery.ca,Museum/Gallery,Museum/Gallery,"639 Hornby St, Vancouver, BC, V6C 2G3",Downtown,Privately Owned,"{""coordinates"": [-123.119819, 49.284308], ""type"": ""Point""}","49.284308, -123.119819",49.284308,-123.119819
Bloedel Conservatory,http://vancouver.ca/parks-recreation-culture/bloedel-conservatory.aspx,Museum/Gallery,Garden/Aquarium/Science Centre,"4600 Cambie St, Vancouver, BC, V5Y 2M5",Riley Park,Vancouver Park Board/COV,"{""coordinates"": [-123.113759, 49.242077], ""type"": ""Point""}","49.242077, -123.113759",49.242077,-123.113759
Cineplex Odeon International Village Cinemas,http://www.cineplex.com/Theatre/Cineplex-Odeon-International-Village-Cinemas,Theatre/Performance,Cinema,"88 W Pender St, Vancouver, BC, V6B 6N9",Downtown,Privately Owned,"{""coordinates"": [-123.106621, 49.280474], ""type"": ""Point""}","49.280474, -123.106621",49.280474,-123.106621
Coastal Peoples Fine Arts Gallery Gastown,http://www.coastalpeoples.com,Museum/Gallery,Museum/Gallery,"312 Water St, Vancouver, BC, V6B 1B6",Downtown,Privately Owned,"{""coordinates"": [-123.109198, 49.2843539], ""type"": ""Point""}","49.2843539, -123.109198",49.2843539,-123.109198
Coastal Peoples Fine Arts Gallery Yaletown,http://www.coastalpeoples.com,Museum/Gallery,Museum/Gallery,"1024 Mainland St, Vancouver, BC, V6B 2T4",Downtown,Privately Owned,"{""coordinates"": [-123.119591, 49.2762084], ""type"": ""Point""}","49.2762084, -123.119591",49.2762084,-123.119591
Craft Council of British Columbia Gallery,www.craftcouncilbc.ca,Museum/Gallery,Museum/Gallery,"1386 Cartwright St, Vancouver, BC, V6H 3R8",Fairview,Government,"{""coordinates"": [-123.13479, 49.269837], ""type"": ""Point""}","49.269837, -123.13479",49.269837,-123.13479
Creekside Park,,Community Space,Plaza/Park/Band Shell,"1455 Quebec St, Vancouver, BC, V6A 3Z7",Downtown,City of Vancouver,"{""coordinates"": [-123.10319, 49.274159], ""type"": ""Point""}","49.274159, -123.10319",49.274159,-123.10319
David Lam Park,,Community Space,Plaza/Park/Band Shell,"1300 Pacific Blvd, Vancouver, BC, V6Z 2V1",Downtown,City of Vancouver,"{""coordinates"": [-123.1241736, 49.2724252], ""type"": ""Point""}","49.2724252, -123.1241736",49.2724252,-123.1241736
Djavad Mowafaghian Cinema,http://www.sfu.ca/mecs/facilities/goldcorp-centre-for-the-arts/meeting-rooms/djavadmowafaghian.html,Theatre/Performance,Cinema,"149 W Hastings St, Vancouver, BC, V6B 1H4",Downtown,Other,"{""coordinates"": [-123.108528, 49.282364], ""type"": ""Point""}","49.282364, -123.108528",49.282364,-123.108528
Dr. Sun Yat-Sen Classical Chinese Garden,www.vancouverchinesegarden.com?,Museum/Gallery,Garden/Aquarium/Science Centre,"578 Carrall St, Vancouver, BC, V6B 5K2",Downtown,City of Vancouver,"{""coordinates"": [-123.104168, 49.279983], ""type"": ""Point""}","49.279983, -123.104168",49.279983,-123.104168
Gam Gallery,http://gamgallery.com/contact/,Museum/Gallery,Museum/Gallery,"110 E Hastings St, Vancouver, BC, V6N 1N4",Downtown,Privately Owned,"{""coordinates"": [-123.101858, 49.2813343], ""type"": ""Point""}","49.2813343, -123.101858",49.2813343,-123.101858
Granville Island Gallery,www.granvilleislandgallery.com?,Museum/Gallery,Museum/Gallery,"1494 Old Bridge St, Vancouver, BC, V6H 3S6",Fairview,Government,"{""coordinates"": [-123.134769, 49.270213], ""type"": ""Point""}","49.270213, -123.134769",49.270213,-123.134769
Great Northern Way Scene Shop,www.gnwshop.ca?,Studio/Rehearsal,Workshop,"281 Industrial, Vancouver, BC, V5A 2P2",Strathcona,City of Vancouver,"{""coordinates"": [-123.098432, 49.270087], ""type"": ""Point""}","49.270087, -123.098432",49.270087,-123.098432
Ice Box Gallery,http://www.iceboxgallery.com,Museum/Gallery,Museum/Gallery,"321 Railway St, Vancouver, BC, V6A 1A4",Strathcona,Privately Owned,"{""coordinates"": [-123.097645, 49.2846363], ""type"": ""Point""}","49.2846363, -123.097645",49.2846363,-123.097645
Il Museo,https://italianculturalcentre.ca/events/museum-art-gallery/,Museum/Gallery,Museum/Gallery,"3075 Slocan St, Vancouver, BC, V5M 3E4",Renfrew-Collingwood,Non-Profit,"{""coordinates"": [-123.049576, 49.256761], ""type"": ""Point""}","49.256761, -123.049576",49.256761,-123.049576
Jericho Beach,,Community Space,Plaza/Park/Band Shell,"3941 Point Grey Rd., Vancouver, BC, V6R 1B5",West Point Grey,City of Vancouver,"{""coordinates"": [-123.1912389, 49.2711948], ""type"": ""Point""}","49.2711948, -123.1912389",49.2711948,-123.1912389
Science World At Telus World Of Science,www.scienceworld.ca?,Museum/Gallery,Garden/Aquarium/Science Centre,"1455 Quebec St, Vancouver, BC, V6A 3Z7",Downtown,Government,"{""coordinates"": [-123.103652, 49.273743], ""type"": ""Point""}","49.273743, -123.103652",49.273743,-123.103652
15th Field Artillery Regiment Museum and Archives,www.memorybc.ca/museum-of-15th-field-artillery-regiment,Museum/Gallery,Museum/Gallery,"2025 W 11th Av, Vancouver, BC, V6J 2C7",Kitsilano,Privately Owned,"{""coordinates"": [-123.151123, 49.261938], ""type"": ""Point""}","49.261938, -123.151123",49.261938,-123.151123
Art Beatus,www.artbeatus.com,Museum/Gallery,Museum/Gallery,"808 Nelson St, Vancouver, BC, V6Z 2H2",Downtown,Privately Owned,"{""coordinates"": [-123.1249139, 49.2800409], ""type"": ""Point""}","49.2800409, -123.1249139",49.2800409,-123.1249139
Beaty Biodiversity Museum,http://www.beatymuseum.ubc.ca/about,Museum/Gallery,Museum/Gallery,"2212 Main Mall, Vancouver, BC, V6T 1Z4",UBC,Other,"{""coordinates"": [-123.251485, 49.2634318], ""type"": ""Point""}","49.2634318, -123.251485",49.2634318,-123.251485
Chinese Cultural Centre Museum and Archives,,Museum/Gallery,Museum/Gallery,"555 Columbia St, Vancouver, BC, V6A 4H5",Downtown,City of Vancouver,"{""coordinates"": [-123.102448, 49.279894], ""type"": ""Point""}","49.279894, -123.102448",49.279894,-123.102448
Circle Craft Co-Operative Shop & Gallery,www.circlecraft.net/,Museum/Gallery,Museum/Gallery,"1666 Johnston St, Vancouver, BC, V6H 3S2",Fairview,Government,"{""coordinates"": [-123.135541, 49.272369], ""type"": ""Point""}","49.272369, -123.135541",49.272369,-123.135541
Colbourne House/ Marpole Museum,http://www.marpolehistorical.ca?,Museum/Gallery,Museum/Gallery,"8743 Sw Marine Dr, Vancouver, BC, V6P 6A5",Marpole,City of Vancouver,"{""coordinates"": [-123.1423354, 49.2064788], ""type"": ""Point""}","49.2064788, -123.1423354",49.2064788,-123.1423354
Great Northern Way Scene Shop,www.gnwshop.ca?,Studio/Rehearsal,Workshop,"281 Industrial, Vancouver, BC, V5A 2P2",Strathcona,City of Vancouver,"{""coordinates"": [-123.098432, 49.270087], ""type"": ""Point""}","49.270087, -123.098432",49.270087,-123.098432
Ice Box Gallery,http://www.iceboxgallery.com,Museum/Gallery,Museum/Gallery,"321 Railway St, Vancouver, BC, V6A 1A4",Strathcona,Privately Owned,"{""coordinates"": [-123.097645, 49.2846363], ""type"": ""Point""}","49.2846363, -123.097645",49.2846363,-123.097645
James Black Gallery,http://www.thejamesblack.gallery/,Museum/Gallery,Museum/Gallery,"144 E 6th Av, Vancouver, BC, V5T1J5",Mount Pleasant,Privately Owned,"{""coordinates"": [-123.1019214, 49.2652632], ""type"": ""Point""}","49.2652632, -123.1019214",49.2652632,-123.1019214
James Tan Gallery,http://www.jamestan.com/home.htm,Museum/Gallery,Museum/Gallery,"437 Columbia St, Vancouver, BC, V6A 2R9",Downtown,Privately Owned,"{""coordinates"": [-123.1023067, 49.2810853], ""type"": ""Point""}","49.2810853, -123.1023067",49.2810853,-123.1023067
Kitsilano Showboat,http://www.kitsilanoshowboat.com/showboat.html,Community Space,Plaza/Park/Band Shell,"2300 Cornwall Av, Vancouver, BC, V6K 1B7",Kitsilano,City of Vancouver,"{""coordinates"": [-123.1573621, 49.2725956], ""type"": ""Point""}","49.2725956, -123.1573621",49.2725956,-123.1573621
Morris and Helen Belkin Art Gallery,http://www.belkin.ubc.ca/,Museum/Gallery,Museum/Gallery,"1825 Main Mall, Vancouver, BC, V6T 1Z2",UBC,Other,"{""coordinates"": [-123.255944, 49.2683878], ""type"": ""Point""}","49.2683878, -123.255944",49.2683878,-123.255944
Oppenheimer Park,,Community Space,Plaza/Park/Band Shell,"Vancouver, BC",Strathcona,Vancouver Park Board/COV,"{""coordinates"": [-123.094341, 49.282643], ""type"": ""Point""}","49.282643, -123.094341",49.282643,-123.094341
Petley Jones Gallery,www.petleyjones.com?,Museum/Gallery,Museum/Gallery,"554 W 6th Av, Vancouver, BC, V6J 1R2",Mount Pleasant,Privately Owned,"{""coordinates"": [-123.0917358, 49.2652275], ""type"": ""Point""}","49.2652275, -123.0917358",49.2652275,-123.0917358
Rio Theatre,www.riotheatre.ca?,Theatre/Performance,Cinema,"1660 E Broadway, Vancouver, BC, V5N 1W1",Kensington-Cedar Cottage,Privately Owned,"{""coordinates"": [-123.0704852, 49.2620042], ""type"": ""Point""}","49.2620042, -123.0704852",49.2620042,-123.0704852
Trillium North Park,https://trilliumnorthpark.com/,Museum/Gallery,Garden/Aquarium/Science Centre,"699 National Av, Vancouver, BC,",Strathcona,Vancouver Park Board/COV,"{""coordinates"": [-123.09379, 49.274169], ""type"": ""Point""}","49.274169, -123.09379",49.274169,-123.09379
Vancouver Access Artist Run Centre,www.accessgallery.ca,Museum/Gallery,Museum/Gallery,"222 E Georgia St, Vancouver, BC, V6A 1Z7",Strathcona,Privately Owned,"{""coordinates"": [-123.098757, 49.278453], ""type"": ""Point""}","49.278453, -123.098757",49.278453,-123.098757
Vancouver Art Gallery North Plaza,,Community Space,Plaza/Park/Band Shell,"Vancouver, BC",Downtown,City of Vancouver,"{""coordinates"": [-123.119848, 49.283113], ""type"": ""Point""}","49.283113, -123.119848",49.283113,-123.119848
Wil Aballe Art Projects,http://www.waapart.com/,Museum/Gallery,Museum/Gallery,"1356 Frances St, Vancouver, BC, V5L 1Y9",Grandview-Woodland,Privately Owned,"{""coordinates"": [-123.0757838, 49.2794145], ""type"": ""Point""}","49.2794145, -123.0757838",49.2794145,-123.0757838
Art Works Gallery,http://artworksbc.com/,Museum/Gallery,Museum/Gallery,"225 Smithe St, Vancouver, BC, V6B 4X7",Downtown,Privately Owned,"{""coordinates"": [-123.1165781, 49.2775077], ""type"": ""Point""}","49.2775077, -123.1165781",49.2775077,-123.1165781
Catriona Jeffries Gallery,www.catrionajeffries.com?,Museum/Gallery,Museum/Gallery,"274 E 1st Av, Vancouver, BC, V5T 1A6",Strathcona,Privately Owned,"{""coordinates"": [-123.0980394, 49.2687198], ""type"": ""Point""}","49.2687198, -123.0980394",49.2687198,-123.0980394
Dr. Sun Yat-Sen Classical Chinese Garden,www.vancouverchinesegarden.com?,Museum/Gallery,Garden/Aquarium/Science Centre,"578 Carrall St, Vancouver, BC, V6B 5K2",Downtown,City of Vancouver,"{""coordinates"": [-123.103913, 49.279649], ""type"": ""Point""}","49.279649, -123.103913",49.279649,-123.103913
Federation Gallery,http://artists.ca/federation_gallery,Museum/Gallery,Museum/Gallery,"1241 Cartwright St, Vancouver, BC, V6H 4B7",Fairview,Privately Owned,"{""coordinates"": [-123.13225, 49.269582], ""type"": ""Point""}","49.269582, -123.13225",49.269582,-123.13225
Granville Fine Arts,www.granvillefineart.com?,Museum/Gallery,Museum/Gallery,"2447 Granville St, Vancouver, BC, V6H 3G5",Fairview,Privately Owned,"{""coordinates"": [-123.1386339, 49.2638926], ""type"": ""Point""}","49.2638926, -123.1386339",49.2638926,-123.1386339
Jack Poole Plaza,http://www.vancouverconventioncentre.com/jack-poole-plaza/,Community Space,Plaza/Park/Band Shell,"Vancouver, BC",Downtown,Government,"{""coordinates"": [-123.118259, 49.289387], ""type"": ""Point""}","49.289387, -123.118259",49.289387,-123.118259
Malaspina Printmakers Gallery,www.malaspinaprintmakers.com?,Museum/Gallery,Museum/Gallery,"1555 Duranleau St, Vancouver, BC, V6H 3S3",Fairview,Government,"{""coordinates"": [-123.135784, 49.271369], ""type"": ""Point""}","49.271369, -123.135784",49.271369,-123.135784
Peter Kiss Gallery,www.peterkiss.com,Museum/Gallery,Museum/Gallery,"1327 Railspur Alley, Vancouver, BC, V6H 4G9",Fairview,Privately Owned,"{""coordinates"": [-123.1337947, 49.2701374], ""type"": ""Point""}","49.2701374, -123.1337947",49.2701374,-123.1337947
Plaza of Nations,www.plazaofnations.com?,Community Space,Plaza/Park/Band Shell,"750 Pacific Blvd, Vancouver, BC, V6B 5E7",Downtown,Privately Owned,"{""coordinates"": [-123.110068, 49.276031], ""type"": ""Point""}","49.276031, -123.110068",49.276031,-123.110068
Semi-Public (221A),http://221a.ca/,Community Space,Plaza/Park/Band Shell,"271 Union St, Vancouver, BC, V6A 2B2",Strathcona,Privately Owned,"{""coordinates"": [-123.0974061, 49.2778745], ""type"": ""Point""}","49.2778745, -123.0974061",49.2778745,-123.0974061
Vancouver Art Gallery,www.vanartgallery.bc.ca,Museum/Gallery,Museum/Gallery,"750 Hornby St, Vancouver, BC, V6Z 2H7",Downtown,Government,"{""coordinates"": [-123.120932, 49.283158], ""type"": ""Point""}","49.283158, -123.120932",49.283158,-123.120932
Art Works Gallery,http://artworksbc.com/,Museum/Gallery,Museum/Gallery,"225 Smithe St, Vancouver, BC, V6B 4X7",Downtown,Privately Owned,"{""coordinates"": [-123.1165781, 49.2775077], ""type"": ""Point""}","49.2775077, -123.1165781",49.2775077,-123.1165781
Audain Gallery,https://www.sfu.ca/galleries/audain-gallery.html,Museum/Gallery,Museum/Gallery,"149 W Hastings St, Vancouver, BC, V6B 1H4",Downtown,Other,"{""coordinates"": [-123.108715, 49.282395], ""type"": ""Point""}","49.282395, -123.108715",49.282395,-123.108715
Douglas Reynolds Gallery,www.douglasreynoldsgallery.com,Museum/Gallery,Museum/Gallery,"2335 Granville St, Vancouver, BC, V6H 3G4",Fairview,Privately Owned,"{""coordinates"": [-123.1385998, 49.2648423], ""type"": ""Point""}","49.2648423, -123.1385998",49.2648423,-123.1385998
Elissa Cristall Galleries,http://cristallgallery.com,Museum/Gallery,Museum/Gallery,"2239 Granville St, Vancouver, BC, V6H 3G1",Fairview,Privately Owned,"{""coordinates"": [-123.1385822, 49.2655257], ""type"": ""Point""}","49.2655257, -123.1385822",49.2655257,-123.1385822
Gallery 295,http://gallery295.com/295/,Museum/Gallery,Museum/Gallery,"295 E 2nd Ave, Vancouver, BC, V5T 1B8",Strathcona,Privately Owned,"{""coordinates"": [-123.0981191, 49.2680645], ""type"": ""Point""}","49.2680645, -123.0981191",49.2680645,-123.0981191
Granville Street/ Entertainment District,,Community Space,Plaza/Park/Band Shell,", Vancouver, BC,",Downtown,City of Vancouver,"{""coordinates"": [-123.11966, 49.281457], ""type"": ""Point""}","49.281457, -123.11966",49.281457,-123.11966
Lobby Gallery,http://www.ligi.ubc.ca/LobbyGallery.htm,Museum/Gallery,Museum/Gallery,"6476 NW Marine Dr, Vancouver, BC,",,Other,"{""coordinates"": [-123.259146, 49.267681], ""type"": ""Point""}","49.267681, -123.259146",49.267681,-123.259146
Morris and Helen Belkin Art Gallery,http://www.belkin.ubc.ca/,Museum/Gallery,Museum/Gallery,"1825 Main Mall, Vancouver, BC, V6T 1Z2",,Other,"{""coordinates"": [-123.255944, 49.2683878], ""type"": ""Point""}","49.2683878, -123.255944",49.2683878,-123.255944
Plaza of Nations,www.plazaofnations.com?,Community Space,Plaza/Park/Band Shell,"750 Pacific Blvd, Vancouver, BC, V6B 5E7",Downtown,Privately Owned,"{""coordinates"": [-123.110068, 49.276031], ""type"": ""Point""}","49.276031, -123.110068",49.276031,-123.110068
The Apartment,http://theapt.ca/filter/Exhibition,Museum/Gallery,Museum/Gallery,"119B E Pender St, Vancouver, BC, V6A 1T6",Downtown,Privately Owned,"{""coordinates"": [-123.1015866, 49.2804859], ""type"": ""Point""}","49.2804859, -123.1015866",49.2804859,-123.1015866
Vancouver Aquarium,www.vanaqua.org?,Museum/Gallery,Garden/Aquarium/Science Centre,"845 Avison Way, Vancouver, BC, V6G 3E2",,City of Vancouver,"{""coordinates"": [-123.130997, 49.30067], ""type"": ""Point""}","49.30067, -123.130997",49.30067,-123.130997
Vancouver Community Laboratory,http://vancommunitylab.com/,Studio/Rehearsal,Workshop,"1907 Triumph St, Vancouver, BC, V5L 1K6",Grandview-Woodland,,"{""coordinates"": [-123.0652956, 49.2841727], ""type"": ""Point""}","49.2841727, -123.0652956",49.2841727,-123.0652956
AHVA Gallery,http://gallery.ahva.ubc.ca/about/,Museum/Gallery,Museum/Gallery,"6398 University Blvd, Vancouver, BC, V6T 1Z4",UBC,Other,"{""coordinates"": [-123.2549451, 49.2639124], ""type"": ""Point""}","49.2639124, -123.2549451",49.2639124,-123.2549451
Chinese Cultural Centre Museum and Archives,,Museum/Gallery,Museum/Gallery,"555 Columbia St, Vancouver, BC, V6A 4H5",Downtown Eastside,City of Vancouver,"{""coordinates"": [-123.102448, 49.279894], ""type"": ""Point""}","49.279894, -123.102448",49.279894,-123.102448
Colbourne House/ Marpole Museum,http://www.marpolehistorical.ca?,Museum/Gallery,Museum/Gallery,"8743 SW Marine Dr, Vancouver, BC, V6P 6A5",Marpole,City of Vancouver,"{""coordinates"": [-123.1423354, 49.2064788], ""type"": ""Point""}","49.2064788, -123.1423354",49.2064788,-123.1423354
David Lam Park/ Vancouver International Jazz Festival,,Community Space,Plaza/Park/Band Shell,"1300 Pacific Blvd, Vancouver, BC, V6Z 2V1",Downtown,City of Vancouver,"{""coordinates"": [-123.1241736, 49.2724252], ""type"": ""Point""}","49.2724252, -123.1241736",49.2724252,-123.1241736
Dundarave Print Workshop & Gallery,www.dundaraveprintworkshop.com,Museum/Gallery,Museum/Gallery,"1640 Johnston St, Vancouver, BC, V6H 3S2",Fairview,Privately Owned,"{""coordinates"": [-123.1353489, 49.2721848], ""type"": ""Point""}","49.2721848, -123.1353489",49.2721848,-123.1353489
Granville Island Gallery,www.granvilleislandgallery.com?,Museum/Gallery,Museum/Gallery,"1494 Old Bridge St, Vancouver, BC, V6H 3S6",Fairview,Government,"{""coordinates"": [-123.134769, 49.270213], ""type"": ""Point""}","49.270213, -123.134769",49.270213,-123.134769
Havana Gallery,www.havanarestaurant.ca,Museum/Gallery,Museum/Gallery,"1212 Commercial Dr, Vancouver, BC, V5L 3X4",Grandview-Woodland,Privately Owned,"{""coordinates"": [-123.069421, 49.273662], ""type"": ""Point""}","49.273662, -123.069421",49.273662,-123.069421
Heffel Gallery Ltd,www.heffel.com,Museum/Gallery,Museum/Gallery,"2247 Granville St, Vancouver, BC, V6H 3G1",Fairview,Privately Owned,"{""coordinates"": [-123.1389124, 49.2654685], ""type"": ""Point""}","49.2654685, -123.1389124",49.2654685,-123.1389124
John Hendry Park (Trout Lake),,Community Space,Plaza/Park/Band Shell,"3300 Victoria Dr, Vancouver, BC, V5N 4L9",Kensington-Cedar Cottage,Vancouver Park Board/COV,"{""coordinates"": [-123.06391, 49.25716], ""type"": ""Point""}","49.25716, -123.06391",49.25716,-123.06391
Lumbermen's Arch,,Community Space,Plaza/Park/Band Shell,"3250 Stanley Park Dr, Vancouver, BC, V6G 3E2",Stanley Park,City of Vancouver,"{""coordinates"": [-123.131707, 49.302981], ""type"": ""Point""}","49.302981, -123.131707",49.302981,-123.131707
New Leaf Editions,www.newleafeditions.com?,Studio/Rehearsal,Workshop,"3-1244 Cartwright St, Vancouver, BC, V6H 3R7",Fairview,Privately Owned,"{""coordinates"": [-123.134665, 49.269841], ""type"": ""Point""}","49.269841, -123.134665",49.269841,-123.134665
Or Gallery,www.orgallery.org?,Museum/Gallery,Museum/Gallery,"236 E Pender St, Vancouver, BC, V6A 1T7",Downtown Eastside,Privately Owned,"{""coordinates"": [-123.112094, 49.281406], ""type"": ""Point""}","49.281406, -123.112094",49.281406,-123.112094
Secret Lantern Society,https://www.secretlantern.org/#festival-overview,Studio/Rehearsal,Workshop,"328 -B Industrial Av, Vancouver, BC,",Strathcona,Privately Owned,"{""coordinates"": [-123.0965625, 49.2695868], ""type"": ""Point""}","49.2695868, -123.0965625",49.2695868,-123.0965625
SUM Gallery,https://sumgallery.ca/,Museum/Gallery,Museum/Gallery,"425-268 Keefer Street, Vancouver, BC, V6A 1X5",Downtown Eastside,Privately Owned,"{""coordinates"": [-123.0979982, 49.2791925], ""type"": ""Point""}","49.2791925, -123.0979982",49.2791925,-123.0979982
Van Dusen Botanical Garden,http://vandusengarden.org/,Museum/Gallery,Garden/Aquarium/Science Centre,"5251 Oak St, Vancouver, BC, V6M 4H1",Shaughnessy,City of Vancouver,"{""coordinates"": [-123.128627, 49.238472], ""type"": ""Point""}","49.238472, -123.128627",49.238472,-123.128627
Vancouver Biennale,https://www.vancouverbiennale.com/,Museum/Gallery,Museum/Gallery,"290 W 3rd Av, Vancouver, BC, V5Y 1G1",Mount Pleasant,Privately Owned,"{""coordinates"": [-123.110397, 49.268419], ""type"": ""Point""}","49.268419, -123.110397",49.268419,-123.110397
Vancouver Hack Space,https://vanhack.ca,Studio/Rehearsal,Workshop,"1601 Venables St, Vancouver, BC, V5L 2H1",Grandview-Woodland,Privately Owned,"{""coordinates"": [-123.0725648, 49.2769475], ""type"": ""Point""}","49.2769475, -123.0725648",49.2769475,-123.0725648
Vanier Park,,Community Space,Plaza/Park/Band Shell,"1000 Chestnut St, Vancouver, BC, V6J 3J9",Kitsilano,City of Vancouver,"{""coordinates"": [-123.146124, 49.276777], ""type"": ""Point""}","49.276777, -123.146124",49.276777,-123.146124
Arts Club Theatre - Production Centre,,Studio/Rehearsal,Workshop,"1377 Cartwright St, Vancouver, BC, V6H 3R7",Fairview,Government,"{""coordinates"": [-123.1347122, 49.2700047], ""type"": ""Point""}","49.2700047, -123.1347122",49.2700047,-123.1347122
Artspeak Gallery,www.artspeak.ca/?,Museum/Gallery,Museum/Gallery,"233 Carrall St, Vancouver, BC, V6B 2J2",Downtown,Non-Profit,"{""coordinates"": [-123.104299, 49.282941], ""type"": ""Point""}","49.282941, -123.104299",49.282941,-123.104299
Ayden Gallery,www.aydengallery.com?,Museum/Gallery,Museum/Gallery,"88 W Pender St, Vancouver, BC, V6B 6N9",Downtown,Privately Owned,"{""coordinates"": [-123.1071802, 49.2809655], ""type"": ""Point""}","49.2809655, -123.1071802",49.2809655,-123.1071802
BAF Studio,http://www.burrardarts.org/about.html,Museum/Gallery,Museum/Gallery,"108 E Broadway Av, Vancouver, BC, V5T 1V9",Mount Pleasant,Privately Owned,"{""coordinates"": [-123.102505, 49.262669], ""type"": ""Point""}","49.262669, -123.102505",49.262669,-123.102505
Centre A - Centre For Contemporary Asian Art,http://centrea.org,Museum/Gallery,Museum/Gallery,"268 Keefer St, Vancouver, BC, V6A 1X6",Strathcona,Privately Owned,"{""coordinates"": [-123.098181, 49.280067], ""type"": ""Point""}","49.280067, -123.098181",49.280067,-123.098181
Circle Craft Co-Operative Shop & Gallery,www.circlecraft.net/,Museum/Gallery,Museum/Gallery,"1666 Johnston St, Vancouver, BC, V6H 3S2",Fairview,Government,"{""coordinates"": [-123.135541, 49.272369], ""type"": ""Point""}","49.272369, -123.135541",49.272369,-123.135541
Contemporary Art Gallery,www.contemporaryartgallery.ca?,Museum/Gallery,Museum/Gallery,"555 Nelson St, Vancouver, BC, V6B 6R5",Downtown,Privately Owned,"{""coordinates"": [-123.121183, 49.278238], ""type"": ""Point""}","49.278238, -123.121183",49.278238,-123.121183
PNE Amphitheatre,http://www.49st.com/venue/pne-amphitheatre#info,Community Space,Plaza/Park/Band Shell,"2901 E Hastings St, Vancouver, BC, V5K 5J1",Hastings-Sunrise,City of Vancouver,"{""coordinates"": [-123.037295, 49.28416], ""type"": ""Point""}","49.28416, -123.037295",49.28416,-123.037295
Queen Elizabeth Theatre Plaza,,Community Space,Plaza/Park/Band Shell,"650 Hamilton St, Vancouver, BC, V6B 5N6",Downtown,City of Vancouver,"{""coordinates"": [-123.113393, 49.27994], ""type"": ""Point""}","49.27994, -123.113393",49.27994,-123.113393
Spirit Wrestler Gallery,www.spiritwrestler.com,Museum/Gallery,Museum/Gallery,"47 Water St, Vancouver, BC, V6B 1A1",Downtown,Privately Owned,"{""coordinates"": [-123.105348, 49.2837331], ""type"": ""Point""}","49.2837331, -123.105348",49.2837331,-123.105348
Wall Centre Plaza,,Community Space,Plaza/Park/Band Shell,"1088 Burrard St, Vancouver, BC, V6Z 2R9",Downtown,Privately Owned,"{""coordinates"": [-123.1265368, 49.2801175], ""type"": ""Point""}","49.2801175, -123.1265368",49.2801175,-123.1265368
Western Front - Gallery,www.front.bc.ca?,Museum/Gallery,Museum/Gallery,"303 E 8th Av, Vancouver, BC, V5T 1S1",Mount Pleasant,Privately Owned,"{""coordinates"": [-123.098654, 49.263916], ""type"": ""Point""}","49.263916, -123.098654",49.263916,-123.098654
Hill's Native Art,www.hillsnativeart.com,Museum/Gallery,Museum/Gallery,"165 Water St, Vancouver, BC, V6B 1A7",Downtown,Privately Owned,"{""coordinates"": [-123.1081528, 49.2844721], ""type"": ""Point""}","49.2844721, -123.1081528",49.2844721,-123.1081528
Lumbermen's Arch,,Community Space,Plaza/Park/Band Shell,"Stanley Park, Vancouver, BC",Stanley Park,City of Vancouver,"{""coordinates"": [-123.131707, 49.302981], ""type"": ""Point""}","49.302981, -123.131707",49.302981,-123.131707
MakerLabs,www.makerlabs.ca,Studio/Rehearsal,Workshop,"780 E Cordova St, Vancouver, BC, V6A1M3",Strathcona,Privately Owned,"{""coordinates"": [-123.087695, 49.2818014], ""type"": ""Point""}","49.2818014, -123.087695",49.2818014,-123.087695
Remington Gallery and Studio,https://www.facebook.com/Remington.Gallery.and.Studio,Museum/Gallery,Museum/Gallery,"108 E Hastings St, Vancouver, BC, V6A 4J1",Downtown,Privately Owned,"{""coordinates"": [-123.1019396, 49.281336], ""type"": ""Point""}","49.281336, -123.1019396",49.281336,-123.1019396
Uno Langmann Limited Fine Arts,www.langmann.com,Museum/Gallery,Museum/Gallery,"2117 Granville St, Vancouver, BC, V6H 3E9",Fairview,Privately Owned,"{""coordinates"": [-123.1388698, 49.2666423], ""type"": ""Point""}","49.2666423, -123.1388698",49.2666423,-123.1388698
CBC Outdoor Stage,http://www.cbc.ca,Community Space,Plaza/Park/Band Shell,"700 Hamilton, Vancouver, BC, V6B 2R5",Downtown,Government,"{""coordinates"": [-123.114669, 49.279299], ""type"": ""Point""}","49.279299, -123.114669",49.279299,-123.114669
Charles H. Scott Gallery,www.chscott.ecuad.ca?,Museum/Gallery,Museum/Gallery,"1399 Johnston St, Vancouver, BC, V6H 2R9",Fairview,Government,"{""coordinates"": [-123.132876, 49.270485], ""type"": ""Point""}","49.270485, -123.132876",49.270485,-123.132876
Pendulum Gallery,www.pendulumgallery.bc.ca?,Museum/Gallery,Museum/Gallery,"885 W Georgia St, Vancouver, BC, V6C 3E8",Downtown,Privately Owned,"{""coordinates"": [-123.119963, 49.283709], ""type"": ""Point""}","49.283709, -123.119963",49.283709,-123.119963
Satellite Gallery,www.satellitegallery.ca,Museum/Gallery,Museum/Gallery,"560 Seymour St, Vancouver, BC, V6B 3J5",Downtown,Privately Owned,"{""coordinates"": [-123.114585, 49.283183], ""type"": ""Point""}","49.283183, -123.114585",49.283183,-123.114585
Vancity Theatre,http://www.viff.org/theatre/facility-info,Theatre/Performance,Cinema,"1181 Seymour St, Vancouver, BC, V6B 3M7",Downtown,Privately Owned,"{""coordinates"": [-123.124732, 49.276974], ""type"": ""Point""}","49.276974, -123.124732",49.276974,-123.124732
Vancouver Aquarium,www.vanaqua.org?,Museum/Gallery,Garden/Aquarium/Science Centre,"845 Avison Way, Vancouver, BC, V6G 3E2",Stanley Park,City of Vancouver,"{""coordinates"": [-123.130997, 49.30067], ""type"": ""Point""}","49.30067, -123.130997",49.30067,-123.130997
Art Emporium,http://www.theartemporium.ca,Museum/Gallery,Museum/Gallery,"2928 Granville St, Vancouver, BC, V6H 3J7",Fairview,Privately Owned,"{""coordinates"": [-123.1383072, 49.2593906], ""type"": ""Point""}","49.2593906, -123.1383072",49.2593906,-123.1383072
Chinese Cultural Centre Museum and Archives,,Museum/Gallery,Museum/Gallery,"555 Columbia St, Vancouver, BC, V6A 4H5",Downtown,City of Vancouver,"{""coordinates"": [-123.102448, 49.279894], ""type"": ""Point""}","49.279894, -123.102448",49.279894,-123.102448
City of Vancouver Archives,www.vancouver.cayour-government/city-of-vancouver-archives.aspx?,Museum/Gallery,Library/Archives,"1150 Chestnut St, Vancouver, BC, V6J 3J9",Kitsilano,City of Vancouver,"{""coordinates"": [-123.142663, 49.276084], ""type"": ""Point""}","49.276084, -123.142663",49.276084,-123.142663
Dr. Sun Yat-Sen Classical Chinese Garden,www.vancouverchinesegarden.com?,Museum/Gallery,Garden/Aquarium/Science Centre,"578 Carrall St, Vancouver, BC, V6B 5K2",Downtown,City of Vancouver,"{""coordinates"": [-123.103361, 49.279776], ""type"": ""Point""}","49.279776, -123.103361",49.279776,-123.103361
Granville Fine Arts,www.granvillefineart.com?,Museum/Gallery,Museum/Gallery,"2447 Granville St, Vancouver, BC, V6H 3G5",Fairview,Privately Owned,"{""coordinates"": [-123.1386339, 49.2638926], ""type"": ""Point""}","49.2638926, -123.1386339",49.2638926,-123.1386339
Grunt Gallery,www.grunt.ca?,Museum/Gallery,Museum/Gallery,"350 E 2nd Av, Vancouver, BC, V5T 4R8",Mount Pleasant,Non-Profit,"{""coordinates"": [-123.09715, 49.26676], ""type"": ""Point""}","49.26676, -123.09715",49.26676,-123.09715
Hot Art Wet City,http://hotartwetcity.com/,Museum/Gallery,Museum/Gallery,"2206 Main St, Vancouver, BC, V5T 3C7",Mount Pleasant,Privately Owned,"{""coordinates"": [-123.1007282, 49.2653981], ""type"": ""Point""}","49.2653981, -123.1007282",49.2653981,-123.1007282
Jack Poole Plaza,http://www.vancouverconventioncentre.com/jack-poole-plaza/,Community Space,Plaza/Park/Band Shell,", Vancouver, BC,",Downtown,Government,"{""coordinates"": [-123.118259, 49.289387], ""type"": ""Point""}","49.289387, -123.118259",49.289387,-123.118259
Kitsilano Showboat,http://www.kitsilanoshowboat.com/showboat.html,Community Space,Plaza/Park/Band Shell,"2300 Cornwall Av, Vancouver, BC, V6K 1B7",Kitsilano,City of Vancouver,"{""coordinates"": [-123.1573621, 49.2725956], ""type"": ""Point""}","49.2725956, -123.1573621",49.2725956,-123.1573621
Labyrinth Gallery,http://labyrinthgallery.org/,Museum/Gallery,Museum/Gallery,"112 E Hastings St, Vancouver, BC, V6A 4J1",Downtown,Privately Owned,"{""coordinates"": [-123.1017894, 49.2810651], ""type"": ""Point""}","49.2810651, -123.1017894",49.2810651,-123.1017894
Remington Gallery and Studio,https://www.facebook.com/Remington.Gallery.and.Studio,Museum/Gallery,Museum/Gallery,"108 E Hastings St, Vancouver, BC, V6A 4J1",Downtown,,"{""coordinates"": [-123.1019396, 49.281336], ""type"": ""Point""}","49.281336, -123.1019396",49.281336,-123.1019396
"Rio Theatre, The",www.riotheatre.ca?,Theatre/Performance,Cinema,"1660 E Broadway, Vancouver, BC, V5N 1W1",Kensington-Cedar Cottage,Privately Owned,"{""coordinates"": [-123.0704852, 49.2620042], ""type"": ""Point""}","49.2620042, -123.0704852",49.2620042,-123.0704852
Satellite Gallery,www.satellitegallery.ca,Museum/Gallery,Museum/Gallery,"560 Seymour St, Vancouver, BC, V6B 3J5",Downtown,Privately Owned,"{""coordinates"": [-123.114585, 49.283183], ""type"": ""Point""}","49.283183, -123.114585",49.283183,-123.114585
Tracey Lawrence Gallery,,Museum/Gallery,Museum/Gallery,"1531 W 4th Av, Vancouver, BC, V6J 1L6",Fairview,Privately Owned,"{""coordinates"": [-123.139461, 49.267975], ""type"": ""Point""}","49.267975, -123.139461",49.267975,-123.139461
Alliance for Arts and Culture,http://www.allianceforarts.com,Museum/Gallery,Library/Archives,"938 Howe St, Vancouver, BC, V6Z 1N9",Downtown,Privately Owned,"{""coordinates"": [-123.1228359, 49.2803099], ""type"": ""Point""}","49.2803099, -123.1228359",49.2803099,-123.1228359
Arts Club Theatre - Production Centre,,Studio/Rehearsal,Workshop,"1377 Cartwright St, Vancouver, BC, V6H 3R7",Fairview,Government,"{""coordinates"": [-123.1347122, 49.2700047], ""type"": ""Point""}","49.2700047, -123.1347122",49.2700047,-123.1347122
Artstarts in Schools,www.artstarts.com,Museum/Gallery,Museum/Gallery,"808 Richards St, Vancouver, BC, V6B 3A7",Downtown,Privately Owned,"{""coordinates"": [-123.1179808, 49.2799985], ""type"": ""Point""}","49.2799985, -123.1179808",49.2799985,-123.1179808
Ayden Gallery,www.aydengallery.com?,Museum/Gallery,Museum/Gallery,"88 W Pender St, Vancouver, BC, V6B 6N9",Downtown,Privately Owned,"{""coordinates"": [-123.1071802, 49.2809655], ""type"": ""Point""}","49.2809655, -123.1071802",49.2809655,-123.1071802
Basic Inquiry,http://www.lifedrawing.org/index.html,Museum/Gallery,Museum/Gallery,"1011 Main St, Vancouver, BC, V6A 4L4",Downtown,Privately Owned,"{""coordinates"": [-123.1000334, 49.2758184], ""type"": ""Point""}","49.2758184, -123.1000334",49.2758184,-123.1000334
Cineplex Odeon International Village Cinemas,http://www.cineplex.com/Theatre/Cineplex-Odeon-International-Village-Cinemas,Theatre/Performance,Cinema,"88 W Pender St, Vancouver, BC, V6B 6N9",Downtown,Privately Owned,"{""coordinates"": [-123.106621, 49.280474], ""type"": ""Point""}","49.280474, -123.106621",49.280474,-123.106621
Coastal Peoples Fine Arts Gallery Gastown,http://www.coastalpeoples.com,Museum/Gallery,Museum/Gallery,"200-322 Water St, Vancouver, BC, V6B 1B6",Downtown,Privately Owned,"{""coordinates"": [-123.109198, 49.2843539], ""type"": ""Point""}","49.2843539, -123.109198",49.2843539,-123.109198
Haywood Bandstand,,Community Space,Plaza/Park/Band Shell,"1755 Beach Av, Vancouver, BC, V6G 2L1",West End,Vancouver Park Board/COV,"{""coordinates"": [-123.141944, 49.285278], ""type"": ""Point""}","49.285278, -123.141944",49.285278,-123.141944
Jack Poole Plaza,http://www.vancouverconventioncentre.com/jack-poole-plaza/,Community Space,Plaza/Park/Band Shell,"1075 Canada Pl, Vancouver, BC, V6C 3L5",Downtown,Government,"{""coordinates"": [-123.118259, 49.289387], ""type"": ""Point""}","49.289387, -123.118259",49.289387,-123.118259
Teck Gallery,https://www.sfu.ca/galleries/teck-gallery.html,Museum/Gallery,Museum/Gallery,"515 W Hastings St, Vancouver, BC, V6B 0B2",Downtown,Privately Owned,"{""coordinates"": [-123.1119735, 49.2841655], ""type"": ""Point""}","49.2841655, -123.1119735",49.2841655,-123.1119735
Vancouver Aquarium,www.vanaqua.org?,Museum/Gallery,Garden/Aquarium/Science Centre,"845 Avison Way, Vancouver, BC, V6G 3E2",Stanley Park,City of Vancouver,"{""coordinates"": [-123.130997, 49.30067], ""type"": ""Point""}","49.30067, -123.130997",49.30067,-123.130997
Vancouver Maritime Museum,www.vancouvermaritimemuseum.com,Museum/Gallery,Museum/Gallery,"1905 Ogden Av, Vancouver, BC, V6J 1A3",Kitsilano,City of Vancouver,"{""coordinates"": [-123.147587, 49.277465], ""type"": ""Point""}","49.277465, -123.147587",49.277465,-123.147587
Vancouver Police Museum,www.vancouverpolicemuseum.ca?,Museum/Gallery,Museum/Gallery,"240 E Cordova St, Vancouver, BC, V6A 1L3",Strathcona,City of Vancouver,"{""coordinates"": [-123.0987999, 49.282247], ""type"": ""Point""}","49.282247, -123.0987999",49.282247,-123.0987999
Winsor Gallery,http://winsorgallery.blogspot.com/,Museum/Gallery,Museum/Gallery,"258 E 1st Av, Vancouver, BC, V5T 1A6",Strathcona,Privately Owned,"{""coordinates"": [-123.0984496, 49.2689553], ""type"": ""Point""}","49.2689553, -123.0984496",49.2689553,-123.0984496
Back Gallery Project,http://www.backgalleryproject.com/,Museum/Gallery,Museum/Gallery,"602 E Hastings St, Vancouver, BC, V6A 1R1",Strathcona,Privately Owned,"{""coordinates"": [-123.0913998, 49.2811369], ""type"": ""Point""}","49.2811369, -123.0913998",49.2811369,-123.0913998
Gallery Gachet,www.gachet.org?,Museum/Gallery,Museum/Gallery,"9 W Hastings St, Vancouver, BC, V6B 1G4",Downtown,Privately Owned,"{""coordinates"": [-123.104947, 49.281719], ""type"": ""Point""}","49.281719, -123.104947",49.281719,-123.104947
Jack Poole Plaza,http://www.vancouverconventioncentre.com/jack-poole-plaza/,Community Space,Plaza/Park/Band Shell,"1075 Canada Pl, Vancouver, BC, V6C 3L5",Downtown,Government,"{""coordinates"": [-123.118259, 49.289387], ""type"": ""Point""}","49.289387, -123.118259",49.289387,-123.118259
Kitsilano Showboat,http://www.kitsilanoshowboat.com/showboat.html,Community Space,Plaza/Park/Band Shell,"2300 Cornwall Av, Vancouver, BC, V6K 1B7",Kitsilano,City of Vancouver,"{""coordinates"": [-123.1573621, 49.2725956], ""type"": ""Point""}","49.2725956, -123.1573621",49.2725956,-123.1573621
Unit/Pitt Projects,www.helenpittgallery.org,Museum/Gallery,Museum/Gallery,"236 E Pender St, Vancouver, BC, V6A 1T7",Strathcona,Privately Owned,"{""coordinates"": [-123.098813, 49.280103], ""type"": ""Point""}","49.280103, -123.098813",49.280103,-123.098813
Vancouver Aquarium,www.vanaqua.org?,Museum/Gallery,Garden/Aquarium/Science Centre,"845 Avison Way, Vancouver, BC, V6G 3E2",Stanley Park,City of Vancouver,"{""coordinates"": [-123.130997, 49.30067], ""type"": ""Point""}","49.30067, -123.130997",49.30067,-123.130997
Vancouver Hack Space,https://vanhack.ca,Studio/Rehearsal,Workshop,"1715 Cook St, Vancouver, BC, V5Y 3J6",Mount Pleasant,Privately Owned,"{""coordinates"": [-123.098112, 49.268761], ""type"": ""Point""}","49.268761, -123.098112",49.268761,-123.098112
Art Emporium,http://www.theartemporium.ca,Museum/Gallery,Museum/Gallery,"2928 Granville St, Vancouver, BC, V6H 3J7",Fairview,Privately Owned,"{""coordinates"": [-123.1383072, 49.2593906], ""type"": ""Point""}","49.2593906, -123.1383072",49.2593906,-123.1383072
BMO Theatre Centre - Workshop,,Studio/Rehearsal,Workshop,"162 W 1st Av, Vancouver, BC, V5Y 1A4",Mount Pleasant,City of Vancouver,"{""coordinates"": [-123.108535, 49.2702275], ""type"": ""Point""}","49.2702275, -123.108535",49.2702275,-123.108535
Centre A - Centre For Contemporary Asian Art,http://centrea.org,Museum/Gallery,Museum/Gallery,"229 E Georgia St, Vancouver, BC, V6A 1Z6",Strathcona,Privately Owned,"{""coordinates"": [-123.098671, 49.278676], ""type"": ""Point""}","49.278676, -123.098671",49.278676,-123.098671
Ceperley Meadow,,Community Space,Plaza/Park/Band Shell,"Stanley Park, Vancouver, BC",Stanley Park,City of Vancouver,"{""coordinates"": [-123.148518, 49.293772], ""type"": ""Point""}","49.293772, -123.148518",49.293772,-123.148518
Chali-Rosso Gallery,www.chalirosso.com,Museum/Gallery,Museum/Gallery,"2250 Granville St, Vancouver, BC, V6H 4H7",Fairview,Privately Owned,"{""coordinates"": [-123.1384021, 49.2657529], ""type"": ""Point""}","49.2657529, -123.1384021",49.2657529,-123.1384021
Vancouver Holocaust Education Centre,www.vhec.org?,Museum/Gallery,Museum/Gallery,"950 W 41st Av, Vancouver, BC, V5Z 2N7",Oakridge,Privately Owned,"{""coordinates"": [-123.126013, 49.233442], ""type"": ""Point""}","49.233442, -123.126013",49.233442,-123.126013
Coastal Peoples Fine Arts Gallery Yaletown,http://www.coastalpeoples.com,Museum/Gallery,Museum/Gallery,"1024 Mainland St, Vancouver, BC, V6B 2T4",Downtown,Privately Owned,"{""coordinates"": [-123.119591, 49.2762084], ""type"": ""Point""}","49.2762084, -123.119591",49.2762084,-123.119591
H.R. Macmillan Space Centre,http://www.spacecentre.ca/,Museum/Gallery,Garden/Aquarium/Science Centre,"1100 Chestnut St, Vancouver, BC, V6J 3J9",Kitsilano,City of Vancouver,"{""coordinates"": [-123.144299, 49.276361], ""type"": ""Point""}","49.276361, -123.144299",49.276361,-123.144299
